{"type":"FeatureCollection","features":[{"type":"Feature","id":0,"geometry":{"type":"Polygon","coordinates":[[[-75.133182,5.433377],[-75.133342,5.433154],[-75.133418,5.433076],[-75.133572,5.433001],[-75.133637,5.432995],[-75.133723,5.43301],[-75.133802,5.433035],[-75.133863,5.433052],[-75.133922,5.433056],[-75.133979,5.433016],[-75.134027,5.432899],[-75.134072,5.432826],[-75.134284,5.432956],[-75.134615,5.433175],[-75.134827,5.433293],[-75.135171,5.433457],[-75.135398,5.433556],[-75.135653,5.433696],[-75.135914,5.433858],[-75.136234,5.43407],[-75.136408,5.434197],[-75.136543,5.43431],[-75.136645,5.434394],[-75.136708,5.43449],[-75.136719,5.434555],[-75.13659,5.434725],[-75.136426,5.434867],[-75.136277,5.435045],[-75.136199,5.435168],[-75.136167,5.435239],[-75.13602,5.435401],[-75.135899,5.4355],[-75.135767,5.435596],[-75.135649,5.435664],[-75.135503,5.435729],[-75.135334,5.435738],[-75.135185,5.435797],[-75.13503,5.435823],[-75.13485,5.435849],[-75.134662,5.435939],[-75.134482,5.436035],[-75.134369,5.436092],[-75.134226,5.436149],[-75.134113,5.436214],[-75.133936,5.436301],[-75.133782,5.436347],[-75.133652,5.43633],[-75.133537,5.436285],[-75.133402,5.436204],[-75.133362,5.436183],[-75.133297,5.43615],[-75.133196,5.436145],[-75.133095,5.436162],[-75.132991,5.436193],[-75.132903,5.436238],[-75.132679,5.436371],[-75.13244,5.436499],[-75.131883,5.436793],[-75.131675,5.436957],[-75.13152,5.437039],[-75.131391,5.43709],[-75.131248,5.437107],[-75.131129,5.437104],[-75.130997,5.437136],[-75.130842,5.437125],[-75.130749,5.437088],[-75.130634,5.437071],[-75.130513,5.437066],[-75.130319,5.437055],[-75.130071,5.437019],[-75.129925,5.436994],[-75.129917,5.437383],[-75.129912,5.437682],[-75.129859,5.438023],[-75.129803,5.438223],[-75.129719,5.438364],[-75.129629,5.438497],[-75.12952,5.438571],[-75.129393,5.43861],[-75.129266,5.438629],[-75.129141,5.438648],[-75.129042,5.438699],[-75.12895,5.438799],[-75.12887,5.438902],[-75.128822,5.439002],[-75.128826,5.439223],[-75.128804,5.439322],[-75.12872,5.439535],[-75.128652,5.439709],[-75.128625,5.439844],[-75.128619,5.439991],[-75.12856,5.440198],[-75.128495,5.44036],[-75.12839,5.440537],[-75.128295,5.440618],[-75.128133,5.440618],[-75.128023,5.440609],[-75.127915,5.440636],[-75.127739,5.440673],[-75.127613,5.440691],[-75.127464,5.440655],[-75.127311,5.440532],[-75.127215,5.440473],[-75.127111,5.440455],[-75.126979,5.44047],[-75.126794,5.440548],[-75.126543,5.440663],[-75.126367,5.44072],[-75.126205,5.440717],[-75.126062,5.440676],[-75.125888,5.440652],[-75.125742,5.440679],[-75.125589,5.440769],[-75.125449,5.440925],[-75.12539,5.441168],[-75.125378,5.441324],[-75.125378,5.441456],[-75.125349,5.441662],[-75.125334,5.441779],[-75.125346,5.441983],[-75.125374,5.442241],[-75.125368,5.442444],[-75.125332,5.442651],[-75.125255,5.442768],[-75.125115,5.442816],[-75.124986,5.442805],[-75.124854,5.442793],[-75.124774,5.442847],[-75.124738,5.442925],[-75.12472,5.443081],[-75.124689,5.443276],[-75.124665,5.4435],[-75.124607,5.443652],[-75.124541,5.44374],[-75.124416,5.443788],[-75.124251,5.443767],[-75.12415,5.443725],[-75.124083,5.443663],[-75.124027,5.443573],[-75.123982,5.443432],[-75.123936,5.443248],[-75.123885,5.44312],[-75.123824,5.443056],[-75.123736,5.443016],[-75.123659,5.443006],[-75.123539,5.443064],[-75.123452,5.443196],[-75.1234,5.443385],[-75.123369,5.443629],[-75.123317,5.443807],[-75.123185,5.444132],[-75.123092,5.444394],[-75.122967,5.444726],[-75.122891,5.444963],[-75.122856,5.445166],[-75.122829,5.445413],[-75.122781,5.445703],[-75.122729,5.445986],[-75.122663,5.446255],[-75.122611,5.446464],[-75.122553,5.446778],[-75.122522,5.446977],[-75.1225,5.447048],[-75.122484,5.4471],[-75.122435,5.447354],[-75.122363,5.447613],[-75.122262,5.44792],[-75.122096,5.448283],[-75.121904,5.448514],[-75.121682,5.448755],[-75.121508,5.448912],[-75.121327,5.44907],[-75.121254,5.449189],[-75.121161,5.449388],[-75.121105,5.44958],[-75.121057,5.449726],[-75.120987,5.449859],[-75.120821,5.450044],[-75.120659,5.450258],[-75.120647,5.450275],[-75.12048,5.450593],[-75.120289,5.45097],[-75.120098,5.451239],[-75.120015,5.451477],[-75.119974,5.451571],[-75.11988,5.451756],[-75.119817,5.451847],[-75.119685,5.451948],[-75.11979,5.452388],[-75.119815,5.452772],[-75.119809,5.453058],[-75.11983,5.453323],[-75.119893,5.453567],[-75.119995,5.453797],[-75.120103,5.453975],[-75.120188,5.454138],[-75.120208,5.454177],[-75.120179,5.454439],[-75.120097,5.454439],[-75.120107,5.454476],[-75.120116,5.454625],[-75.12009,5.454904],[-75.120026,5.455171],[-75.119857,5.455675],[-75.119758,5.455922],[-75.119601,5.456242],[-75.119478,5.456585],[-75.119353,5.456976],[-75.119207,5.457372],[-75.119117,5.457548],[-75.118942,5.457838],[-75.118746,5.458097],[-75.118594,5.458273],[-75.118477,5.458454],[-75.118451,5.458493],[-75.118393,5.458576],[-75.118364,5.458617],[-75.118329,5.458618],[-75.118279,5.45862],[-75.118234,5.458606],[-75.118165,5.458585],[-75.118071,5.458535],[-75.118001,5.458456],[-75.117971,5.458374],[-75.117974,5.458271],[-75.118003,5.458157],[-75.117988,5.458072],[-75.117947,5.457969],[-75.117868,5.457914],[-75.117762,5.457838],[-75.117666,5.457797],[-75.117546,5.457753],[-75.117443,5.457706],[-75.117323,5.457636],[-75.117233,5.457556],[-75.11713,5.457438],[-75.117064,5.457302],[-75.11699,5.457114],[-75.116938,5.456941],[-75.116919,5.456812],[-75.116921,5.456807],[-75.116824,5.456808],[-75.116759,5.456825],[-75.11668,5.456874],[-75.11652,5.456986],[-75.116297,5.457185],[-75.116206,5.457261],[-75.116113,5.457339],[-75.115931,5.457466],[-75.115771,5.457548],[-75.115705,5.457551],[-75.115631,5.457555],[-75.115568,5.457574],[-75.115494,5.45763],[-75.115436,5.457714],[-75.115334,5.457922],[-75.115139,5.458244],[-75.11489,5.458583],[-75.114683,5.458761],[-75.114465,5.458987],[-75.114318,5.459111],[-75.114239,5.459205],[-75.11406,5.45935],[-75.11389,5.459449],[-75.113685,5.459685],[-75.113475,5.460044],[-75.113402,5.460221],[-75.113347,5.46041],[-75.113328,5.46055],[-75.113266,5.460731],[-75.113163,5.460884],[-75.113048,5.46096],[-75.112838,5.460953],[-75.11264,5.460915],[-75.112451,5.460877],[-75.112337,5.460893],[-75.112223,5.460965],[-75.112051,5.461096],[-75.111961,5.461145],[-75.111842,5.461181],[-75.111896,5.461045],[-75.111917,5.46091],[-75.112017,5.460643],[-75.112102,5.460293],[-75.112104,5.460133],[-75.112019,5.460006],[-75.111925,5.459892],[-75.111734,5.459744],[-75.111563,5.459638],[-75.11141,5.459579],[-75.111224,5.459525],[-75.111068,5.459515],[-75.110991,5.459528],[-75.110885,5.459505],[-75.110701,5.459435],[-75.110533,5.459428],[-75.110354,5.459435],[-75.110228,5.459459],[-75.110099,5.459474],[-75.110173,5.459322],[-75.110191,5.459186],[-75.110177,5.458974],[-75.110106,5.458763],[-75.10995,5.45835],[-75.109729,5.457965],[-75.109494,5.457674],[-75.109212,5.457312],[-75.109038,5.457026],[-75.108916,5.456763],[-75.108883,5.456486],[-75.108868,5.456208],[-75.108802,5.45603],[-75.108708,5.455922],[-75.108511,5.455767],[-75.10837,5.455626],[-75.108281,5.455476],[-75.108127,5.455313],[-75.107832,5.45516],[-75.107463,5.454996],[-75.107213,5.454787],[-75.107214,5.454461],[-75.107237,5.454221],[-75.107221,5.454077],[-75.107166,5.453977],[-75.107067,5.453894],[-75.106958,5.453846],[-75.106871,5.453801],[-75.106801,5.453718],[-75.10675,5.453605],[-75.106735,5.453606],[-75.106685,5.45359],[-75.10661,5.453567],[-75.106491,5.453524],[-75.106432,5.453449],[-75.106415,5.45336],[-75.106425,5.453224],[-75.106448,5.453046],[-75.106401,5.452911],[-75.106322,5.452862],[-75.106154,5.452809],[-75.106056,5.452767],[-75.10597,5.452688],[-75.105871,5.452596],[-75.105759,5.452543],[-75.105642,5.45252],[-75.105851,5.452381],[-75.10613,5.452144],[-75.106393,5.451988],[-75.106653,5.451826],[-75.106679,5.451808],[-75.106706,5.451789],[-75.106837,5.451697],[-75.106988,5.451532],[-75.107109,5.451374],[-75.107126,5.451342],[-75.107211,5.451186],[-75.107229,5.451162],[-75.107335,5.451024],[-75.107414,5.450953],[-75.107431,5.450938],[-75.107496,5.450879],[-75.107598,5.450819],[-75.107643,5.450813],[-75.10768,5.450807],[-75.107736,5.450799],[-75.107814,5.4508],[-75.10794,5.450802],[-75.108065,5.45071],[-75.10815,5.450636],[-75.108157,5.45063],[-75.108216,5.450446],[-75.10823,5.450309],[-75.108252,5.4501],[-75.108266,5.450017],[-75.108294,5.449856],[-75.10835,5.449727],[-75.108438,5.449625],[-75.108498,5.449593],[-75.108557,5.449562],[-75.108668,5.449525],[-75.108689,5.448913],[-75.108541,5.448463],[-75.108408,5.448179],[-75.108191,5.447919],[-75.107951,5.447695],[-75.107733,5.447672],[-75.107525,5.447713],[-75.107247,5.447768],[-75.107161,5.447811],[-75.106665,5.448063],[-75.106636,5.448078],[-75.10662,5.448065],[-75.106414,5.447911],[-75.106088,5.447614],[-75.105979,5.447122],[-75.105899,5.446854],[-75.1058,5.446459],[-75.105611,5.446032],[-75.105503,5.445927],[-75.105456,5.445881],[-75.105269,5.44577],[-75.104964,5.445761],[-75.104837,5.44575],[-75.104581,5.445728],[-75.104199,5.445781],[-75.103763,5.446164],[-75.103425,5.44654],[-75.103035,5.446846],[-75.102779,5.447047],[-75.102365,5.44719],[-75.102177,5.447471],[-75.102152,5.44751],[-75.10185,5.447794],[-75.101884,5.448194],[-75.101856,5.448595],[-75.102388,5.448859],[-75.102554,5.448926],[-75.102563,5.449335],[-75.102579,5.449598],[-75.10245,5.449571],[-75.102321,5.449592],[-75.102176,5.449653],[-75.101939,5.4498],[-75.101685,5.449939],[-75.101432,5.449987],[-75.101279,5.449987],[-75.101028,5.44991],[-75.100869,5.449879],[-75.100636,5.449897],[-75.100487,5.449948],[-75.100399,5.450104],[-75.100213,5.450457],[-75.100112,5.45059],[-75.099997,5.450644],[-75.099875,5.450645],[-75.099794,5.450604],[-75.099682,5.450509],[-75.099509,5.450431],[-75.099255,5.45035],[-75.09892,5.450293],[-75.098591,5.450253],[-75.098398,5.450257],[-75.098273,5.450318],[-75.098303,5.450079],[-75.098322,5.449735],[-75.098372,5.449406],[-75.098439,5.449037],[-75.098531,5.448612],[-75.098556,5.448263],[-75.098558,5.447677],[-75.09856,5.447269],[-75.09856,5.44726],[-75.098577,5.447091],[-75.098593,5.44694],[-75.098632,5.446715],[-75.098646,5.446638],[-75.098662,5.446438],[-75.098631,5.446284],[-75.098554,5.446036],[-75.098644,5.446109],[-75.098905,5.446293],[-75.09906,5.446186],[-75.099316,5.446054],[-75.099615,5.445952],[-75.100026,5.445869],[-75.100312,5.445888],[-75.100694,5.44595],[-75.100899,5.445968],[-75.101134,5.44598],[-75.10142,5.446003],[-75.101622,5.446009],[-75.101794,5.445988],[-75.101923,5.445954],[-75.101594,5.44568],[-75.101151,5.445325],[-75.10081,5.445075],[-75.100769,5.445049],[-75.100677,5.444867],[-75.100589,5.444604],[-75.100544,5.444366],[-75.100513,5.443961],[-75.100512,5.44356],[-75.100756,5.443526],[-75.100967,5.443502],[-75.101169,5.443538],[-75.101371,5.443558],[-75.101482,5.443564],[-75.101675,5.443534],[-75.101727,5.443648],[-75.10185,5.443841],[-75.101986,5.443995],[-75.102077,5.444101],[-75.102239,5.444143],[-75.102351,5.444133],[-75.102577,5.444009],[-75.102709,5.443933],[-75.102857,5.443906],[-75.103001,5.443921],[-75.103197,5.44402],[-75.10339,5.444209],[-75.103454,5.443805],[-75.103485,5.443477],[-75.103524,5.443071],[-75.103517,5.442798],[-75.103502,5.442584],[-75.103476,5.442439],[-75.103438,5.442328],[-75.103575,5.442344],[-75.103703,5.442427],[-75.103853,5.442486],[-75.104,5.442569],[-75.104142,5.442619],[-75.104256,5.442609],[-75.104421,5.442542],[-75.104687,5.442371],[-75.10481,5.442283],[-75.104902,5.442242],[-75.105018,5.44224],[-75.105179,5.44227],[-75.105379,5.442346],[-75.105613,5.442438],[-75.106019,5.442497],[-75.106322,5.442501],[-75.106646,5.442413],[-75.106691,5.442401],[-75.106985,5.442265],[-75.107248,5.442093],[-75.107365,5.441948],[-75.10751,5.441788],[-75.107695,5.441617],[-75.107851,5.441485],[-75.107967,5.441467],[-75.108115,5.441489],[-75.108333,5.441561],[-75.108473,5.4416],[-75.108645,5.441648],[-75.108947,5.441778],[-75.109143,5.441905],[-75.109252,5.441981],[-75.109393,5.442046],[-75.109539,5.442112],[-75.109655,5.442057],[-75.109767,5.441922],[-75.109857,5.441704],[-75.109969,5.441526],[-75.110053,5.441445],[-75.110256,5.441362],[-75.11043,5.441296],[-75.110683,5.441212],[-75.110905,5.441113],[-75.11106,5.441026],[-75.111148,5.440951],[-75.111334,5.440734],[-75.111531,5.440539],[-75.111722,5.440392],[-75.111892,5.440296],[-75.112017,5.440248],[-75.112113,5.440245],[-75.11219,5.440266],[-75.112283,5.440338],[-75.112369,5.440527],[-75.112459,5.440674],[-75.112534,5.44077],[-75.112638,5.440844],[-75.112803,5.44094],[-75.112955,5.441001],[-75.113085,5.441033],[-75.113189,5.441038],[-75.113287,5.441011],[-75.113385,5.440917],[-75.113499,5.440752],[-75.113616,5.44057],[-75.11368,5.440498],[-75.113778,5.440485],[-75.113925,5.440533],[-75.114028,5.440586],[-75.114132,5.440682],[-75.114228,5.440732],[-75.114254,5.440737],[-75.114344,5.440755],[-75.114388,5.440764],[-75.114555,5.440755],[-75.114715,5.440731],[-75.114819,5.44071],[-75.114954,5.440608],[-75.115082,5.440549],[-75.115239,5.440474],[-75.115382,5.440434],[-75.115544,5.440375],[-75.115701,5.440306],[-75.115803,5.440203],[-75.115667,5.439914],[-75.115528,5.439634],[-75.115476,5.439507],[-75.11548,5.439362],[-75.115468,5.439198],[-75.115435,5.439026],[-75.11538,5.438869],[-75.115303,5.438743],[-75.115196,5.438579],[-75.115089,5.43841],[-75.115001,5.438205],[-75.114846,5.437822],[-75.114712,5.43757],[-75.114598,5.43733],[-75.114471,5.43707],[-75.114359,5.436861],[-75.114199,5.436623],[-75.114059,5.436404],[-75.113897,5.436133],[-75.11378,5.435995],[-75.113592,5.435781],[-75.113471,5.435634],[-75.113366,5.435536],[-75.113216,5.43541],[-75.113133,5.435317],[-75.113037,5.435215],[-75.11299,5.435132],[-75.112978,5.435022],[-75.112975,5.434822],[-75.112986,5.434567],[-75.112996,5.434358],[-75.112988,5.434277],[-75.112948,5.434191],[-75.112853,5.434115],[-75.112757,5.434046],[-75.112657,5.43397],[-75.112546,5.433906],[-75.112441,5.433828],[-75.112362,5.433752],[-75.112312,5.433666],[-75.112288,5.433592],[-75.112262,5.433497],[-75.112217,5.433407],[-75.112163,5.43334],[-75.112218,5.433323],[-75.112397,5.433237],[-75.112549,5.433124],[-75.112726,5.43301],[-75.112912,5.432986],[-75.113222,5.432961],[-75.113475,5.432972],[-75.113643,5.432999],[-75.113816,5.433027],[-75.114204,5.433103],[-75.114575,5.433209],[-75.11485,5.433297],[-75.115081,5.433351],[-75.115499,5.433378],[-75.115928,5.433381],[-75.116248,5.433325],[-75.11658,5.433254],[-75.117025,5.433156],[-75.117293,5.433087],[-75.11743,5.433051],[-75.117679,5.432978],[-75.117853,5.432968],[-75.118103,5.432986],[-75.118453,5.43305],[-75.118795,5.433107],[-75.118805,5.433108],[-75.119066,5.433146],[-75.119355,5.433191],[-75.119614,5.433173],[-75.119949,5.433129],[-75.120126,5.433085],[-75.120156,5.433077],[-75.120351,5.433074],[-75.120485,5.433116],[-75.120253,5.433353],[-75.11994,5.43372],[-75.119682,5.434026],[-75.119473,5.434309],[-75.119392,5.434446],[-75.119355,5.434638],[-75.119329,5.434807],[-75.119439,5.434975],[-75.119556,5.435167],[-75.119693,5.435417],[-75.119754,5.435504],[-75.119856,5.435597],[-75.119966,5.435629],[-75.120106,5.435652],[-75.120233,5.435687],[-75.120428,5.435794],[-75.120774,5.436],[-75.121071,5.4362],[-75.121277,5.436378],[-75.121574,5.436616],[-75.121885,5.436953],[-75.122036,5.437188],[-75.122168,5.437488],[-75.122287,5.437726],[-75.12243,5.438008],[-75.122564,5.438209],[-75.122671,5.438331],[-75.122794,5.438427],[-75.123023,5.438653],[-75.123061,5.438496],[-75.12311,5.438414],[-75.123151,5.438374],[-75.123275,5.438339],[-75.123421,5.438356],[-75.123546,5.438396],[-75.123647,5.438419],[-75.123746,5.438413],[-75.123824,5.438387],[-75.123911,5.438346],[-75.123992,5.438267],[-75.124026,5.438223],[-75.124063,5.438164],[-75.124068,5.438106],[-75.124051,5.438026],[-75.124045,5.437971],[-75.124051,5.437921],[-75.12407,5.437856],[-75.124108,5.437793],[-75.124146,5.43777],[-75.124209,5.437743],[-75.12427,5.437704],[-75.124338,5.437584],[-75.124384,5.437471],[-75.124441,5.437432],[-75.124676,5.437363],[-75.124742,5.437227],[-75.124813,5.437093],[-75.12488,5.437009],[-75.124962,5.436967],[-75.125086,5.436953],[-75.125223,5.436939],[-75.12529,5.436947],[-75.125366,5.437012],[-75.125516,5.43723],[-75.125604,5.437251],[-75.125733,5.437254],[-75.125835,5.437269],[-75.125866,5.437291],[-75.125907,5.437321],[-75.125967,5.437388],[-75.126018,5.437495],[-75.126036,5.437598],[-75.12604,5.437738],[-75.12607,5.437885],[-75.126111,5.437977],[-75.126149,5.438026],[-75.126206,5.438021],[-75.126389,5.437961],[-75.126645,5.437878],[-75.126754,5.437811],[-75.126824,5.437719],[-75.126843,5.437641],[-75.126828,5.437465],[-75.126824,5.437421],[-75.126879,5.437373],[-75.126957,5.437357],[-75.127045,5.43734],[-75.127129,5.437324],[-75.127203,5.437321],[-75.127284,5.437334],[-75.127362,5.437355],[-75.127414,5.437366],[-75.127547,5.437245],[-75.127583,5.437104],[-75.127601,5.437027],[-75.12761,5.436991],[-75.127678,5.436941],[-75.127747,5.436931],[-75.127825,5.436943],[-75.127896,5.436992],[-75.127951,5.43704],[-75.128034,5.437042],[-75.128037,5.437041],[-75.128127,5.437022],[-75.128226,5.437007],[-75.128346,5.436926],[-75.128434,5.436865],[-75.128501,5.436794],[-75.128585,5.436706],[-75.128726,5.436499],[-75.128811,5.43635],[-75.128887,5.43626],[-75.128967,5.436185],[-75.129114,5.43607],[-75.129208,5.43597],[-75.129236,5.435899],[-75.129266,5.435784],[-75.129297,5.435731],[-75.129358,5.435691],[-75.129421,5.435662],[-75.129532,5.435639],[-75.129585,5.435631],[-75.129646,5.435621],[-75.129755,5.435581],[-75.129858,5.435512],[-75.129942,5.435403],[-75.129957,5.435328],[-75.129957,5.435253],[-75.129949,5.435148],[-75.129939,5.434997],[-75.130019,5.434943],[-75.130113,5.434934],[-75.130212,5.434954],[-75.130336,5.434994],[-75.130447,5.43504],[-75.130567,5.435116],[-75.130686,5.435235],[-75.130781,5.435355],[-75.130833,5.435292],[-75.130896,5.435233],[-75.130963,5.435221],[-75.131062,5.435236],[-75.131175,5.435265],[-75.131276,5.435274],[-75.13139,5.435278],[-75.131446,5.435245],[-75.131512,5.435187],[-75.131558,5.435121],[-75.131558,5.43503],[-75.131544,5.434895],[-75.13155,5.434788],[-75.131588,5.43468],[-75.131656,5.434573],[-75.131754,5.434485],[-75.131902,5.434402],[-75.132053,5.434354],[-75.132168,5.434343],[-75.132324,5.434335],[-75.132488,5.434342],[-75.132656,5.434325],[-75.132742,5.434282],[-75.132822,5.4342],[-75.13285,5.434122],[-75.132877,5.434043],[-75.13297,5.433777],[-75.133035,5.433614],[-75.133182,5.433377]],[[-75.115945,5.442958],[-75.115851,5.443017],[-75.11581,5.443043],[-75.115945,5.442958]]]},"properties":{"nombre":"Límite de la RAB","area_ha":461.7066}}]}