{"type":"FeatureCollection","features":[{"type":"Feature","id":0,"geometry":{"type":"MultiPolygon","coordinates":[[[[-75.129421,5.435662],[-75.129532,5.435639],[-75.129454,5.435744],[-75.129351,5.435795],[-75.129266,5.435784],[-75.129297,5.435731],[-75.129358,5.435691],[-75.129421,5.435662]]],[[[-75.13323,5.435915],[-75.132997,5.435842],[-75.132716,5.435851],[-75.132536,5.435997],[-75.132331,5.436209],[-75.132012,5.436319],[-75.131874,5.436253],[-75.131818,5.435975],[-75.131859,5.435582],[-75.13187,5.435305],[-75.13193,5.435063],[-75.132083,5.434754],[-75.132223,5.434613],[-75.132595,5.434522],[-75.132795,5.434467],[-75.132948,5.434367],[-75.132984,5.434221],[-75.13285,5.434122],[-75.132877,5.434043],[-75.13297,5.433777],[-75.133035,5.433614],[-75.133182,5.433377],[-75.133342,5.433154],[-75.133418,5.433076],[-75.133572,5.433001],[-75.133637,5.432995],[-75.133723,5.43301],[-75.133802,5.433035],[-75.133863,5.433052],[-75.133922,5.433056],[-75.133979,5.433016],[-75.134027,5.432899],[-75.134072,5.432826],[-75.134284,5.432956],[-75.134615,5.433175],[-75.134827,5.433293],[-75.135171,5.433457],[-75.135398,5.433556],[-75.135653,5.433696],[-75.135914,5.433858],[-75.136234,5.43407],[-75.136408,5.434197],[-75.136543,5.43431],[-75.136645,5.434394],[-75.136708,5.43449],[-75.136719,5.434555],[-75.13659,5.434725],[-75.136426,5.434867],[-75.136277,5.435045],[-75.136199,5.435168],[-75.136167,5.435239],[-75.13602,5.435401],[-75.135899,5.4355],[-75.135767,5.435596],[-75.135649,5.435664],[-75.135503,5.435729],[-75.135334,5.435738],[-75.135185,5.435797],[-75.13503,5.435823],[-75.13485,5.435849],[-75.134662,5.435939],[-75.134482,5.436035],[-75.134369,5.436092],[-75.134226,5.436149],[-75.134113,5.436214],[-75.133936,5.436301],[-75.133782,5.436347],[-75.133652,5.43633],[-75.133537,5.436285],[-75.133402,5.436204],[-75.133362,5.436183],[-75.133371,5.436088],[-75.13323,5.435915]]],[[[-75.127678,5.436941],[-75.127747,5.436931],[-75.127825,5.436943],[-75.127896,5.436992],[-75.127951,5.43704],[-75.127747,5.437068],[-75.127583,5.437104],[-75.127601,5.437027],[-75.12761,5.436991],[-75.127678,5.436941]]],[[[-75.127129,5.437324],[-75.127203,5.437321],[-75.127284,5.437334],[-75.127038,5.437395],[-75.126879,5.437373],[-75.126957,5.437357],[-75.127045,5.43734],[-75.127129,5.437324]]],[[[-75.12427,5.437704],[-75.124338,5.437584],[-75.124384,5.437471],[-75.124441,5.437432],[-75.124676,5.437363],[-75.124742,5.437227],[-75.124813,5.437093],[-75.12488,5.437009],[-75.124962,5.436967],[-75.125086,5.436953],[-75.125223,5.436939],[-75.12529,5.436947],[-75.125366,5.437012],[-75.125516,5.43723],[-75.125604,5.437251],[-75.125733,5.437254],[-75.125835,5.437269],[-75.125866,5.437291],[-75.125724,5.437356],[-75.125532,5.437436],[-75.125468,5.437394],[-75.125406,5.437315],[-75.125336,5.43711],[-75.125133,5.436987],[-75.124936,5.437025],[-75.124815,5.437166],[-75.12472,5.437357],[-75.124626,5.437501],[-75.124555,5.437617],[-75.124454,5.437677],[-75.124333,5.43767],[-75.124196,5.437799],[-75.124146,5.437854],[-75.124045,5.437971],[-75.124051,5.437921],[-75.12407,5.437856],[-75.124108,5.437793],[-75.124146,5.43777],[-75.124209,5.437743],[-75.12427,5.437704]]],[[[-75.119134,5.44429],[-75.119028,5.444261],[-75.118887,5.444296],[-75.118705,5.444336],[-75.118534,5.444369],[-75.118451,5.444409],[-75.11834,5.444387],[-75.11826,5.44432],[-75.118211,5.444187],[-75.118158,5.444069],[-75.118089,5.444002],[-75.118066,5.443896],[-75.11813,5.443784],[-75.118191,5.44368],[-75.118144,5.443591],[-75.118075,5.443418],[-75.118054,5.443282],[-75.118041,5.44306],[-75.118048,5.442859],[-75.117939,5.442687],[-75.117835,5.44267],[-75.117717,5.442692],[-75.117546,5.442732],[-75.117386,5.44276],[-75.117223,5.442793],[-75.1171,5.442811],[-75.117018,5.442727],[-75.116951,5.442559],[-75.116881,5.442304],[-75.116918,5.442215],[-75.11685,5.442047],[-75.116815,5.441902],[-75.116901,5.441788],[-75.117081,5.441732],[-75.117225,5.441776],[-75.117353,5.441741],[-75.11756,5.441723],[-75.117691,5.441691],[-75.117762,5.441567],[-75.117722,5.441503],[-75.11752,5.441417],[-75.117376,5.44137],[-75.117186,5.441351],[-75.116929,5.44131],[-75.116746,5.441249],[-75.116635,5.441249],[-75.116542,5.441314],[-75.116426,5.441413],[-75.116291,5.441517],[-75.116202,5.441585],[-75.116057,5.441696],[-75.116013,5.441805],[-75.116008,5.441904],[-75.116093,5.442048],[-75.116197,5.442161],[-75.116266,5.44225],[-75.116234,5.442317],[-75.116168,5.442438],[-75.116161,5.44251],[-75.116198,5.442579],[-75.116208,5.442656],[-75.116177,5.442742],[-75.116051,5.442837],[-75.115945,5.442958],[-75.115851,5.443017],[-75.115549,5.442847],[-75.115334,5.442749],[-75.115036,5.442734],[-75.115077,5.442504],[-75.114998,5.442351],[-75.114835,5.442272],[-75.114746,5.442201],[-75.114657,5.442206],[-75.114464,5.442249],[-75.114388,5.442227],[-75.114311,5.442135],[-75.11416,5.442017],[-75.114046,5.441963],[-75.11394,5.441902],[-75.113769,5.441801],[-75.113788,5.441623],[-75.113899,5.441387],[-75.114034,5.441204],[-75.114174,5.441161],[-75.11428,5.441097],[-75.114371,5.440975],[-75.114344,5.440755],[-75.114388,5.440764],[-75.114555,5.440755],[-75.114715,5.440731],[-75.114819,5.44071],[-75.114954,5.440608],[-75.115082,5.440549],[-75.115239,5.440474],[-75.115382,5.440434],[-75.115544,5.440375],[-75.115701,5.440306],[-75.115803,5.440203],[-75.115667,5.439914],[-75.115528,5.439634],[-75.115476,5.439507],[-75.11548,5.439362],[-75.115468,5.439198],[-75.115435,5.439026],[-75.11538,5.438869],[-75.115303,5.438743],[-75.115196,5.438579],[-75.115089,5.43841],[-75.115001,5.438205],[-75.114846,5.437822],[-75.114712,5.43757],[-75.114598,5.43733],[-75.114471,5.43707],[-75.114359,5.436861],[-75.114199,5.436623],[-75.114059,5.436404],[-75.113897,5.436133],[-75.11378,5.435995],[-75.113592,5.435781],[-75.113471,5.435634],[-75.113366,5.435536],[-75.113216,5.43541],[-75.113133,5.435317],[-75.113037,5.435215],[-75.11299,5.435132],[-75.112978,5.435022],[-75.112975,5.434822],[-75.112986,5.434567],[-75.112996,5.434358],[-75.112988,5.434277],[-75.112948,5.434191],[-75.112853,5.434115],[-75.112757,5.434046],[-75.112657,5.43397],[-75.112546,5.433906],[-75.112441,5.433828],[-75.112362,5.433752],[-75.112312,5.433666],[-75.112288,5.433592],[-75.112262,5.433497],[-75.112217,5.433407],[-75.112163,5.43334],[-75.112218,5.433323],[-75.112397,5.433237],[-75.112549,5.433124],[-75.112726,5.43301],[-75.112912,5.432986],[-75.113222,5.432961],[-75.113475,5.432972],[-75.113643,5.432999],[-75.113816,5.433027],[-75.114204,5.433103],[-75.114575,5.433209],[-75.11485,5.433297],[-75.115081,5.433351],[-75.115499,5.433378],[-75.115928,5.433381],[-75.116248,5.433325],[-75.11658,5.433254],[-75.117025,5.433156],[-75.117293,5.433087],[-75.11743,5.433051],[-75.117679,5.432978],[-75.117853,5.432968],[-75.118103,5.432986],[-75.118453,5.43305],[-75.118795,5.433107],[-75.118805,5.433108],[-75.119066,5.433146],[-75.119355,5.433191],[-75.119614,5.433173],[-75.119949,5.433129],[-75.120126,5.433085],[-75.120156,5.433077],[-75.120351,5.433074],[-75.120485,5.433116],[-75.120253,5.433353],[-75.11994,5.43372],[-75.119682,5.434026],[-75.119473,5.434309],[-75.119392,5.434446],[-75.119355,5.434638],[-75.119329,5.434807],[-75.119439,5.434975],[-75.119556,5.435167],[-75.119693,5.435417],[-75.119754,5.435504],[-75.119856,5.435597],[-75.119966,5.435629],[-75.120106,5.435652],[-75.120233,5.435687],[-75.120428,5.435794],[-75.120774,5.436],[-75.121071,5.4362],[-75.121277,5.436378],[-75.121574,5.436616],[-75.121885,5.436953],[-75.122036,5.437188],[-75.122168,5.437488],[-75.122287,5.437726],[-75.12243,5.438008],[-75.122564,5.438209],[-75.122671,5.438331],[-75.122794,5.438427],[-75.123023,5.438653],[-75.123061,5.438496],[-75.12311,5.438414],[-75.123151,5.438374],[-75.123275,5.438339],[-75.123421,5.438356],[-75.123546,5.438396],[-75.123647,5.438419],[-75.123746,5.438413],[-75.123824,5.438387],[-75.123911,5.438346],[-75.123992,5.438267],[-75.124026,5.438223],[-75.123993,5.438394],[-75.123956,5.43848],[-75.123895,5.43858],[-75.123833,5.438691],[-75.123757,5.438817],[-75.123681,5.438944],[-75.123632,5.43904],[-75.123586,5.439147],[-75.12349,5.439281],[-75.123431,5.439375],[-75.123382,5.439459],[-75.123281,5.439507],[-75.123167,5.43952],[-75.123071,5.439572],[-75.122988,5.439617],[-75.122924,5.439713],[-75.122816,5.439795],[-75.122643,5.439821],[-75.12248,5.439848],[-75.122433,5.439908],[-75.122414,5.440064],[-75.122336,5.440183],[-75.122205,5.440225],[-75.122054,5.440265],[-75.121914,5.440276],[-75.121783,5.440294],[-75.121667,5.440343],[-75.12151,5.440433],[-75.12147,5.440525],[-75.12152,5.440663],[-75.121592,5.440769],[-75.121664,5.440883],[-75.121707,5.441028],[-75.1217,5.441122],[-75.121636,5.44118],[-75.121532,5.44121],[-75.121411,5.441218],[-75.121293,5.441248],[-75.121202,5.441307],[-75.121121,5.441392],[-75.121037,5.441511],[-75.120914,5.441578],[-75.120754,5.441628],[-75.120685,5.44167],[-75.120596,5.441715],[-75.120554,5.441757],[-75.120554,5.441824],[-75.120557,5.441928],[-75.1206,5.442059],[-75.120642,5.442222],[-75.120687,5.442343],[-75.120665,5.442444],[-75.120599,5.442512],[-75.120446,5.442564],[-75.120364,5.442596],[-75.120268,5.442644],[-75.120212,5.442753],[-75.120151,5.442867],[-75.120136,5.442996],[-75.120176,5.443173],[-75.12017,5.443342],[-75.120205,5.443463],[-75.120289,5.443621],[-75.120381,5.443776],[-75.12047,5.443862],[-75.120436,5.443984],[-75.12034,5.444113],[-75.12018,5.444247],[-75.120082,5.444378],[-75.120008,5.444507],[-75.120024,5.444609],[-75.120086,5.444727],[-75.12015,5.444831],[-75.120203,5.444969],[-75.120186,5.445088],[-75.120072,5.445163],[-75.119937,5.445175],[-75.119818,5.445144],[-75.119714,5.44503],[-75.119612,5.444833],[-75.119493,5.444662],[-75.119409,5.444529],[-75.119277,5.444421],[-75.119134,5.44429]],[[-75.11895,5.440305],[-75.118812,5.440291],[-75.118617,5.440338],[-75.11848,5.440407],[-75.118412,5.440511],[-75.118409,5.440646],[-75.118421,5.440778],[-75.118539,5.440783],[-75.118762,5.440682],[-75.118971,5.440627],[-75.118993,5.440477],[-75.11895,5.440305]],[[-75.117675,5.44013],[-75.117874,5.440068],[-75.118129,5.440108],[-75.118327,5.440062],[-75.118388,5.439923],[-75.118739,5.439861],[-75.119055,5.439768],[-75.118927,5.439702],[-75.118642,5.439729],[-75.118392,5.439786],[-75.118133,5.439756],[-75.118106,5.439577],[-75.118147,5.439414],[-75.118396,5.439214],[-75.11837,5.439035],[-75.118338,5.438719],[-75.118419,5.438484],[-75.118325,5.438071],[-75.11807,5.437852],[-75.117927,5.437689],[-75.11782,5.437848],[-75.117784,5.437766],[-75.117615,5.437496],[-75.117589,5.437215],[-75.117772,5.437102],[-75.118046,5.436902],[-75.118064,5.436626],[-75.117958,5.436261],[-75.118065,5.436152],[-75.118127,5.435966],[-75.118165,5.435747],[-75.118288,5.435576],[-75.118262,5.43542],[-75.118089,5.435345],[-75.117808,5.435392],[-75.11774,5.435346],[-75.118,5.435234],[-75.11797,5.435071],[-75.117738,5.43482],[-75.117536,5.43487],[-75.117524,5.435063],[-75.117537,5.435216],[-75.117584,5.435458],[-75.117646,5.435536],[-75.117643,5.435739],[-75.117517,5.43587],[-75.117438,5.435713],[-75.117288,5.435776],[-75.117242,5.435688],[-75.117072,5.435427],[-75.116889,5.435392],[-75.116681,5.435471],[-75.116682,5.435808],[-75.116568,5.436011],[-75.116514,5.436223],[-75.116625,5.436327],[-75.116778,5.436444],[-75.116903,5.436725],[-75.117034,5.436868],[-75.117159,5.437129],[-75.117195,5.437292],[-75.117252,5.437577],[-75.117214,5.437763],[-75.117247,5.437923],[-75.117266,5.438294],[-75.117441,5.438707],[-75.117452,5.438967],[-75.117463,5.439166],[-75.117652,5.439211],[-75.117888,5.439624],[-75.118015,5.439772],[-75.117955,5.43993],[-75.117481,5.440003],[-75.117257,5.440076],[-75.117421,5.4401],[-75.117675,5.44013]],[[-75.114728,5.43547],[-75.114597,5.435184],[-75.11457,5.435042],[-75.114619,5.434851],[-75.114667,5.434897],[-75.114548,5.434581],[-75.11441,5.434357],[-75.114196,5.43424],[-75.113915,5.434104],[-75.11367,5.43389],[-75.113653,5.433543],[-75.113535,5.43337],[-75.11323,5.433386],[-75.112944,5.433346],[-75.11273,5.433357],[-75.11242,5.433425],[-75.112349,5.433491],[-75.112461,5.433573],[-75.112691,5.433669],[-75.112778,5.433858],[-75.112972,5.434051],[-75.113314,5.434223],[-75.113651,5.434345],[-75.114003,5.434405],[-75.114248,5.434618],[-75.114392,5.434668],[-75.114389,5.434702],[-75.114466,5.435023],[-75.11436,5.435253],[-75.114124,5.435346],[-75.113891,5.435378],[-75.113834,5.435569],[-75.113819,5.435726],[-75.113946,5.435986],[-75.114107,5.43615],[-75.114318,5.436207],[-75.114365,5.436364],[-75.114387,5.436436],[-75.114441,5.436532],[-75.114582,5.436554],[-75.114701,5.436715],[-75.114706,5.436803],[-75.114847,5.436906],[-75.115035,5.436943],[-75.115004,5.436802],[-75.114747,5.436581],[-75.114677,5.436378],[-75.114684,5.436202],[-75.114837,5.436075],[-75.114905,5.435937],[-75.114881,5.435738],[-75.114728,5.43547]]],[[[-75.107335,5.451024],[-75.107414,5.450953],[-75.107431,5.450938],[-75.107496,5.450879],[-75.107598,5.450819],[-75.107643,5.450813],[-75.10768,5.450807],[-75.107736,5.450799],[-75.107814,5.4508],[-75.10794,5.450802],[-75.108065,5.45071],[-75.10815,5.450636],[-75.108157,5.45063],[-75.108216,5.450446],[-75.10823,5.450309],[-75.108252,5.4501],[-75.108266,5.450017],[-75.108309,5.450112],[-75.108357,5.450263],[-75.108362,5.450475],[-75.108332,5.450631],[-75.108422,5.450697],[-75.108493,5.450857],[-75.108538,5.451001],[-75.108534,5.451085],[-75.108419,5.451103],[-75.108298,5.450902],[-75.108147,5.450775],[-75.108015,5.450809],[-75.107959,5.450892],[-75.107905,5.451005],[-75.107842,5.451123],[-75.107644,5.451065],[-75.107418,5.451023],[-75.107359,5.451068],[-75.107369,5.451139],[-75.107451,5.451166],[-75.107603,5.451295],[-75.107673,5.451431],[-75.107795,5.451559],[-75.107898,5.451677],[-75.10781,5.451732],[-75.107648,5.451659],[-75.10753,5.451424],[-75.107349,5.451236],[-75.107211,5.451186],[-75.107229,5.451162],[-75.107335,5.451024]]],[[[-75.115774,5.457451],[-75.115923,5.457329],[-75.116113,5.457339],[-75.115931,5.457466],[-75.115771,5.457548],[-75.115705,5.457551],[-75.115774,5.457451]]],[[[-75.117971,5.458374],[-75.117974,5.458271],[-75.118003,5.458157],[-75.117988,5.458072],[-75.117947,5.457969],[-75.117868,5.457914],[-75.117762,5.457838],[-75.117666,5.457797],[-75.117546,5.457753],[-75.117443,5.457706],[-75.117323,5.457636],[-75.117233,5.457556],[-75.11713,5.457438],[-75.117064,5.457302],[-75.11699,5.457114],[-75.116938,5.456941],[-75.116919,5.456812],[-75.116921,5.456807],[-75.116824,5.456808],[-75.116759,5.456825],[-75.11668,5.456874],[-75.11652,5.456986],[-75.116297,5.457185],[-75.116206,5.457261],[-75.116255,5.457092],[-75.116324,5.456948],[-75.116335,5.456804],[-75.116001,5.456644],[-75.115725,5.45657],[-75.115741,5.456294],[-75.115959,5.456241],[-75.116039,5.456091],[-75.115975,5.455913],[-75.115745,5.455758],[-75.115572,5.455632],[-75.115469,5.455747],[-75.115302,5.455742],[-75.11517,5.455616],[-75.115302,5.455541],[-75.115209,5.455374],[-75.114858,5.455214],[-75.114501,5.454956],[-75.11438,5.454801],[-75.114316,5.454605],[-75.114252,5.454398],[-75.11428,5.454116],[-75.114101,5.454065],[-75.113912,5.454146],[-75.113981,5.45433],[-75.113833,5.454452],[-75.113717,5.454222],[-75.113556,5.454147],[-75.113526,5.453911],[-75.11345,5.453687],[-75.113622,5.453508],[-75.113892,5.453513],[-75.114139,5.45346],[-75.114283,5.45335],[-75.114287,5.453085],[-75.114143,5.452884],[-75.113987,5.45266],[-75.113711,5.4525],[-75.113573,5.452587],[-75.113424,5.452806],[-75.113304,5.452991],[-75.113109,5.45294],[-75.112879,5.452825],[-75.112769,5.452624],[-75.112872,5.452531],[-75.112956,5.452036],[-75.113122,5.451632],[-75.113091,5.451131],[-75.112832,5.451086],[-75.11278,5.450908],[-75.112993,5.450901],[-75.11309,5.450809],[-75.113009,5.450728],[-75.112739,5.450637],[-75.112732,5.450401],[-75.112639,5.450027],[-75.112425,5.449751],[-75.112087,5.449868],[-75.111897,5.449984],[-75.111933,5.450243],[-75.112014,5.450565],[-75.111998,5.45083],[-75.11197,5.451118],[-75.111815,5.45109],[-75.111837,5.450796],[-75.111733,5.450589],[-75.11141,5.450406],[-75.111306,5.45021],[-75.111122,5.45013],[-75.110823,5.450068],[-75.110801,5.450437],[-75.110752,5.451047],[-75.110736,5.451433],[-75.110903,5.45168],[-75.110783,5.451842],[-75.110443,5.451532],[-75.11035,5.451302],[-75.110309,5.451055],[-75.110388,5.450571],[-75.110593,5.449965],[-75.11046,5.449885],[-75.110363,5.450029],[-75.110191,5.450111],[-75.110013,5.450094],[-75.109679,5.449801],[-75.109535,5.449842],[-75.109276,5.449739],[-75.108931,5.449643],[-75.108668,5.449525],[-75.108689,5.448913],[-75.108541,5.448463],[-75.108408,5.448179],[-75.108191,5.447919],[-75.107951,5.447695],[-75.107733,5.447672],[-75.107525,5.447713],[-75.107247,5.447768],[-75.107161,5.447811],[-75.106665,5.448063],[-75.106636,5.448078],[-75.10662,5.448065],[-75.106414,5.447911],[-75.106088,5.447614],[-75.105979,5.447122],[-75.105899,5.446854],[-75.1058,5.446459],[-75.105611,5.446032],[-75.105503,5.445927],[-75.105456,5.445881],[-75.105269,5.44577],[-75.104964,5.445761],[-75.104837,5.44575],[-75.104581,5.445728],[-75.104199,5.445781],[-75.103763,5.446164],[-75.103425,5.44654],[-75.103035,5.446846],[-75.102779,5.447047],[-75.102365,5.44719],[-75.102177,5.447471],[-75.102152,5.44751],[-75.10185,5.447794],[-75.101884,5.448194],[-75.101856,5.448595],[-75.102388,5.448859],[-75.102554,5.448926],[-75.102563,5.449335],[-75.102579,5.449598],[-75.10245,5.449571],[-75.102321,5.449592],[-75.102176,5.449653],[-75.101939,5.4498],[-75.101685,5.449939],[-75.101432,5.449987],[-75.101279,5.449987],[-75.101028,5.44991],[-75.100869,5.449879],[-75.100636,5.449897],[-75.100487,5.449948],[-75.100399,5.450104],[-75.100213,5.450457],[-75.100112,5.45059],[-75.099997,5.450644],[-75.099875,5.450645],[-75.099794,5.450604],[-75.099682,5.450509],[-75.099509,5.450431],[-75.099255,5.45035],[-75.09892,5.450293],[-75.098591,5.450253],[-75.098398,5.450257],[-75.098273,5.450318],[-75.098303,5.450079],[-75.098322,5.449735],[-75.098372,5.449406],[-75.098439,5.449037],[-75.098531,5.448612],[-75.098556,5.448263],[-75.098558,5.447677],[-75.09856,5.447269],[-75.09856,5.44726],[-75.098577,5.447091],[-75.098593,5.44694],[-75.098632,5.446715],[-75.098646,5.446638],[-75.098662,5.446438],[-75.098631,5.446284],[-75.098554,5.446036],[-75.098644,5.446109],[-75.098905,5.446293],[-75.09906,5.446186],[-75.099316,5.446054],[-75.099615,5.445952],[-75.100026,5.445869],[-75.100312,5.445888],[-75.100694,5.44595],[-75.100899,5.445968],[-75.101134,5.44598],[-75.10142,5.446003],[-75.101622,5.446009],[-75.101794,5.445988],[-75.101923,5.445954],[-75.101594,5.44568],[-75.101151,5.445325],[-75.10081,5.445075],[-75.100769,5.445049],[-75.100677,5.444867],[-75.100589,5.444604],[-75.100544,5.444366],[-75.100513,5.443961],[-75.100512,5.44356],[-75.100756,5.443526],[-75.100967,5.443502],[-75.101169,5.443538],[-75.101371,5.443558],[-75.101482,5.443564],[-75.101675,5.443534],[-75.101727,5.443648],[-75.10185,5.443841],[-75.101986,5.443995],[-75.102077,5.444101],[-75.102239,5.444143],[-75.102351,5.444133],[-75.102577,5.444009],[-75.102709,5.443933],[-75.102857,5.443906],[-75.103001,5.443921],[-75.103197,5.44402],[-75.10339,5.444209],[-75.103454,5.443805],[-75.103485,5.443477],[-75.103524,5.443071],[-75.103517,5.442798],[-75.103502,5.442584],[-75.103476,5.442439],[-75.103438,5.442328],[-75.103575,5.442344],[-75.103703,5.442427],[-75.103853,5.442486],[-75.104,5.442569],[-75.104142,5.442619],[-75.104256,5.442609],[-75.104421,5.442542],[-75.104687,5.442371],[-75.10481,5.442283],[-75.104902,5.442242],[-75.105018,5.44224],[-75.105179,5.44227],[-75.105379,5.442346],[-75.105613,5.442438],[-75.106019,5.442497],[-75.106322,5.442501],[-75.106646,5.442413],[-75.106691,5.442401],[-75.106985,5.442265],[-75.107248,5.442093],[-75.107365,5.441948],[-75.10751,5.441788],[-75.107695,5.441617],[-75.107851,5.441485],[-75.107967,5.441467],[-75.108115,5.441489],[-75.108333,5.441561],[-75.108473,5.4416],[-75.108645,5.441648],[-75.108947,5.441778],[-75.109143,5.441905],[-75.109252,5.441981],[-75.109393,5.442046],[-75.109539,5.442112],[-75.109655,5.442057],[-75.109767,5.441922],[-75.109857,5.441704],[-75.109969,5.441526],[-75.110053,5.441445],[-75.110256,5.441362],[-75.11043,5.441296],[-75.110683,5.441212],[-75.110905,5.441113],[-75.11106,5.441026],[-75.111148,5.440951],[-75.111334,5.440734],[-75.111531,5.440539],[-75.111722,5.440392],[-75.111892,5.440296],[-75.112017,5.440248],[-75.112113,5.440245],[-75.11219,5.440266],[-75.112283,5.440338],[-75.112369,5.440527],[-75.112459,5.440674],[-75.112534,5.44077],[-75.112638,5.440844],[-75.112803,5.44094],[-75.112955,5.441001],[-75.113085,5.441033],[-75.113189,5.441038],[-75.113287,5.441011],[-75.113385,5.440917],[-75.113499,5.440752],[-75.113616,5.44057],[-75.11368,5.440498],[-75.113778,5.440485],[-75.113925,5.440533],[-75.114028,5.440586],[-75.114132,5.440682],[-75.114228,5.440732],[-75.114254,5.440737],[-75.114262,5.440783],[-75.114287,5.440933],[-75.11426,5.441008],[-75.114223,5.441072],[-75.1141,5.441154],[-75.114014,5.441154],[-75.113935,5.441199],[-75.113874,5.441271],[-75.113842,5.441368],[-75.113803,5.441462],[-75.113719,5.441598],[-75.113675,5.441707],[-75.113735,5.441836],[-75.113841,5.441922],[-75.114051,5.44203],[-75.114197,5.442114],[-75.114282,5.442215],[-75.114376,5.442291],[-75.114477,5.442293],[-75.114657,5.442251],[-75.114771,5.442304],[-75.114889,5.442363],[-75.115001,5.442467],[-75.115014,5.442583],[-75.114984,5.442697],[-75.114947,5.442761],[-75.114891,5.442831],[-75.114884,5.442922],[-75.114912,5.443076],[-75.114843,5.443168],[-75.114747,5.443242],[-75.114722,5.443301],[-75.114732,5.443376],[-75.11474,5.443447],[-75.11474,5.443504],[-75.114681,5.443608],[-75.114543,5.443653],[-75.114388,5.443731],[-75.114193,5.443805],[-75.1141,5.443858],[-75.113986,5.443932],[-75.113886,5.444066],[-75.113768,5.444205],[-75.113647,5.44425],[-75.113544,5.444332],[-75.113423,5.444409],[-75.113359,5.444491],[-75.113268,5.444578],[-75.113231,5.444674],[-75.113264,5.444783],[-75.113444,5.444924],[-75.113538,5.444901],[-75.113679,5.444829],[-75.11389,5.444722],[-75.114029,5.444635],[-75.11413,5.444585],[-75.114381,5.44448],[-75.114528,5.444424],[-75.114714,5.44464],[-75.115001,5.444931],[-75.115185,5.444957],[-75.115314,5.444849],[-75.115314,5.44471],[-75.115286,5.444504],[-75.115313,5.444315],[-75.115474,5.444279],[-75.115693,5.444264],[-75.11589,5.444134],[-75.115974,5.443913],[-75.116099,5.443698],[-75.116026,5.443469],[-75.115905,5.443321],[-75.115776,5.443216],[-75.115906,5.443067],[-75.116064,5.442894],[-75.116189,5.442779],[-75.116278,5.442687],[-75.116292,5.442603],[-75.116237,5.44248],[-75.116257,5.442398],[-75.116328,5.442274],[-75.116305,5.44222],[-75.116226,5.442129],[-75.116137,5.441998],[-75.11606,5.441855],[-75.116092,5.441733],[-75.116207,5.441651],[-75.11638,5.441532],[-75.116505,5.441425],[-75.116663,5.441311],[-75.116734,5.441296],[-75.116855,5.441332],[-75.116972,5.441372],[-75.11708,5.441403],[-75.117179,5.441396],[-75.117273,5.44142],[-75.117394,5.441432],[-75.11753,5.441469],[-75.117636,5.44152],[-75.117634,5.44158],[-75.117533,5.441644],[-75.117368,5.441699],[-75.117261,5.441719],[-75.117081,5.441693],[-75.116926,5.441708],[-75.11683,5.441765],[-75.116763,5.441837],[-75.116741,5.441941],[-75.116806,5.44206],[-75.116836,5.442173],[-75.116837,5.44231],[-75.116849,5.442428],[-75.116919,5.442638],[-75.116989,5.442796],[-75.117063,5.442888],[-75.117177,5.442853],[-75.117337,5.442817],[-75.11746,5.44281],[-75.117628,5.442782],[-75.117796,5.442732],[-75.117894,5.442754],[-75.117964,5.442832],[-75.117989,5.442956],[-75.117985,5.443191],[-75.11801,5.443396],[-75.118067,5.443525],[-75.118115,5.443631],[-75.118105,5.44371],[-75.118021,5.443804],[-75.117997,5.443891],[-75.11802,5.44398],[-75.118065,5.444094],[-75.118179,5.444249],[-75.118226,5.444345],[-75.118268,5.444392],[-75.118384,5.444451],[-75.118525,5.444433],[-75.118685,5.444401],[-75.118875,5.444348],[-75.119045,5.444315],[-75.119174,5.444384],[-75.11928,5.444527],[-75.119397,5.444613],[-75.119439,5.444675],[-75.119548,5.444835],[-75.119635,5.445028],[-75.119752,5.445164],[-75.11985,5.44522],[-75.119979,5.445227],[-75.120117,5.445219],[-75.120198,5.445179],[-75.120269,5.445028],[-75.120227,5.4449],[-75.120167,5.444766],[-75.120073,5.444608],[-75.120053,5.444492],[-75.120129,5.444386],[-75.120212,5.444281],[-75.12035,5.444155],[-75.120454,5.444058],[-75.120517,5.443907],[-75.120472,5.443776],[-75.120361,5.443658],[-75.120338,5.443576],[-75.120261,5.443435],[-75.120216,5.443317],[-75.120226,5.443186],[-75.120196,5.442988],[-75.120217,5.442896],[-75.120274,5.44275],[-75.12035,5.442646],[-75.120473,5.442599],[-75.120626,5.442558],[-75.120727,5.442432],[-75.120744,5.442325],[-75.120679,5.442168],[-75.120621,5.441962],[-75.120601,5.441826],[-75.120663,5.441747],[-75.120808,5.44167],[-75.120959,5.44164],[-75.121077,5.441533],[-75.121185,5.441411],[-75.121288,5.441292],[-75.121414,5.441262],[-75.121589,5.441256],[-75.121688,5.441217],[-75.121761,5.441095],[-75.121741,5.440912],[-75.121664,5.440779],[-75.121602,5.440702],[-75.121552,5.440626],[-75.12153,5.440505],[-75.121569,5.440448],[-75.121724,5.440366],[-75.121875,5.440333],[-75.122037,5.440313],[-75.122188,5.440282],[-75.122331,5.440235],[-75.12241,5.44015],[-75.122461,5.440022],[-75.122483,5.439923],[-75.122562,5.439885],[-75.122675,5.439865],[-75.122823,5.439852],[-75.12289,5.439825],[-75.122944,5.439738],[-75.12303,5.439654],[-75.12315,5.439584],[-75.123279,5.439556],[-75.123382,5.439526],[-75.123485,5.43939],[-75.123588,5.439239],[-75.123687,5.43909],[-75.123768,5.438926],[-75.123878,5.438738],[-75.123937,5.438651],[-75.12401,5.438485],[-75.124062,5.438273],[-75.124079,5.438184],[-75.124084,5.438055],[-75.124112,5.437985],[-75.124191,5.437866],[-75.124341,5.437735],[-75.124427,5.437734],[-75.124565,5.437689],[-75.124646,5.437568],[-75.124745,5.437424],[-75.124848,5.437253],[-75.124946,5.437114],[-75.125072,5.437052],[-75.1252,5.437076],[-75.125282,5.437202],[-75.125359,5.437375],[-75.125441,5.437473],[-75.125579,5.437503],[-75.125707,5.437413],[-75.125872,5.437366],[-75.125907,5.437321],[-75.125967,5.437388],[-75.126018,5.437495],[-75.126036,5.437598],[-75.12604,5.437738],[-75.12607,5.437885],[-75.126111,5.437977],[-75.126149,5.438026],[-75.126206,5.438021],[-75.126389,5.437961],[-75.126645,5.437878],[-75.126754,5.437811],[-75.126824,5.437719],[-75.126843,5.437641],[-75.126828,5.437465],[-75.127043,5.437457],[-75.127332,5.437425],[-75.127414,5.437366],[-75.127547,5.437245],[-75.127655,5.437157],[-75.127805,5.43711],[-75.128067,5.437121],[-75.128229,5.437093],[-75.12846,5.436946],[-75.128501,5.436794],[-75.128585,5.436706],[-75.128726,5.436499],[-75.128811,5.43635],[-75.128887,5.43626],[-75.128967,5.436185],[-75.129114,5.43607],[-75.129208,5.43597],[-75.129236,5.435899],[-75.129474,5.435841],[-75.129585,5.435631],[-75.129646,5.435621],[-75.129755,5.435581],[-75.129858,5.435512],[-75.129942,5.435403],[-75.129957,5.435328],[-75.129957,5.435253],[-75.129949,5.435148],[-75.129939,5.434997],[-75.130019,5.434943],[-75.130113,5.434934],[-75.130212,5.434954],[-75.130336,5.434994],[-75.130447,5.43504],[-75.130567,5.435116],[-75.130686,5.435235],[-75.130781,5.435355],[-75.130833,5.435292],[-75.130896,5.435233],[-75.130963,5.435221],[-75.131062,5.435236],[-75.131175,5.435265],[-75.131276,5.435274],[-75.13139,5.435278],[-75.131446,5.435245],[-75.131512,5.435187],[-75.131558,5.435121],[-75.131558,5.43503],[-75.131544,5.434895],[-75.13155,5.434788],[-75.131588,5.43468],[-75.131656,5.434573],[-75.131754,5.434485],[-75.131902,5.434402],[-75.132053,5.434354],[-75.132168,5.434343],[-75.132324,5.434335],[-75.132488,5.434342],[-75.132656,5.434325],[-75.132742,5.434282],[-75.132822,5.4342],[-75.132891,5.434244],[-75.132879,5.434318],[-75.132805,5.434398],[-75.132696,5.434425],[-75.132519,5.434443],[-75.132413,5.434501],[-75.132255,5.434543],[-75.132134,5.434593],[-75.132028,5.434663],[-75.131888,5.434858],[-75.131844,5.434997],[-75.131811,5.43525],[-75.131784,5.435547],[-75.131686,5.435621],[-75.131652,5.435713],[-75.131694,5.435856],[-75.131712,5.43598],[-75.131757,5.436219],[-75.131891,5.436345],[-75.132027,5.436382],[-75.132217,5.436351],[-75.132414,5.436244],[-75.132562,5.436132],[-75.132712,5.435969],[-75.132835,5.435911],[-75.133062,5.43595],[-75.133198,5.436019],[-75.133297,5.43615],[-75.133196,5.436145],[-75.133095,5.436162],[-75.132991,5.436193],[-75.132903,5.436238],[-75.132679,5.436371],[-75.13244,5.436499],[-75.131883,5.436793],[-75.131675,5.436957],[-75.13152,5.437039],[-75.131391,5.43709],[-75.131248,5.437107],[-75.131129,5.437104],[-75.130997,5.437136],[-75.130842,5.437125],[-75.130749,5.437088],[-75.130634,5.437071],[-75.130513,5.437066],[-75.130319,5.437055],[-75.130071,5.437019],[-75.129925,5.436994],[-75.129917,5.437383],[-75.129912,5.437682],[-75.129859,5.438023],[-75.129803,5.438223],[-75.129719,5.438364],[-75.129629,5.438497],[-75.12952,5.438571],[-75.129393,5.43861],[-75.129266,5.438629],[-75.129141,5.438648],[-75.129042,5.438699],[-75.12895,5.438799],[-75.12887,5.438902],[-75.128822,5.439002],[-75.128826,5.439223],[-75.128804,5.439322],[-75.12872,5.439535],[-75.128652,5.439709],[-75.128625,5.439844],[-75.128619,5.439991],[-75.12856,5.440198],[-75.128495,5.44036],[-75.12839,5.440537],[-75.128295,5.440618],[-75.128133,5.440618],[-75.128023,5.440609],[-75.127915,5.440636],[-75.127739,5.440673],[-75.127613,5.440691],[-75.127464,5.440655],[-75.127311,5.440532],[-75.127215,5.440473],[-75.127111,5.440455],[-75.126979,5.44047],[-75.126794,5.440548],[-75.126543,5.440663],[-75.126367,5.44072],[-75.126205,5.440717],[-75.126062,5.440676],[-75.125888,5.440652],[-75.125742,5.440679],[-75.125589,5.440769],[-75.125449,5.440925],[-75.12539,5.441168],[-75.125378,5.441324],[-75.125378,5.441456],[-75.125349,5.441662],[-75.125334,5.441779],[-75.125346,5.441983],[-75.125374,5.442241],[-75.125368,5.442444],[-75.125332,5.442651],[-75.125255,5.442768],[-75.125115,5.442816],[-75.124986,5.442805],[-75.124854,5.442793],[-75.124774,5.442847],[-75.124738,5.442925],[-75.12472,5.443081],[-75.124689,5.443276],[-75.124665,5.4435],[-75.124607,5.443652],[-75.124541,5.44374],[-75.124416,5.443788],[-75.124251,5.443767],[-75.12415,5.443725],[-75.124083,5.443663],[-75.124027,5.443573],[-75.123982,5.443432],[-75.123936,5.443248],[-75.123885,5.44312],[-75.123824,5.443056],[-75.123736,5.443016],[-75.123659,5.443006],[-75.123539,5.443064],[-75.123452,5.443196],[-75.1234,5.443385],[-75.123369,5.443629],[-75.123317,5.443807],[-75.123185,5.444132],[-75.123092,5.444394],[-75.122967,5.444726],[-75.122891,5.444963],[-75.122856,5.445166],[-75.122829,5.445413],[-75.122781,5.445703],[-75.122729,5.445986],[-75.122663,5.446255],[-75.122611,5.446464],[-75.122553,5.446778],[-75.122522,5.446977],[-75.1225,5.447048],[-75.122484,5.4471],[-75.122435,5.447354],[-75.122363,5.447613],[-75.122262,5.44792],[-75.122096,5.448283],[-75.121904,5.448514],[-75.121682,5.448755],[-75.121508,5.448912],[-75.121327,5.44907],[-75.121254,5.449189],[-75.121161,5.449388],[-75.121105,5.44958],[-75.121057,5.449726],[-75.120987,5.449859],[-75.120821,5.450044],[-75.120659,5.450258],[-75.120647,5.450275],[-75.12048,5.450593],[-75.120289,5.45097],[-75.120098,5.451239],[-75.120015,5.451477],[-75.119974,5.451571],[-75.11988,5.451756],[-75.119817,5.451847],[-75.119685,5.451948],[-75.11979,5.452388],[-75.119815,5.452772],[-75.119809,5.453058],[-75.11983,5.453323],[-75.119893,5.453567],[-75.119995,5.453797],[-75.120103,5.453975],[-75.120188,5.454138],[-75.120208,5.454177],[-75.120179,5.454439],[-75.120097,5.454439],[-75.120107,5.454476],[-75.120116,5.454625],[-75.12009,5.454904],[-75.120026,5.455171],[-75.119857,5.455675],[-75.119758,5.455922],[-75.119601,5.456242],[-75.119478,5.456585],[-75.119353,5.456976],[-75.119207,5.457372],[-75.119117,5.457548],[-75.118942,5.457838],[-75.118746,5.458097],[-75.118594,5.458273],[-75.118477,5.458454],[-75.118371,5.458391],[-75.1183,5.458361],[-75.118178,5.458351],[-75.118056,5.458381],[-75.118001,5.458456],[-75.117971,5.458374]],[[-75.118068,5.457645],[-75.118002,5.457615],[-75.117925,5.457662],[-75.117885,5.457738],[-75.117929,5.457813],[-75.118015,5.457826],[-75.118085,5.457829],[-75.118119,5.457721],[-75.118068,5.457645]],[[-75.111451,5.44646],[-75.111702,5.446343],[-75.111805,5.446369],[-75.112069,5.446355],[-75.112203,5.446341],[-75.112337,5.446327],[-75.112548,5.446281],[-75.112718,5.446254],[-75.112923,5.446038],[-75.112976,5.445795],[-75.113016,5.44558],[-75.113038,5.445458],[-75.112652,5.445424],[-75.112437,5.445375],[-75.112218,5.445367],[-75.111922,5.445332],[-75.111613,5.445338],[-75.111456,5.445293],[-75.111273,5.445325],[-75.111044,5.445317],[-75.110866,5.445488],[-75.110781,5.445646],[-75.110701,5.445812],[-75.110729,5.446045],[-75.110783,5.446162],[-75.110838,5.446319],[-75.11095,5.446511],[-75.111223,5.446582],[-75.111451,5.44646]],[[-75.108925,5.44641],[-75.109159,5.446333],[-75.109383,5.446357],[-75.109556,5.446301],[-75.109734,5.446213],[-75.109943,5.446223],[-75.110115,5.445972],[-75.11018,5.445737],[-75.110292,5.445609],[-75.110414,5.445542],[-75.110418,5.445266],[-75.11026,5.445057],[-75.110157,5.444803],[-75.11004,5.444895],[-75.10998,5.445166],[-75.109771,5.445238],[-75.109578,5.445228],[-75.109399,5.445254],[-75.10917,5.445337],[-75.108905,5.445328],[-75.108666,5.445334],[-75.108498,5.445339],[-75.108304,5.445258],[-75.1081,5.445137],[-75.10785,5.445086],[-75.107687,5.445128],[-75.107361,5.445211],[-75.107113,5.445477],[-75.106838,5.445601],[-75.106757,5.445749],[-75.106885,5.445825],[-75.107134,5.445885],[-75.107343,5.445874],[-75.107572,5.445848],[-75.107746,5.44597],[-75.107878,5.445893],[-75.108057,5.445959],[-75.108251,5.446091],[-75.108257,5.446275],[-75.108481,5.446417],[-75.10867,5.446452],[-75.108925,5.44641]]],[[[-75.111917,5.46091],[-75.112017,5.460643],[-75.112102,5.460293],[-75.112104,5.460133],[-75.112019,5.460006],[-75.111925,5.459892],[-75.111734,5.459744],[-75.111563,5.459638],[-75.11141,5.459579],[-75.111224,5.459525],[-75.111068,5.459515],[-75.110991,5.459528],[-75.110885,5.459505],[-75.110701,5.459435],[-75.110533,5.459428],[-75.110354,5.459435],[-75.110228,5.459459],[-75.110099,5.459474],[-75.110173,5.459322],[-75.110191,5.459186],[-75.110177,5.458974],[-75.110106,5.458763],[-75.10995,5.45835],[-75.109729,5.457965],[-75.109494,5.457674],[-75.109212,5.457312],[-75.109038,5.457026],[-75.108916,5.456763],[-75.108883,5.456486],[-75.108868,5.456208],[-75.108802,5.45603],[-75.108708,5.455922],[-75.108511,5.455767],[-75.10837,5.455626],[-75.108281,5.455476],[-75.108127,5.455313],[-75.107832,5.45516],[-75.107463,5.454996],[-75.107213,5.454787],[-75.107214,5.454461],[-75.107237,5.454221],[-75.107221,5.454077],[-75.107166,5.453977],[-75.107067,5.453894],[-75.106958,5.453846],[-75.106871,5.453801],[-75.106801,5.453718],[-75.10675,5.453605],[-75.106735,5.453606],[-75.106685,5.45359],[-75.10661,5.453567],[-75.106491,5.453524],[-75.106432,5.453449],[-75.106415,5.45336],[-75.106425,5.453224],[-75.106448,5.453046],[-75.106401,5.452911],[-75.106322,5.452862],[-75.106154,5.452809],[-75.106056,5.452767],[-75.10597,5.452688],[-75.105871,5.452596],[-75.105759,5.452543],[-75.105642,5.45252],[-75.105851,5.452381],[-75.10613,5.452144],[-75.106393,5.451988],[-75.106653,5.451826],[-75.106679,5.451808],[-75.106706,5.451789],[-75.106837,5.451697],[-75.106988,5.451532],[-75.107109,5.451374],[-75.107126,5.451342],[-75.107184,5.451381],[-75.107166,5.451646],[-75.107262,5.45176],[-75.107278,5.451963],[-75.107253,5.452154],[-75.107094,5.452115],[-75.107077,5.452387],[-75.107111,5.452689],[-75.107233,5.452814],[-75.107601,5.45282],[-75.107906,5.452701],[-75.108126,5.452612],[-75.108472,5.452592],[-75.108964,5.452458],[-75.109233,5.452509],[-75.109269,5.452538],[-75.109377,5.452899],[-75.109518,5.453094],[-75.109665,5.453075],[-75.109897,5.453129],[-75.110114,5.453232],[-75.110324,5.453327],[-75.110556,5.453348],[-75.110769,5.453299],[-75.111005,5.453347],[-75.111255,5.453342],[-75.111465,5.453441],[-75.111777,5.453462],[-75.11202,5.45352],[-75.112259,5.453497],[-75.112594,5.453481],[-75.112888,5.453465],[-75.113076,5.453583],[-75.11325,5.453755],[-75.113151,5.453936],[-75.113049,5.454158],[-75.112899,5.45435],[-75.1128,5.454468],[-75.112899,5.454571],[-75.112948,5.454836],[-75.112919,5.454962],[-75.113015,5.455087],[-75.113159,5.455281],[-75.113292,5.455314],[-75.113348,5.455447],[-75.113436,5.455579],[-75.113528,5.455457],[-75.113598,5.455482],[-75.113664,5.455641],[-75.113745,5.455648],[-75.113829,5.455515],[-75.113891,5.45533],[-75.113759,5.455268],[-75.11349,5.455217],[-75.113552,5.455103],[-75.113729,5.455136],[-75.114086,5.455116],[-75.114074,5.455042],[-75.114103,5.454869],[-75.11421,5.454905],[-75.114251,5.455049],[-75.114419,5.455204],[-75.114599,5.455356],[-75.114627,5.455671],[-75.114303,5.455582],[-75.113998,5.455547],[-75.113972,5.455754],[-75.113811,5.456087],[-75.113598,5.456359],[-75.113529,5.456555],[-75.113616,5.456762],[-75.113772,5.45687],[-75.113692,5.457147],[-75.113797,5.45736],[-75.113752,5.457625],[-75.113942,5.457906],[-75.114339,5.458084],[-75.114415,5.458337],[-75.114461,5.458222],[-75.114623,5.45831],[-75.114762,5.458206],[-75.114743,5.457985],[-75.114915,5.457822],[-75.115033,5.45777],[-75.115049,5.457482],[-75.115147,5.457228],[-75.11519,5.457317],[-75.115276,5.457409],[-75.115416,5.45749],[-75.115465,5.457562],[-75.115568,5.457574],[-75.115494,5.45763],[-75.115436,5.457714],[-75.115334,5.457922],[-75.115139,5.458244],[-75.11489,5.458583],[-75.114683,5.458761],[-75.114465,5.458987],[-75.114318,5.459111],[-75.114239,5.459205],[-75.11406,5.45935],[-75.11389,5.459449],[-75.113685,5.459685],[-75.113475,5.460044],[-75.113402,5.460221],[-75.113347,5.46041],[-75.113328,5.46055],[-75.113266,5.460731],[-75.113163,5.460884],[-75.113048,5.46096],[-75.112838,5.460953],[-75.11264,5.460915],[-75.112451,5.460877],[-75.112337,5.460893],[-75.112223,5.460965],[-75.112051,5.461096],[-75.111961,5.461145],[-75.111842,5.461181],[-75.111896,5.461045],[-75.111917,5.46091]]]]},"properties":{"zona":"conservacion","zona_nombre":"Zona de conservación","categoria_origen":"Zona de conservacion","nombre":null,"area_ha":411.5364}},{"type":"Feature","id":1,"geometry":{"type":"Polygon","coordinates":[[[-75.118165,5.458585],[-75.118198,5.458544],[-75.118298,5.458558],[-75.118393,5.458576],[-75.118364,5.458617],[-75.118329,5.458618],[-75.118279,5.45862],[-75.118234,5.458606],[-75.118165,5.458585]]]},"properties":{"zona":"uso_intensivo","zona_nombre":"Zona de uso intensivo e infraestructura","categoria_origen":"Zonas usos intensivo e infraestructura","nombre":null,"area_ha":0.0132}},{"type":"Feature","id":2,"geometry":{"type":"MultiPolygon","coordinates":[[[[-75.114466,5.435023],[-75.114389,5.434702],[-75.114392,5.434668],[-75.114248,5.434618],[-75.114003,5.434405],[-75.113651,5.434345],[-75.113314,5.434223],[-75.112972,5.434051],[-75.112778,5.433858],[-75.112691,5.433669],[-75.112461,5.433573],[-75.112349,5.433491],[-75.11242,5.433425],[-75.11273,5.433357],[-75.112944,5.433346],[-75.11323,5.433386],[-75.113535,5.43337],[-75.113653,5.433543],[-75.11367,5.43389],[-75.113915,5.434104],[-75.114196,5.43424],[-75.11441,5.434357],[-75.114548,5.434581],[-75.114667,5.434897],[-75.114619,5.434851],[-75.11457,5.435042],[-75.114597,5.435184],[-75.114728,5.43547],[-75.114881,5.435738],[-75.114905,5.435937],[-75.114837,5.436075],[-75.114684,5.436202],[-75.114677,5.436378],[-75.114747,5.436581],[-75.115004,5.436802],[-75.115035,5.436943],[-75.114847,5.436906],[-75.114706,5.436803],[-75.114701,5.436715],[-75.114582,5.436554],[-75.114441,5.436532],[-75.114387,5.436436],[-75.114365,5.436364],[-75.114318,5.436207],[-75.114107,5.43615],[-75.113946,5.435986],[-75.113819,5.435726],[-75.113834,5.435569],[-75.113891,5.435378],[-75.114124,5.435346],[-75.11436,5.435253],[-75.114466,5.435023]]],[[[-75.117257,5.440076],[-75.117481,5.440003],[-75.117955,5.43993],[-75.118015,5.439772],[-75.117888,5.439624],[-75.117652,5.439211],[-75.117463,5.439166],[-75.117452,5.438967],[-75.117441,5.438707],[-75.117266,5.438294],[-75.117247,5.437923],[-75.117214,5.437763],[-75.117252,5.437577],[-75.117195,5.437292],[-75.117159,5.437129],[-75.117034,5.436868],[-75.116903,5.436725],[-75.116778,5.436444],[-75.116625,5.436327],[-75.116514,5.436223],[-75.116568,5.436011],[-75.116682,5.435808],[-75.116681,5.435471],[-75.116889,5.435392],[-75.117072,5.435427],[-75.117242,5.435688],[-75.117288,5.435776],[-75.117438,5.435713],[-75.117517,5.43587],[-75.117643,5.435739],[-75.117646,5.435536],[-75.117584,5.435458],[-75.117537,5.435216],[-75.117524,5.435063],[-75.117536,5.43487],[-75.117738,5.43482],[-75.11797,5.435071],[-75.118,5.435234],[-75.11774,5.435346],[-75.117808,5.435392],[-75.118089,5.435345],[-75.118262,5.43542],[-75.118288,5.435576],[-75.118165,5.435747],[-75.118127,5.435966],[-75.118065,5.436152],[-75.117958,5.436261],[-75.118064,5.436626],[-75.118046,5.436902],[-75.117772,5.437102],[-75.117589,5.437215],[-75.117615,5.437496],[-75.117784,5.437766],[-75.11782,5.437848],[-75.117927,5.437689],[-75.11807,5.437852],[-75.118325,5.438071],[-75.118419,5.438484],[-75.118338,5.438719],[-75.11837,5.439035],[-75.118396,5.439214],[-75.118147,5.439414],[-75.118106,5.439577],[-75.118133,5.439756],[-75.118392,5.439786],[-75.118642,5.439729],[-75.118927,5.439702],[-75.119055,5.439768],[-75.118739,5.439861],[-75.118388,5.439923],[-75.118327,5.440062],[-75.118129,5.440108],[-75.117874,5.440068],[-75.117675,5.44013],[-75.117421,5.4401],[-75.117257,5.440076]]],[[[-75.108481,5.446417],[-75.108257,5.446275],[-75.108251,5.446091],[-75.108057,5.445959],[-75.107878,5.445893],[-75.107746,5.44597],[-75.107572,5.445848],[-75.107343,5.445874],[-75.107134,5.445885],[-75.106885,5.445825],[-75.106757,5.445749],[-75.106838,5.445601],[-75.107113,5.445477],[-75.107361,5.445211],[-75.107687,5.445128],[-75.10785,5.445086],[-75.1081,5.445137],[-75.108304,5.445258],[-75.108498,5.445339],[-75.108666,5.445334],[-75.108905,5.445328],[-75.10917,5.445337],[-75.109399,5.445254],[-75.109578,5.445228],[-75.109771,5.445238],[-75.10998,5.445166],[-75.11004,5.444895],[-75.110157,5.444803],[-75.11026,5.445057],[-75.110418,5.445266],[-75.110414,5.445542],[-75.110292,5.445609],[-75.11018,5.445737],[-75.110115,5.445972],[-75.109943,5.446223],[-75.109734,5.446213],[-75.109556,5.446301],[-75.109383,5.446357],[-75.109159,5.446333],[-75.108925,5.44641],[-75.10867,5.446452],[-75.108481,5.446417]]],[[[-75.114415,5.458337],[-75.114339,5.458084],[-75.113942,5.457906],[-75.113752,5.457625],[-75.113797,5.45736],[-75.113692,5.457147],[-75.113772,5.45687],[-75.113616,5.456762],[-75.113529,5.456555],[-75.113598,5.456359],[-75.113811,5.456087],[-75.113972,5.455754],[-75.113998,5.455547],[-75.114303,5.455582],[-75.114627,5.455671],[-75.114599,5.455356],[-75.114419,5.455204],[-75.114251,5.455049],[-75.11421,5.454905],[-75.114103,5.454869],[-75.114074,5.455042],[-75.114086,5.455116],[-75.113729,5.455136],[-75.113552,5.455103],[-75.11349,5.455217],[-75.113759,5.455268],[-75.113891,5.45533],[-75.113829,5.455515],[-75.113745,5.455648],[-75.113664,5.455641],[-75.113598,5.455482],[-75.113528,5.455457],[-75.113436,5.455579],[-75.113348,5.455447],[-75.113292,5.455314],[-75.113159,5.455281],[-75.113015,5.455087],[-75.112919,5.454962],[-75.112948,5.454836],[-75.112899,5.454571],[-75.1128,5.454468],[-75.112899,5.45435],[-75.113049,5.454158],[-75.113151,5.453936],[-75.11325,5.453755],[-75.113076,5.453583],[-75.112888,5.453465],[-75.112594,5.453481],[-75.112259,5.453497],[-75.11202,5.45352],[-75.111777,5.453462],[-75.111465,5.453441],[-75.111255,5.453342],[-75.111005,5.453347],[-75.110769,5.453299],[-75.110556,5.453348],[-75.110324,5.453327],[-75.110114,5.453232],[-75.109897,5.453129],[-75.109665,5.453075],[-75.109518,5.453094],[-75.109377,5.452899],[-75.109269,5.452538],[-75.109233,5.452509],[-75.108964,5.452458],[-75.108472,5.452592],[-75.108126,5.452612],[-75.107906,5.452701],[-75.107601,5.45282],[-75.107233,5.452814],[-75.107111,5.452689],[-75.107077,5.452387],[-75.107094,5.452115],[-75.107253,5.452154],[-75.107278,5.451963],[-75.107262,5.45176],[-75.107166,5.451646],[-75.107184,5.451381],[-75.107126,5.451342],[-75.107211,5.451186],[-75.107349,5.451236],[-75.10753,5.451424],[-75.107648,5.451659],[-75.10781,5.451732],[-75.107898,5.451677],[-75.107795,5.451559],[-75.107673,5.451431],[-75.107603,5.451295],[-75.107451,5.451166],[-75.107369,5.451139],[-75.107359,5.451068],[-75.107418,5.451023],[-75.107644,5.451065],[-75.107842,5.451123],[-75.107905,5.451005],[-75.107959,5.450892],[-75.108015,5.450809],[-75.108147,5.450775],[-75.108298,5.450902],[-75.108419,5.451103],[-75.108534,5.451085],[-75.108538,5.451001],[-75.108493,5.450857],[-75.108422,5.450697],[-75.108332,5.450631],[-75.108362,5.450475],[-75.108357,5.450263],[-75.108309,5.450112],[-75.108266,5.450017],[-75.108294,5.449856],[-75.10835,5.449727],[-75.108438,5.449625],[-75.108498,5.449593],[-75.108557,5.449562],[-75.108668,5.449525],[-75.108931,5.449643],[-75.109276,5.449739],[-75.109535,5.449842],[-75.109679,5.449801],[-75.110013,5.450094],[-75.110191,5.450111],[-75.110363,5.450029],[-75.11046,5.449885],[-75.110593,5.449965],[-75.110388,5.450571],[-75.110309,5.451055],[-75.11035,5.451302],[-75.110443,5.451532],[-75.110783,5.451842],[-75.110903,5.45168],[-75.110736,5.451433],[-75.110752,5.451047],[-75.110801,5.450437],[-75.110823,5.450068],[-75.111122,5.45013],[-75.111306,5.45021],[-75.11141,5.450406],[-75.111733,5.450589],[-75.111837,5.450796],[-75.111815,5.45109],[-75.11197,5.451118],[-75.111998,5.45083],[-75.112014,5.450565],[-75.111933,5.450243],[-75.111897,5.449984],[-75.112087,5.449868],[-75.112425,5.449751],[-75.112639,5.450027],[-75.112732,5.450401],[-75.112739,5.450637],[-75.113009,5.450728],[-75.11309,5.450809],[-75.112993,5.450901],[-75.11278,5.450908],[-75.112832,5.451086],[-75.113091,5.451131],[-75.113122,5.451632],[-75.112956,5.452036],[-75.112872,5.452531],[-75.112769,5.452624],[-75.112879,5.452825],[-75.113109,5.45294],[-75.113304,5.452991],[-75.113424,5.452806],[-75.113573,5.452587],[-75.113711,5.4525],[-75.113987,5.45266],[-75.114143,5.452884],[-75.114287,5.453085],[-75.114283,5.45335],[-75.114139,5.45346],[-75.113892,5.453513],[-75.113622,5.453508],[-75.11345,5.453687],[-75.113526,5.453911],[-75.113556,5.454147],[-75.113717,5.454222],[-75.113833,5.454452],[-75.113981,5.45433],[-75.113912,5.454146],[-75.114101,5.454065],[-75.11428,5.454116],[-75.114252,5.454398],[-75.114316,5.454605],[-75.11438,5.454801],[-75.114501,5.454956],[-75.114858,5.455214],[-75.115209,5.455374],[-75.115302,5.455541],[-75.11517,5.455616],[-75.115302,5.455742],[-75.115469,5.455747],[-75.115572,5.455632],[-75.115745,5.455758],[-75.115975,5.455913],[-75.116039,5.456091],[-75.115959,5.456241],[-75.115741,5.456294],[-75.115725,5.45657],[-75.116001,5.456644],[-75.116335,5.456804],[-75.116324,5.456948],[-75.116255,5.457092],[-75.116206,5.457261],[-75.116113,5.457339],[-75.115923,5.457329],[-75.115774,5.457451],[-75.115705,5.457551],[-75.115631,5.457555],[-75.115568,5.457574],[-75.115465,5.457562],[-75.115416,5.45749],[-75.115276,5.457409],[-75.11519,5.457317],[-75.115147,5.457228],[-75.115049,5.457482],[-75.115033,5.45777],[-75.114915,5.457822],[-75.114743,5.457985],[-75.114762,5.458206],[-75.114623,5.45831],[-75.114461,5.458222],[-75.114415,5.458337]]]]},"properties":{"zona":"restauracion","zona_nombre":"Zona de restauración","categoria_origen":"Zonas de Restauracion","nombre":null,"area_ha":40.8469}},{"type":"Feature","id":3,"geometry":{"type":"MultiPolygon","coordinates":[[[[-75.129236,5.435899],[-75.129266,5.435784],[-75.129351,5.435795],[-75.129454,5.435744],[-75.129532,5.435639],[-75.129585,5.435631],[-75.129474,5.435841],[-75.129236,5.435899]]],[[[-75.131891,5.436345],[-75.131757,5.436219],[-75.131712,5.43598],[-75.131694,5.435856],[-75.131652,5.435713],[-75.131686,5.435621],[-75.131784,5.435547],[-75.131811,5.43525],[-75.131844,5.434997],[-75.131888,5.434858],[-75.132028,5.434663],[-75.132134,5.434593],[-75.132255,5.434543],[-75.132413,5.434501],[-75.132519,5.434443],[-75.132696,5.434425],[-75.132805,5.434398],[-75.132879,5.434318],[-75.132891,5.434244],[-75.132822,5.4342],[-75.13285,5.434122],[-75.132984,5.434221],[-75.132948,5.434367],[-75.132795,5.434467],[-75.132595,5.434522],[-75.132223,5.434613],[-75.132083,5.434754],[-75.13193,5.435063],[-75.13187,5.435305],[-75.131859,5.435582],[-75.131818,5.435975],[-75.131874,5.436253],[-75.132012,5.436319],[-75.132331,5.436209],[-75.132536,5.435997],[-75.132716,5.435851],[-75.132997,5.435842],[-75.13323,5.435915],[-75.133371,5.436088],[-75.133362,5.436183],[-75.133297,5.43615],[-75.133198,5.436019],[-75.133062,5.43595],[-75.132835,5.435911],[-75.132712,5.435969],[-75.132562,5.436132],[-75.132414,5.436244],[-75.132217,5.436351],[-75.132027,5.436382],[-75.131891,5.436345]]],[[[-75.127547,5.437245],[-75.127583,5.437104],[-75.127747,5.437068],[-75.127951,5.43704],[-75.128034,5.437042],[-75.128037,5.437041],[-75.128127,5.437022],[-75.128226,5.437007],[-75.128346,5.436926],[-75.128434,5.436865],[-75.128501,5.436794],[-75.12846,5.436946],[-75.128229,5.437093],[-75.128067,5.437121],[-75.127805,5.43711],[-75.127655,5.437157],[-75.127547,5.437245]]],[[[-75.126824,5.437421],[-75.126879,5.437373],[-75.127038,5.437395],[-75.127284,5.437334],[-75.127362,5.437355],[-75.127414,5.437366],[-75.127332,5.437425],[-75.127043,5.437457],[-75.126828,5.437465],[-75.126824,5.437421]]],[[[-75.11985,5.44522],[-75.119752,5.445164],[-75.119635,5.445028],[-75.119548,5.444835],[-75.119439,5.444675],[-75.119397,5.444613],[-75.11928,5.444527],[-75.119174,5.444384],[-75.119045,5.444315],[-75.118875,5.444348],[-75.118685,5.444401],[-75.118525,5.444433],[-75.118384,5.444451],[-75.118268,5.444392],[-75.118226,5.444345],[-75.118179,5.444249],[-75.118065,5.444094],[-75.11802,5.44398],[-75.117997,5.443891],[-75.118021,5.443804],[-75.118105,5.44371],[-75.118115,5.443631],[-75.118067,5.443525],[-75.11801,5.443396],[-75.117985,5.443191],[-75.117989,5.442956],[-75.117964,5.442832],[-75.117894,5.442754],[-75.117796,5.442732],[-75.117628,5.442782],[-75.11746,5.44281],[-75.117337,5.442817],[-75.117177,5.442853],[-75.117063,5.442888],[-75.116989,5.442796],[-75.116919,5.442638],[-75.116849,5.442428],[-75.116837,5.44231],[-75.116836,5.442173],[-75.116806,5.44206],[-75.116741,5.441941],[-75.116763,5.441837],[-75.11683,5.441765],[-75.116926,5.441708],[-75.117081,5.441693],[-75.117261,5.441719],[-75.117368,5.441699],[-75.117533,5.441644],[-75.117634,5.44158],[-75.117636,5.44152],[-75.11753,5.441469],[-75.117394,5.441432],[-75.117273,5.44142],[-75.117179,5.441396],[-75.11708,5.441403],[-75.116972,5.441372],[-75.116855,5.441332],[-75.116734,5.441296],[-75.116663,5.441311],[-75.116505,5.441425],[-75.11638,5.441532],[-75.116207,5.441651],[-75.116092,5.441733],[-75.11606,5.441855],[-75.116137,5.441998],[-75.116226,5.442129],[-75.116305,5.44222],[-75.116328,5.442274],[-75.116257,5.442398],[-75.116237,5.44248],[-75.116292,5.442603],[-75.116278,5.442687],[-75.116189,5.442779],[-75.116064,5.442894],[-75.115906,5.443067],[-75.115776,5.443216],[-75.115705,5.44339],[-75.115619,5.443588],[-75.115588,5.443699],[-75.115452,5.443828],[-75.115297,5.443854],[-75.115147,5.443941],[-75.115053,5.443998],[-75.114974,5.444076],[-75.11479,5.444249],[-75.114731,5.444325],[-75.11459,5.4444],[-75.114381,5.44448],[-75.11413,5.444585],[-75.114029,5.444635],[-75.11389,5.444722],[-75.113679,5.444829],[-75.113538,5.444901],[-75.113444,5.444924],[-75.113264,5.444783],[-75.113231,5.444674],[-75.113268,5.444578],[-75.113359,5.444491],[-75.113423,5.444409],[-75.113544,5.444332],[-75.113647,5.44425],[-75.113768,5.444205],[-75.113886,5.444066],[-75.113986,5.443932],[-75.1141,5.443858],[-75.114193,5.443805],[-75.114388,5.443731],[-75.114543,5.443653],[-75.114681,5.443608],[-75.11474,5.443504],[-75.11474,5.443447],[-75.114732,5.443376],[-75.114722,5.443301],[-75.114747,5.443242],[-75.114843,5.443168],[-75.114912,5.443076],[-75.114884,5.442922],[-75.114891,5.442831],[-75.114947,5.442761],[-75.114984,5.442697],[-75.115014,5.442583],[-75.115001,5.442467],[-75.114889,5.442363],[-75.114771,5.442304],[-75.114657,5.442251],[-75.114477,5.442293],[-75.114376,5.442291],[-75.114282,5.442215],[-75.114197,5.442114],[-75.114051,5.44203],[-75.113841,5.441922],[-75.113735,5.441836],[-75.113675,5.441707],[-75.113719,5.441598],[-75.113803,5.441462],[-75.113842,5.441368],[-75.113874,5.441271],[-75.113935,5.441199],[-75.114014,5.441154],[-75.1141,5.441154],[-75.114223,5.441072],[-75.11426,5.441008],[-75.114287,5.440933],[-75.114262,5.440783],[-75.114254,5.440737],[-75.114344,5.440755],[-75.114371,5.440975],[-75.11428,5.441097],[-75.114174,5.441161],[-75.114034,5.441204],[-75.113899,5.441387],[-75.113788,5.441623],[-75.113769,5.441801],[-75.11394,5.441902],[-75.114046,5.441963],[-75.11416,5.442017],[-75.114311,5.442135],[-75.114388,5.442227],[-75.114464,5.442249],[-75.114657,5.442206],[-75.114746,5.442201],[-75.114835,5.442272],[-75.114998,5.442351],[-75.115077,5.442504],[-75.115036,5.442734],[-75.114948,5.44287],[-75.114978,5.443048],[-75.114914,5.443162],[-75.114873,5.443207],[-75.114799,5.443281],[-75.114809,5.443415],[-75.1148,5.443531],[-75.114778,5.443618],[-75.114657,5.443648],[-75.114514,5.44372],[-75.114369,5.443802],[-75.114248,5.443867],[-75.114135,5.443905],[-75.114012,5.444006],[-75.113938,5.444088],[-75.113876,5.444163],[-75.113785,5.444247],[-75.113665,5.444327],[-75.113522,5.444399],[-75.113438,5.444473],[-75.113391,5.444568],[-75.113332,5.444637],[-75.113313,5.444711],[-75.113377,5.44479],[-75.113479,5.444847],[-75.113563,5.444839],[-75.113775,5.444732],[-75.113954,5.44462],[-75.114129,5.444523],[-75.114265,5.444485],[-75.114477,5.444391],[-75.114536,5.44436],[-75.11466,5.444308],[-75.114745,5.44421],[-75.114816,5.444129],[-75.114883,5.444052],[-75.115006,5.443946],[-75.115119,5.443844],[-75.115191,5.443812],[-75.115258,5.443779],[-75.115274,5.44377],[-75.115295,5.443782],[-75.115312,5.443773],[-75.115331,5.443764],[-75.115355,5.443764],[-75.11537,5.443748],[-75.11537,5.443725],[-75.115383,5.443707],[-75.115401,5.443699],[-75.115421,5.443688],[-75.115437,5.443678],[-75.115448,5.443663],[-75.11545,5.443641],[-75.115449,5.443619],[-75.115508,5.443598],[-75.115539,5.443461],[-75.115621,5.443297],[-75.115629,5.44323],[-75.115721,5.443093],[-75.11581,5.443043],[-75.115945,5.442958],[-75.116051,5.442837],[-75.116177,5.442742],[-75.116208,5.442656],[-75.116198,5.442579],[-75.116161,5.44251],[-75.116168,5.442438],[-75.116234,5.442317],[-75.116266,5.44225],[-75.116197,5.442161],[-75.116093,5.442048],[-75.116008,5.441904],[-75.116013,5.441805],[-75.116057,5.441696],[-75.116202,5.441585],[-75.116291,5.441517],[-75.116426,5.441413],[-75.116542,5.441314],[-75.116635,5.441249],[-75.116746,5.441249],[-75.116929,5.44131],[-75.117186,5.441351],[-75.117376,5.44137],[-75.11752,5.441417],[-75.117722,5.441503],[-75.117762,5.441567],[-75.117691,5.441691],[-75.11756,5.441723],[-75.117353,5.441741],[-75.117225,5.441776],[-75.117081,5.441732],[-75.116901,5.441788],[-75.116815,5.441902],[-75.11685,5.442047],[-75.116918,5.442215],[-75.116881,5.442304],[-75.116951,5.442559],[-75.117018,5.442727],[-75.1171,5.442811],[-75.117223,5.442793],[-75.117386,5.44276],[-75.117546,5.442732],[-75.117717,5.442692],[-75.117835,5.44267],[-75.117939,5.442687],[-75.118048,5.442859],[-75.118041,5.44306],[-75.118054,5.443282],[-75.118075,5.443418],[-75.118144,5.443591],[-75.118191,5.44368],[-75.11813,5.443784],[-75.118066,5.443896],[-75.118089,5.444002],[-75.118158,5.444069],[-75.118211,5.444187],[-75.11826,5.44432],[-75.11834,5.444387],[-75.118451,5.444409],[-75.118534,5.444369],[-75.118705,5.444336],[-75.118887,5.444296],[-75.119028,5.444261],[-75.119134,5.44429],[-75.119277,5.444421],[-75.119409,5.444529],[-75.119493,5.444662],[-75.119612,5.444833],[-75.119714,5.44503],[-75.119818,5.445144],[-75.119937,5.445175],[-75.120072,5.445163],[-75.120186,5.445088],[-75.120203,5.444969],[-75.12015,5.444831],[-75.120086,5.444727],[-75.120024,5.444609],[-75.120008,5.444507],[-75.120082,5.444378],[-75.12018,5.444247],[-75.12034,5.444113],[-75.120436,5.443984],[-75.12047,5.443862],[-75.120381,5.443776],[-75.120289,5.443621],[-75.120205,5.443463],[-75.12017,5.443342],[-75.120176,5.443173],[-75.120136,5.442996],[-75.120151,5.442867],[-75.120212,5.442753],[-75.120268,5.442644],[-75.120364,5.442596],[-75.120446,5.442564],[-75.120599,5.442512],[-75.120665,5.442444],[-75.120687,5.442343],[-75.120642,5.442222],[-75.1206,5.442059],[-75.120557,5.441928],[-75.120554,5.441824],[-75.120554,5.441757],[-75.120596,5.441715],[-75.120685,5.44167],[-75.120754,5.441628],[-75.120914,5.441578],[-75.121037,5.441511],[-75.121121,5.441392],[-75.121202,5.441307],[-75.121293,5.441248],[-75.121411,5.441218],[-75.121532,5.44121],[-75.121636,5.44118],[-75.1217,5.441122],[-75.121707,5.441028],[-75.121664,5.440883],[-75.121592,5.440769],[-75.12152,5.440663],[-75.12147,5.440525],[-75.12151,5.440433],[-75.121667,5.440343],[-75.121783,5.440294],[-75.121914,5.440276],[-75.122054,5.440265],[-75.122205,5.440225],[-75.122336,5.440183],[-75.122414,5.440064],[-75.122433,5.439908],[-75.12248,5.439848],[-75.122643,5.439821],[-75.122816,5.439795],[-75.122924,5.439713],[-75.122988,5.439617],[-75.123071,5.439572],[-75.123167,5.43952],[-75.123281,5.439507],[-75.123382,5.439459],[-75.123431,5.439375],[-75.12349,5.439281],[-75.123586,5.439147],[-75.123632,5.43904],[-75.123681,5.438944],[-75.123757,5.438817],[-75.123833,5.438691],[-75.123895,5.43858],[-75.123956,5.43848],[-75.123993,5.438394],[-75.124026,5.438223],[-75.124063,5.438164],[-75.124068,5.438106],[-75.124051,5.438026],[-75.124045,5.437971],[-75.124146,5.437854],[-75.124196,5.437799],[-75.124333,5.43767],[-75.124454,5.437677],[-75.124555,5.437617],[-75.124626,5.437501],[-75.12472,5.437357],[-75.124815,5.437166],[-75.124936,5.437025],[-75.125133,5.436987],[-75.125336,5.43711],[-75.125406,5.437315],[-75.125468,5.437394],[-75.125532,5.437436],[-75.125724,5.437356],[-75.125866,5.437291],[-75.125907,5.437321],[-75.125872,5.437366],[-75.125707,5.437413],[-75.125579,5.437503],[-75.125441,5.437473],[-75.125359,5.437375],[-75.125282,5.437202],[-75.1252,5.437076],[-75.125072,5.437052],[-75.124946,5.437114],[-75.124848,5.437253],[-75.124745,5.437424],[-75.124646,5.437568],[-75.124565,5.437689],[-75.124427,5.437734],[-75.124341,5.437735],[-75.124191,5.437866],[-75.124112,5.437985],[-75.124084,5.438055],[-75.124079,5.438184],[-75.124062,5.438273],[-75.12401,5.438485],[-75.123937,5.438651],[-75.123878,5.438738],[-75.123768,5.438926],[-75.123687,5.43909],[-75.123588,5.439239],[-75.123485,5.43939],[-75.123382,5.439526],[-75.123279,5.439556],[-75.12315,5.439584],[-75.12303,5.439654],[-75.122944,5.439738],[-75.12289,5.439825],[-75.122823,5.439852],[-75.122675,5.439865],[-75.122562,5.439885],[-75.122483,5.439923],[-75.122461,5.440022],[-75.12241,5.44015],[-75.122331,5.440235],[-75.122188,5.440282],[-75.122037,5.440313],[-75.121875,5.440333],[-75.121724,5.440366],[-75.121569,5.440448],[-75.12153,5.440505],[-75.121552,5.440626],[-75.121602,5.440702],[-75.121664,5.440779],[-75.121741,5.440912],[-75.121761,5.441095],[-75.121688,5.441217],[-75.121589,5.441256],[-75.121414,5.441262],[-75.121288,5.441292],[-75.121185,5.441411],[-75.121077,5.441533],[-75.120959,5.44164],[-75.120808,5.44167],[-75.120663,5.441747],[-75.120601,5.441826],[-75.120621,5.441962],[-75.120679,5.442168],[-75.120744,5.442325],[-75.120727,5.442432],[-75.120626,5.442558],[-75.120473,5.442599],[-75.12035,5.442646],[-75.120274,5.44275],[-75.120217,5.442896],[-75.120196,5.442988],[-75.120226,5.443186],[-75.120216,5.443317],[-75.120261,5.443435],[-75.120338,5.443576],[-75.120361,5.443658],[-75.120472,5.443776],[-75.120517,5.443907],[-75.120454,5.444058],[-75.12035,5.444155],[-75.120212,5.444281],[-75.120129,5.444386],[-75.120053,5.444492],[-75.120073,5.444608],[-75.120167,5.444766],[-75.120227,5.4449],[-75.120269,5.445028],[-75.120198,5.445179],[-75.120117,5.445219],[-75.119979,5.445227],[-75.11985,5.44522]]]]},"properties":{"zona":"uso_intensivo","zona_nombre":"Zona de uso intensivo e infraestructura","categoria_origen":"Zona de uso intensivo e infraestructura","nombre":"Via acceso","area_ha":3.0609}},{"type":"Feature","id":4,"geometry":{"type":"MultiPolygon","coordinates":[[[[-75.118767,5.44041],[-75.118836,5.440402],[-75.118892,5.44042],[-75.118899,5.440508],[-75.118826,5.440537],[-75.118709,5.440571],[-75.118636,5.440599],[-75.118549,5.440651],[-75.118499,5.440677],[-75.118502,5.440595],[-75.118515,5.440545],[-75.118567,5.440482],[-75.118677,5.440427],[-75.118767,5.44041]]],[[[-75.115295,5.443782],[-75.115274,5.44377],[-75.115258,5.443779],[-75.115238,5.443768],[-75.115249,5.443752],[-75.115256,5.443734],[-75.115273,5.44372],[-75.115268,5.443698],[-75.115254,5.443684],[-75.115239,5.443674],[-75.115225,5.443661],[-75.115213,5.443638],[-75.115202,5.443617],[-75.115105,5.443612],[-75.11509,5.443551],[-75.115187,5.443501],[-75.11521,5.443429],[-75.115236,5.443352],[-75.115236,5.443304],[-75.115186,5.443263],[-75.11521,5.443199],[-75.115204,5.443099],[-75.115227,5.443045],[-75.115629,5.44323],[-75.115621,5.443297],[-75.115539,5.443461],[-75.115508,5.443598],[-75.115449,5.443619],[-75.11545,5.443641],[-75.115448,5.443663],[-75.115437,5.443678],[-75.115421,5.443688],[-75.115401,5.443699],[-75.115383,5.443707],[-75.11537,5.443725],[-75.11537,5.443748],[-75.115355,5.443764],[-75.115331,5.443764],[-75.115312,5.443773],[-75.115295,5.443782]]],[[[-75.115679,5.443984],[-75.115683,5.443984],[-75.115687,5.443985],[-75.115691,5.443986],[-75.115695,5.443988],[-75.115699,5.44399],[-75.115702,5.443993],[-75.115704,5.443997],[-75.115706,5.444],[-75.115707,5.444005],[-75.115708,5.444009],[-75.115708,5.444013],[-75.115707,5.444018],[-75.115692,5.444033],[-75.115688,5.444035],[-75.115684,5.444035],[-75.115679,5.444035],[-75.115675,5.444034],[-75.115671,5.444033],[-75.115668,5.444031],[-75.115664,5.444028],[-75.115661,5.444024],[-75.115659,5.444021],[-75.115658,5.444017],[-75.115657,5.444012],[-75.115657,5.444008],[-75.115657,5.444004],[-75.115659,5.444],[-75.115661,5.443996],[-75.115664,5.443992],[-75.115667,5.443989],[-75.11567,5.443987],[-75.115674,5.443985],[-75.115679,5.443984]]],[[[-75.11479,5.444249],[-75.114974,5.444076],[-75.114974,5.444146],[-75.11496,5.444272],[-75.114919,5.444303],[-75.114869,5.444301],[-75.114809,5.444263],[-75.11479,5.444249]]],[[[-75.114351,5.444393],[-75.114321,5.44433],[-75.114382,5.444289],[-75.114432,5.444178],[-75.114565,5.444157],[-75.114649,5.444102],[-75.11475,5.444042],[-75.114846,5.444021],[-75.114883,5.444052],[-75.114816,5.444129],[-75.114745,5.44421],[-75.11466,5.444308],[-75.114536,5.44436],[-75.114513,5.44433],[-75.114399,5.444374],[-75.114351,5.444393]]],[[[-75.111359,5.445593],[-75.111401,5.445587],[-75.111444,5.445588],[-75.111487,5.445596],[-75.111527,5.44561],[-75.111565,5.445632],[-75.111598,5.445658],[-75.111627,5.445691],[-75.11165,5.445727],[-75.111667,5.445766],[-75.111678,5.445808],[-75.111681,5.445851],[-75.111678,5.445894],[-75.111667,5.445936],[-75.11165,5.445976],[-75.111627,5.446012],[-75.111598,5.446044],[-75.111565,5.446071],[-75.111527,5.446092],[-75.111487,5.446107],[-75.111445,5.446115],[-75.111402,5.446116],[-75.111359,5.44611],[-75.111318,5.446097],[-75.111279,5.446078],[-75.111245,5.446053],[-75.111219,5.446015],[-75.1112,5.445974],[-75.111187,5.44593],[-75.111181,5.445885],[-75.111181,5.445839],[-75.111189,5.445795],[-75.111203,5.445751],[-75.111224,5.445711],[-75.11125,5.445674],[-75.111282,5.445641],[-75.111319,5.445614],[-75.111359,5.445593]]],[[[-75.117997,5.457737],[-75.117999,5.457737],[-75.118002,5.457737],[-75.118004,5.457737],[-75.118007,5.457738],[-75.118009,5.457739],[-75.118011,5.457741],[-75.118013,5.457743],[-75.118014,5.457745],[-75.118015,5.457747],[-75.118016,5.45775],[-75.118016,5.457752],[-75.118015,5.457755],[-75.118015,5.457757],[-75.118014,5.45776],[-75.118012,5.457762],[-75.11801,5.457763],[-75.118008,5.457765],[-75.118006,5.457766],[-75.118003,5.457767],[-75.117998,5.457767],[-75.117996,5.457766],[-75.117993,5.457765],[-75.117991,5.457764],[-75.117989,5.457762],[-75.117988,5.45776],[-75.117987,5.457757],[-75.117986,5.457755],[-75.117986,5.457752],[-75.117986,5.45775],[-75.117986,5.457747],[-75.117987,5.457745],[-75.117989,5.457743],[-75.11799,5.457741],[-75.117992,5.457739],[-75.117994,5.457738],[-75.117997,5.457737]]]]},"properties":{"zona":"uso_intensivo","zona_nombre":"Zona de uso intensivo e infraestructura","categoria_origen":"Zonas usos intensivo e infraestructura","nombre":null,"area_ha":0.7152}},{"type":"Feature","id":5,"geometry":{"type":"MultiPolygon","coordinates":[[[[-75.118421,5.440778],[-75.118409,5.440646],[-75.118412,5.440511],[-75.11848,5.440407],[-75.118617,5.440338],[-75.118812,5.440291],[-75.11895,5.440305],[-75.118993,5.440477],[-75.118971,5.440627],[-75.118762,5.440682],[-75.118539,5.440783],[-75.118421,5.440778]],[[-75.118892,5.44042],[-75.118836,5.440402],[-75.118767,5.44041],[-75.118677,5.440427],[-75.118567,5.440482],[-75.118515,5.440545],[-75.118502,5.440595],[-75.118499,5.440677],[-75.118549,5.440651],[-75.118636,5.440599],[-75.118709,5.440571],[-75.118826,5.440537],[-75.118899,5.440508],[-75.118892,5.44042]]],[[[-75.113522,5.444399],[-75.113665,5.444327],[-75.113785,5.444247],[-75.113876,5.444163],[-75.113938,5.444088],[-75.114012,5.444006],[-75.114135,5.443905],[-75.114248,5.443867],[-75.114369,5.443802],[-75.114514,5.44372],[-75.114657,5.443648],[-75.114778,5.443618],[-75.1148,5.443531],[-75.114809,5.443415],[-75.114799,5.443281],[-75.114873,5.443207],[-75.114914,5.443162],[-75.114978,5.443048],[-75.114948,5.44287],[-75.115036,5.442734],[-75.115334,5.442749],[-75.115549,5.442847],[-75.115851,5.443017],[-75.11581,5.443043],[-75.115721,5.443093],[-75.115629,5.44323],[-75.115227,5.443045],[-75.115204,5.443099],[-75.11521,5.443199],[-75.115186,5.443263],[-75.115236,5.443304],[-75.115236,5.443352],[-75.11521,5.443429],[-75.115187,5.443501],[-75.11509,5.443551],[-75.115105,5.443612],[-75.115202,5.443617],[-75.115213,5.443638],[-75.115225,5.443661],[-75.115239,5.443674],[-75.115254,5.443684],[-75.115268,5.443698],[-75.115273,5.44372],[-75.115256,5.443734],[-75.115249,5.443752],[-75.115238,5.443768],[-75.115258,5.443779],[-75.115191,5.443812],[-75.115119,5.443844],[-75.115006,5.443946],[-75.114883,5.444052],[-75.114846,5.444021],[-75.11475,5.444042],[-75.114649,5.444102],[-75.114565,5.444157],[-75.114432,5.444178],[-75.114382,5.444289],[-75.114321,5.44433],[-75.114351,5.444393],[-75.114399,5.444374],[-75.114513,5.44433],[-75.114536,5.44436],[-75.114477,5.444391],[-75.114265,5.444485],[-75.114129,5.444523],[-75.113954,5.44462],[-75.113775,5.444732],[-75.113563,5.444839],[-75.113479,5.444847],[-75.113377,5.44479],[-75.113313,5.444711],[-75.113332,5.444637],[-75.113391,5.444568],[-75.113438,5.444473],[-75.113522,5.444399]]],[[[-75.114731,5.444325],[-75.11479,5.444249],[-75.114809,5.444263],[-75.114869,5.444301],[-75.114919,5.444303],[-75.11496,5.444272],[-75.114974,5.444146],[-75.114974,5.444076],[-75.115053,5.443998],[-75.115147,5.443941],[-75.115297,5.443854],[-75.115452,5.443828],[-75.115588,5.443699],[-75.115619,5.443588],[-75.115705,5.44339],[-75.115776,5.443216],[-75.115905,5.443321],[-75.116026,5.443469],[-75.116099,5.443698],[-75.115974,5.443913],[-75.11589,5.444134],[-75.115693,5.444264],[-75.115474,5.444279],[-75.115313,5.444315],[-75.115286,5.444504],[-75.115314,5.44471],[-75.115314,5.444849],[-75.115185,5.444957],[-75.115001,5.444931],[-75.114714,5.44464],[-75.114528,5.444424],[-75.11459,5.4444],[-75.114731,5.444325]],[[-75.115687,5.443985],[-75.115683,5.443984],[-75.115679,5.443984],[-75.115674,5.443985],[-75.11567,5.443987],[-75.115667,5.443989],[-75.115664,5.443992],[-75.115661,5.443996],[-75.115659,5.444],[-75.115657,5.444004],[-75.115657,5.444008],[-75.115657,5.444012],[-75.115658,5.444017],[-75.115659,5.444021],[-75.115661,5.444024],[-75.115664,5.444028],[-75.115668,5.444031],[-75.115671,5.444033],[-75.115675,5.444034],[-75.115679,5.444035],[-75.115684,5.444035],[-75.115688,5.444035],[-75.115692,5.444033],[-75.115707,5.444018],[-75.115708,5.444013],[-75.115708,5.444009],[-75.115707,5.444005],[-75.115706,5.444],[-75.115704,5.443997],[-75.115702,5.443993],[-75.115699,5.44399],[-75.115695,5.443988],[-75.115691,5.443986],[-75.115687,5.443985]]],[[[-75.11095,5.446511],[-75.110838,5.446319],[-75.110783,5.446162],[-75.110729,5.446045],[-75.110701,5.445812],[-75.110781,5.445646],[-75.110866,5.445488],[-75.111044,5.445317],[-75.111273,5.445325],[-75.111456,5.445293],[-75.111613,5.445338],[-75.111922,5.445332],[-75.112218,5.445367],[-75.112437,5.445375],[-75.112652,5.445424],[-75.113038,5.445458],[-75.113016,5.44558],[-75.112976,5.445795],[-75.112923,5.446038],[-75.112718,5.446254],[-75.112548,5.446281],[-75.112337,5.446327],[-75.112203,5.446341],[-75.112069,5.446355],[-75.111805,5.446369],[-75.111702,5.446343],[-75.111451,5.44646],[-75.111223,5.446582],[-75.11095,5.446511]],[[-75.111444,5.445588],[-75.111401,5.445587],[-75.111359,5.445593],[-75.111319,5.445614],[-75.111282,5.445641],[-75.11125,5.445674],[-75.111224,5.445711],[-75.111203,5.445751],[-75.111189,5.445795],[-75.111181,5.445839],[-75.111181,5.445885],[-75.111187,5.44593],[-75.1112,5.445974],[-75.111219,5.446015],[-75.111245,5.446053],[-75.111279,5.446078],[-75.111318,5.446097],[-75.111359,5.44611],[-75.111402,5.446116],[-75.111445,5.446115],[-75.111487,5.446107],[-75.111527,5.446092],[-75.111565,5.446071],[-75.111598,5.446044],[-75.111627,5.446012],[-75.11165,5.445976],[-75.111667,5.445936],[-75.111678,5.445894],[-75.111681,5.445851],[-75.111678,5.445808],[-75.111667,5.445766],[-75.11165,5.445727],[-75.111627,5.445691],[-75.111598,5.445658],[-75.111565,5.445632],[-75.111527,5.44561],[-75.111487,5.445596],[-75.111444,5.445588]]],[[[-75.117929,5.457813],[-75.117885,5.457738],[-75.117925,5.457662],[-75.118002,5.457615],[-75.118068,5.457645],[-75.118119,5.457721],[-75.118085,5.457829],[-75.118015,5.457826],[-75.117929,5.457813]],[[-75.118002,5.457737],[-75.117999,5.457737],[-75.117997,5.457737],[-75.117994,5.457738],[-75.117992,5.457739],[-75.11799,5.457741],[-75.117989,5.457743],[-75.117987,5.457745],[-75.117986,5.457747],[-75.117986,5.45775],[-75.117986,5.457752],[-75.117986,5.457755],[-75.117987,5.457757],[-75.117988,5.45776],[-75.117989,5.457762],[-75.117991,5.457764],[-75.117993,5.457765],[-75.117996,5.457766],[-75.117998,5.457767],[-75.118003,5.457767],[-75.118006,5.457766],[-75.118008,5.457765],[-75.11801,5.457763],[-75.118012,5.457762],[-75.118014,5.45776],[-75.118015,5.457757],[-75.118015,5.457755],[-75.118016,5.457752],[-75.118016,5.45775],[-75.118015,5.457747],[-75.118014,5.457745],[-75.118013,5.457743],[-75.118011,5.457741],[-75.118009,5.457739],[-75.118007,5.457738],[-75.118004,5.457737],[-75.118002,5.457737]]],[[[-75.118165,5.458585],[-75.118071,5.458535],[-75.118001,5.458456],[-75.118056,5.458381],[-75.118178,5.458351],[-75.1183,5.458361],[-75.118371,5.458391],[-75.118477,5.458454],[-75.118451,5.458493],[-75.118393,5.458576],[-75.118298,5.458558],[-75.118198,5.458544],[-75.118165,5.458585]]]]},"properties":{"zona":"amortiguacion","zona_nombre":"Zona de amortiguación","categoria_origen":"Zona de Amortiguacion","nombre":null,"area_ha":5.5339}}]}