{"type":"FeatureCollection","features":[{"type":"Feature","id":0,"geometry":{"type":"Polygon","coordinates":[[[-75.09694,5.46244],[-75.09481,5.46073],[-75.0922,5.45944],[-75.09131,5.45851],[-75.09024,5.45688],[-75.08943,5.4561],[-75.08888,5.45498],[-75.08584,5.45222],[-75.08503,5.45183],[-75.08726,5.4511],[-75.08875,5.4511],[-75.09139,5.44889],[-75.0897,5.44807],[-75.08807,5.44665],[-75.08724,5.44631],[-75.08748,5.44609],[-75.08878,5.44582],[-75.08998,5.44426],[-75.08878,5.44443],[-75.08757,5.44375],[-75.08665,5.44278],[-75.08705,5.4417],[-75.08696,5.43972],[-75.08622,5.43935],[-75.08528,5.43638],[-75.0844,5.43489],[-75.0831,5.43368],[-75.08505,5.43303],[-75.08589,5.43306],[-75.08698,5.43364],[-75.08791,5.4336],[-75.08981,5.43215],[-75.09361,5.43083],[-75.09667,5.43028],[-75.09934,5.42938],[-75.10027,5.42888],[-75.10196,5.42848],[-75.10277,5.42805],[-75.10332,5.42807],[-75.10421,5.42746],[-75.10505,5.42576],[-75.10639,5.42452],[-75.10681,5.42181],[-75.10895,5.42281],[-75.11104,5.42273],[-75.11359,5.42421],[-75.115,5.42417],[-75.11556,5.42388],[-75.11642,5.42474],[-75.11835,5.42471],[-75.11984,5.42549],[-75.12568,5.42589],[-75.12722,5.42695],[-75.12999,5.42778],[-75.13243,5.42812],[-75.13361,5.42721],[-75.13398,5.42741],[-75.13376,5.42698],[-75.13486,5.42514],[-75.13556,5.42527],[-75.13672,5.42588],[-75.13748,5.42667],[-75.14111,5.4275],[-75.14174,5.42782],[-75.14513,5.42779],[-75.14639,5.42694],[-75.14709,5.42696],[-75.14805,5.42823],[-75.14662,5.43034],[-75.14585,5.43108],[-75.145,5.4325],[-75.14441,5.43307],[-75.1436,5.43305],[-75.14304,5.43363],[-75.14194,5.43416],[-75.14075,5.4354],[-75.13917,5.43861],[-75.13805,5.44],[-75.13769,5.44187],[-75.13679,5.44391],[-75.13549,5.44476],[-75.13473,5.44556],[-75.13244,5.44593],[-75.13194,5.44696],[-75.13041,5.4477],[-75.12924,5.44949],[-75.12878,5.45091],[-75.12748,5.45252],[-75.12751,5.45442],[-75.12673,5.45636],[-75.12508,5.45794],[-75.12351,5.45845],[-75.12078,5.46081],[-75.11973,5.45972],[-75.11806,5.45863],[-75.1175,5.45777],[-75.11692,5.45749],[-75.11618,5.45751],[-75.11308,5.45969],[-75.11256,5.46023],[-75.1094,5.45945],[-75.10749,5.4601],[-75.10472,5.46055],[-75.10319,5.46131],[-75.10056,5.46195],[-75.10025,5.46194],[-75.09867,5.46113],[-75.09694,5.46244]]]},"properties":{"nombre":"Quebrada Santa Rosa","area_ha":1929.9989}}]}