{"type":"FeatureCollection","features":[{"type":"Feature","id":0,"geometry":{"type":"Polygon","coordinates":[[[-75.09847,5.43681],[-75.09973,5.43693],[-75.10096,5.4378],[-75.10334,5.43792],[-75.10471,5.4389],[-75.10687,5.43923],[-75.1128,5.4384],[-75.11527,5.43945],[-75.1164,5.43971],[-75.11777,5.44029],[-75.11918,5.44055],[-75.12029,5.4411],[-75.12055,5.44177],[-75.11973,5.44322],[-75.11715,5.44252],[-75.11544,5.44413],[-75.11431,5.44447],[-75.11323,5.44508],[-75.11208,5.44466],[-75.11034,5.4448],[-75.10931,5.44537],[-75.10795,5.44526],[-75.10639,5.44612],[-75.10423,5.44573],[-75.10338,5.44672],[-75.10213,5.44721],[-75.10084,5.44555],[-75.09754,5.44283],[-75.09494,5.44205],[-75.09362,5.44279],[-75.09239,5.44307],[-75.09064,5.44405],[-75.08878,5.44443],[-75.08757,5.44375],[-75.08665,5.44278],[-75.08705,5.4417],[-75.08696,5.43965],[-75.08879,5.4389],[-75.09204,5.43979],[-75.09474,5.43911],[-75.09673,5.43755],[-75.09822,5.4371],[-75.09847,5.43681]]]},"properties":{"nombre":"Quebrada Santa Teresa","area_ha":222.6631}},{"type":"Feature","id":1,"geometry":{"type":"Polygon","coordinates":[[[-75.13486,5.42514],[-75.13556,5.42527],[-75.13672,5.42588],[-75.13748,5.42667],[-75.14111,5.4275],[-75.14174,5.42782],[-75.14513,5.42779],[-75.14639,5.42694],[-75.14709,5.42696],[-75.14805,5.42823],[-75.14662,5.43034],[-75.14585,5.43108],[-75.145,5.4325],[-75.14441,5.43307],[-75.1436,5.43305],[-75.14304,5.43363],[-75.14194,5.43416],[-75.14075,5.4354],[-75.13917,5.43861],[-75.13805,5.44],[-75.13769,5.44187],[-75.13679,5.44391],[-75.13549,5.44476],[-75.13473,5.44556],[-75.13244,5.44593],[-75.13194,5.44696],[-75.13041,5.4477],[-75.12924,5.44949],[-75.12878,5.45091],[-75.12748,5.45252],[-75.12751,5.45442],[-75.12673,5.45636],[-75.12508,5.45794],[-75.12351,5.45845],[-75.12078,5.46081],[-75.11973,5.45972],[-75.11806,5.45863],[-75.1175,5.45777],[-75.11692,5.45749],[-75.11618,5.45751],[-75.11308,5.45969],[-75.11256,5.46023],[-75.1094,5.45945],[-75.10749,5.4601],[-75.10472,5.46055],[-75.10319,5.46131],[-75.10056,5.46195],[-75.10025,5.46194],[-75.09867,5.46113],[-75.09694,5.46244],[-75.09481,5.46073],[-75.0922,5.45944],[-75.09131,5.45851],[-75.09024,5.45688],[-75.08943,5.4561],[-75.08888,5.45498],[-75.08584,5.45222],[-75.08503,5.45183],[-75.08726,5.4511],[-75.08875,5.4511],[-75.09139,5.44889],[-75.09201,5.44858],[-75.0939,5.44862],[-75.095,5.44805],[-75.09782,5.44749],[-75.10016,5.44753],[-75.10311,5.44693],[-75.10424,5.44575],[-75.10639,5.44611],[-75.10802,5.44527],[-75.1094,5.4453],[-75.11,5.445],[-75.11177,5.44456],[-75.11322,5.44506],[-75.11528,5.44417],[-75.11716,5.44255],[-75.11961,5.44317],[-75.12016,5.44261],[-75.12056,5.44137],[-75.12163,5.44029],[-75.12253,5.43971],[-75.12468,5.43752],[-75.12533,5.4372],[-75.12751,5.43725],[-75.1299,5.43477],[-75.13114,5.43417],[-75.13197,5.4333],[-75.13305,5.43083],[-75.13363,5.42998],[-75.13428,5.42798],[-75.13376,5.42698],[-75.13486,5.42514]]]},"properties":{"nombre":"Quebrada Santa Rosa","area_ha":989.9215}},{"type":"Feature","id":2,"geometry":{"type":"Polygon","coordinates":[[[-75.10681,5.42181],[-75.10895,5.42281],[-75.11104,5.42273],[-75.11359,5.42421],[-75.115,5.42417],[-75.11556,5.42388],[-75.11642,5.42474],[-75.11835,5.42471],[-75.11984,5.42549],[-75.12568,5.42589],[-75.12722,5.42695],[-75.12999,5.42778],[-75.13243,5.42812],[-75.13361,5.42721],[-75.13428,5.42757],[-75.13383,5.42969],[-75.13305,5.43083],[-75.13278,5.43167],[-75.13161,5.43396],[-75.12981,5.4348],[-75.12752,5.43727],[-75.12491,5.43724],[-75.12256,5.43969],[-75.12161,5.44031],[-75.12081,5.44113],[-75.12022,5.4411],[-75.11917,5.44055],[-75.11777,5.44028],[-75.11527,5.43945],[-75.11307,5.43838],[-75.1071,5.43919],[-75.10503,5.43911],[-75.10354,5.43808],[-75.10096,5.43779],[-75.09935,5.43668],[-75.09675,5.43755],[-75.09473,5.43911],[-75.09206,5.43977],[-75.08954,5.43911],[-75.08799,5.43917],[-75.08694,5.43973],[-75.08622,5.43935],[-75.08528,5.43638],[-75.0844,5.43489],[-75.0831,5.43368],[-75.08505,5.43303],[-75.08589,5.43306],[-75.08698,5.43364],[-75.08791,5.4336],[-75.08981,5.43215],[-75.09361,5.43083],[-75.09667,5.43028],[-75.09934,5.42938],[-75.10027,5.42888],[-75.10196,5.42848],[-75.10277,5.42805],[-75.10332,5.42807],[-75.10421,5.42746],[-75.10505,5.42576],[-75.10639,5.42452],[-75.10681,5.42181]]]},"properties":{"nombre":"Quebrada la Cristalina","area_ha":647.9614}},{"type":"Feature","id":3,"geometry":{"type":"Polygon","coordinates":[[[-75.09458,5.44208],[-75.0963,5.44237],[-75.09769,5.44294],[-75.10087,5.44555],[-75.10193,5.44698],[-75.10161,5.44732],[-75.09944,5.44764],[-75.09796,5.44742],[-75.09498,5.44804],[-75.09392,5.44868],[-75.09278,5.44851],[-75.09104,5.44877],[-75.0897,5.44807],[-75.08807,5.44665],[-75.08724,5.44631],[-75.08748,5.44609],[-75.08878,5.44582],[-75.08998,5.44426],[-75.09234,5.44307],[-75.09379,5.44276],[-75.09458,5.44208]]]},"properties":{"nombre":"Quebrada Honda","area_ha":69.9696}}]}