{"type":"FeatureCollection","features":[{"type":"Feature","id":0,"geometry":{"type":"MultiLineString","coordinates":[[[-75.13583,5.42625],[-75.13583,5.42694],[-75.13528,5.42778]],[[-75.13542,5.42708],[-75.135,5.4275],[-75.13528,5.42778]],[[-75.13639,5.42708],[-75.13611,5.42917],[-75.13556,5.42972]],[[-75.13819,5.42764],[-75.13778,5.42806],[-75.13778,5.42861],[-75.13722,5.42889]],[[-75.13528,5.42778],[-75.13556,5.42972]],[[-75.14611,5.42806],[-75.14472,5.42889]],[[-75.14653,5.42806],[-75.14611,5.42806]],[[-75.13694,5.42819],[-75.13694,5.42889]],[[-75.14014,5.42819],[-75.13944,5.42889],[-75.13861,5.42917]],[[-75.13806,5.42847],[-75.13806,5.42889],[-75.13722,5.42889]],[[-75.14653,5.42847],[-75.14611,5.42806]],[[-75.14597,5.42861],[-75.14472,5.42889]],[[-75.13694,5.42889],[-75.13611,5.43]],[[-75.13722,5.42889],[-75.13694,5.42889]],[[-75.14472,5.42889],[-75.14444,5.42917]],[[-75.1375,5.42917],[-75.13694,5.42889]],[[-75.13861,5.42917],[-75.1375,5.42917]],[[-75.14278,5.42917],[-75.1425,5.42944],[-75.14194,5.42917],[-75.14167,5.42944]],[[-75.14444,5.42917],[-75.14417,5.42944]],[[-75.14514,5.42917],[-75.14444,5.42917]],[[-75.13486,5.42944],[-75.13528,5.42944],[-75.135,5.43083]],[[-75.13889,5.42944],[-75.13861,5.42917]],[[-75.14167,5.42944],[-75.14083,5.42944],[-75.14056,5.42972]],[[-75.14417,5.42944],[-75.14278,5.42917]],[[-75.13792,5.42958],[-75.1375,5.42917]],[[-75.13556,5.42972],[-75.13556,5.43028]],[[-75.13972,5.42972],[-75.13889,5.42944]],[[-75.14056,5.42972],[-75.13972,5.42972]],[[-75.14083,5.42972],[-75.14056,5.42972]],[[-75.14458,5.42986],[-75.14417,5.42944]],[[-75.13611,5.43],[-75.13556,5.43028]],[[-75.14,5.43],[-75.13972,5.42972]],[[-75.14042,5.43],[-75.14,5.43]],[[-75.14125,5.43014],[-75.14083,5.42972]],[[-75.14208,5.43014],[-75.14167,5.42944]],[[-75.13556,5.43028],[-75.135,5.43083]],[[-75.13917,5.43028],[-75.13889,5.42944]],[[-75.13917,5.43069],[-75.13917,5.43028]],[[-75.14,5.43069],[-75.14,5.43]],[[-75.135,5.43083],[-75.13444,5.43167]],[[-75.13444,5.43097],[-75.13444,5.43167]],[[-75.14236,5.43097],[-75.14083,5.42972]],[[-75.13403,5.43125],[-75.13444,5.43167]],[[-75.13819,5.43139],[-75.13667,5.43083],[-75.13611,5.43]],[[-75.13514,5.43153],[-75.13444,5.43194]],[[-75.13444,5.43167],[-75.13444,5.43194]],[[-75.13444,5.43194],[-75.13361,5.43306]],[[-75.14444,5.43208],[-75.14444,5.43167],[-75.14361,5.43083],[-75.14361,5.43028],[-75.14278,5.42917]],[[-75.14111,5.43222],[-75.13972,5.43111],[-75.13917,5.43028]],[[-75.13569,5.4325],[-75.13417,5.43278]],[[-75.13417,5.43278],[-75.13389,5.43306]],[[-75.13361,5.43306],[-75.13306,5.43361]],[[-75.13389,5.43306],[-75.13361,5.43306]],[[-75.13458,5.43306],[-75.13389,5.43306]],[[-75.13306,5.43319],[-75.13306,5.43361]],[[-75.14181,5.43319],[-75.14111,5.43222]],[[-75.14236,5.43319],[-75.14111,5.43222]],[[-75.13944,5.43333],[-75.13806,5.43222],[-75.13722,5.43222],[-75.13639,5.43167],[-75.13472,5.43222],[-75.13417,5.43278]],[[-75.13986,5.43333],[-75.13944,5.43333]],[[-75.13306,5.43361],[-75.13278,5.43444]],[[-75.13736,5.43375],[-75.13694,5.43444]],[[-75.13792,5.43389],[-75.1375,5.43389],[-75.13694,5.43444]],[[-75.13167,5.43403],[-75.13139,5.435]],[[-75.14042,5.43431],[-75.13944,5.43333]],[[-75.13278,5.43444],[-75.13139,5.435]],[[-75.13375,5.43444],[-75.13278,5.43444]],[[-75.13694,5.43444],[-75.13639,5.435]],[[-75.13639,5.43458],[-75.13639,5.435]],[[-75.13847,5.43458],[-75.13667,5.43611]],[[-75.13139,5.435],[-75.13083,5.43556]],[[-75.13639,5.435],[-75.13583,5.43583]],[[-75.13958,5.435],[-75.13806,5.43528],[-75.13722,5.43611],[-75.13667,5.43611]],[[-75.13653,5.43542],[-75.13611,5.43583]],[[-75.13042,5.43556],[-75.13083,5.43556]],[[-75.13083,5.43556],[-75.13028,5.43611],[-75.13056,5.43639],[-75.13028,5.43694]],[[-75.13514,5.43569],[-75.13472,5.43611]],[[-75.13583,5.43583],[-75.135,5.43611]],[[-75.13611,5.43583],[-75.13583,5.43583]],[[-75.13319,5.43597],[-75.1325,5.43667]],[[-75.13472,5.43611],[-75.13389,5.43667],[-75.13306,5.43667]],[[-75.135,5.43611],[-75.13472,5.43611]],[[-75.13667,5.43611],[-75.13611,5.43583]],[[-75.13611,5.43639],[-75.13583,5.43611],[-75.135,5.43611]],[[-75.13694,5.43639],[-75.13611,5.43639]],[[-75.1375,5.43639],[-75.13694,5.43639]],[[-75.13792,5.43639],[-75.1375,5.43639]],[[-75.13,5.43653],[-75.13,5.43722]],[[-75.1325,5.43667],[-75.13167,5.43722],[-75.13028,5.43694]],[[-75.13306,5.43667],[-75.1325,5.43667]],[[-75.13903,5.43667],[-75.13778,5.43667],[-75.1375,5.43639]],[[-75.13653,5.43681],[-75.13611,5.43639]],[[-75.13028,5.43694],[-75.13,5.43722]],[[-75.12931,5.43708],[-75.12972,5.4375]],[[-75.13347,5.43708],[-75.13306,5.43667]],[[-75.13,5.43722],[-75.12972,5.4375]],[[-75.12972,5.4375],[-75.12944,5.43889]],[[-75.13847,5.43764],[-75.13694,5.43639]],[[-75.12861,5.43792],[-75.12889,5.43861],[-75.12861,5.44]],[[-75.13264,5.43792],[-75.13139,5.43889]],[[-75.12528,5.43819],[-75.12528,5.44],[-75.12556,5.44028]],[[-75.13014,5.43819],[-75.12944,5.43889]],[[-75.13639,5.43833],[-75.13583,5.43861]],[[-75.13708,5.43833],[-75.13639,5.43833]],[[-75.13583,5.43861],[-75.13417,5.43833],[-75.13306,5.43917]],[[-75.12667,5.43875],[-75.12667,5.43917],[-75.12556,5.44028]],[[-75.13347,5.43875],[-75.13306,5.43917]],[[-75.12944,5.43889],[-75.12917,5.43944]],[[-75.13139,5.43889],[-75.12944,5.43944]],[[-75.13653,5.43903],[-75.13583,5.43861]],[[-75.13736,5.43903],[-75.13639,5.43833]],[[-75.13306,5.43917],[-75.13278,5.43889],[-75.13222,5.43917],[-75.13139,5.43889]],[[-75.12917,5.43944],[-75.12861,5.44]],[[-75.12944,5.43944],[-75.12917,5.43944]],[[-75.12458,5.43958],[-75.12556,5.44083]],[[-75.13056,5.43972],[-75.12944,5.43944]],[[-75.12556,5.43986],[-75.12556,5.44028]],[[-75.12958,5.43986],[-75.12917,5.43944]],[[-75.12861,5.44],[-75.12806,5.44083]],[[-75.13167,5.44],[-75.13056,5.43972]],[[-75.13222,5.44],[-75.13167,5.44]],[[-75.12556,5.44028],[-75.12556,5.44083]],[[-75.13472,5.44056],[-75.13389,5.44056],[-75.13333,5.44],[-75.13222,5.44]],[[-75.13556,5.44056],[-75.13472,5.44056]],[[-75.12292,5.44069],[-75.12361,5.44139],[-75.12361,5.44333],[-75.12333,5.44361]],[[-75.13236,5.44069],[-75.13167,5.44]],[[-75.13292,5.44069],[-75.13222,5.44]],[[-75.12556,5.44083],[-75.12556,5.44111]],[[-75.12806,5.44083],[-75.12722,5.44056],[-75.12556,5.44111]],[[-75.13542,5.44083],[-75.13472,5.44056]],[[-75.13639,5.44083],[-75.13556,5.44056]],[[-75.13708,5.44083],[-75.13639,5.44083]],[[-75.13597,5.44097],[-75.13556,5.44056]],[[-75.12556,5.44111],[-75.12528,5.4425]],[[-75.13681,5.44125],[-75.13639,5.44083]],[[-75.12236,5.44139],[-75.12333,5.44167],[-75.12333,5.44361]],[[-75.12917,5.44139],[-75.12861,5.44083],[-75.12806,5.44083]],[[-75.12958,5.44139],[-75.12917,5.44139]],[[-75.13167,5.44167],[-75.13167,5.44111],[-75.13056,5.43972]],[[-75.13208,5.44167],[-75.13167,5.44167]],[[-75.12917,5.44181],[-75.12917,5.44139]],[[-75.12167,5.44208],[-75.12167,5.4425],[-75.12306,5.44361],[-75.12306,5.44389]],[[-75.12764,5.44208],[-75.12694,5.4425]],[[-75.12486,5.4425],[-75.12528,5.4425]],[[-75.12528,5.4425],[-75.12528,5.44278]],[[-75.12694,5.4425],[-75.12667,5.44222],[-75.12556,5.44278]],[[-75.12528,5.44278],[-75.125,5.44306]],[[-75.12556,5.44278],[-75.12528,5.44278]],[[-75.125,5.44306],[-75.12444,5.44361],[-75.12389,5.44361]],[[-75.13111,5.44306],[-75.12917,5.44139]],[[-75.13444,5.44306],[-75.1325,5.44278],[-75.13167,5.44167]],[[-75.13472,5.44306],[-75.13444,5.44306]],[[-75.13514,5.44306],[-75.13472,5.44306]],[[-75.12181,5.44319],[-75.12278,5.44417]],[[-75.12556,5.44319],[-75.12556,5.44278]],[[-75.12097,5.44333],[-75.12167,5.44333],[-75.12222,5.44389]],[[-75.12833,5.44333],[-75.12694,5.4425]],[[-75.12875,5.44333],[-75.12833,5.44333]],[[-75.13486,5.44347],[-75.13444,5.44306]],[[-75.13514,5.44347],[-75.13472,5.44306]],[[-75.12333,5.44361],[-75.12306,5.44389]],[[-75.12389,5.44361],[-75.12333,5.44361]],[[-75.12556,5.44361],[-75.12528,5.44306],[-75.125,5.44306]],[[-75.12861,5.44361],[-75.12833,5.44333]],[[-75.11764,5.44375],[-75.11667,5.44444],[-75.11556,5.44583]],[[-75.12181,5.44389],[-75.12222,5.44389]],[[-75.12222,5.44389],[-75.1225,5.44417]],[[-75.12306,5.44389],[-75.12306,5.44444]],[[-75.12514,5.44389],[-75.12417,5.44389],[-75.12389,5.44361]],[[-75.11653,5.44403],[-75.11583,5.44472],[-75.11556,5.44583]],[[-75.12625,5.44403],[-75.12556,5.44361]],[[-75.12153,5.44417],[-75.1225,5.44417]],[[-75.1225,5.44417],[-75.12278,5.44417]],[[-75.12278,5.44417],[-75.12306,5.44444]],[[-75.12597,5.44431],[-75.125,5.44306]],[[-75.12986,5.44431],[-75.12917,5.44361],[-75.12861,5.44361]],[[-75.13194,5.44431],[-75.13194,5.44389],[-75.13111,5.44306]],[[-75.12306,5.44444],[-75.12278,5.44583]],[[-75.13306,5.44444],[-75.13111,5.44306]],[[-75.13403,5.44444],[-75.13306,5.44444]],[[-75.12819,5.44458],[-75.12778,5.445]],[[-75.13375,5.44472],[-75.13306,5.44444]],[[-75.1275,5.445],[-75.12667,5.44472],[-75.12556,5.44361]],[[-75.12778,5.445],[-75.1275,5.445]],[[-75.12097,5.44528],[-75.12167,5.44528],[-75.12278,5.44583]],[[-75.13069,5.44528],[-75.12944,5.44472],[-75.12861,5.44361]],[[-75.11792,5.44542],[-75.11722,5.44611]],[[-75.11819,5.44542],[-75.11722,5.44611]],[[-75.11875,5.44542],[-75.11639,5.44806]],[[-75.12458,5.44542],[-75.12417,5.44583],[-75.12306,5.44583],[-75.12278,5.44611]],[[-75.12792,5.44542],[-75.1275,5.445]],[[-75.12903,5.44542],[-75.12861,5.445],[-75.12778,5.445]],[[-75.11153,5.44569],[-75.11056,5.44667]],[[-75.11444,5.44569],[-75.11444,5.44722],[-75.11472,5.44778]],[[-75.11708,5.44569],[-75.11583,5.44694]],[[-75.11556,5.44583],[-75.115,5.4475]],[[-75.12278,5.44583],[-75.12278,5.44611]],[[-75.11722,5.44611],[-75.11583,5.44694]],[[-75.12278,5.44611],[-75.12278,5.44694]],[[-75.11056,5.44625],[-75.11056,5.44667]],[[-75.13097,5.44639],[-75.13,5.44667],[-75.12861,5.44778]],[[-75.10917,5.44653],[-75.10917,5.44944],[-75.10889,5.44972]],[[-75.10931,5.44653],[-75.10972,5.44722]],[[-75.11,5.44653],[-75.11,5.44694]],[[-75.11181,5.44653],[-75.11083,5.4475],[-75.11,5.4475]],[[-75.11056,5.44667],[-75.11,5.44694]],[[-75.12653,5.44667],[-75.12306,5.44639],[-75.12278,5.44694]],[[-75.10528,5.44681],[-75.10528,5.4475]],[[-75.10736,5.44681],[-75.10806,5.4475],[-75.10806,5.44806],[-75.10889,5.44917]],[[-75.115,5.44681],[-75.115,5.4475]],[[-75.12167,5.44681],[-75.12167,5.44722],[-75.12222,5.44778]],[[-75.11,5.44694],[-75.10972,5.44722]],[[-75.11583,5.44694],[-75.115,5.44778]],[[-75.12278,5.44694],[-75.12222,5.44778]],[[-75.10569,5.44708],[-75.10528,5.4475]],[[-75.10722,5.44708],[-75.10722,5.44833],[-75.10833,5.44972]],[[-75.12819,5.44708],[-75.12722,5.44833]],[[-75.10972,5.44722],[-75.10944,5.44806]],[[-75.11069,5.44722],[-75.11,5.4475]],[[-75.12125,5.44736],[-75.12194,5.44806],[-75.12194,5.44861]],[[-75.10528,5.4475],[-75.10583,5.44917]],[[-75.11,5.4475],[-75.10944,5.44806]],[[-75.115,5.4475],[-75.11472,5.44778]],[[-75.11708,5.44764],[-75.11667,5.44806]],[[-75.12292,5.44764],[-75.12222,5.44833]],[[-75.12792,5.44764],[-75.12722,5.44833]],[[-75.11472,5.44778],[-75.11444,5.44833]],[[-75.115,5.44778],[-75.11444,5.44833]],[[-75.11597,5.44778],[-75.115,5.44778]],[[-75.12222,5.44778],[-75.12222,5.44833]],[[-75.12861,5.44778],[-75.12806,5.44806]],[[-75.1125,5.44792],[-75.11194,5.44917]],[[-75.11903,5.44792],[-75.11639,5.45056]],[[-75.12111,5.44792],[-75.12111,5.44889],[-75.12139,5.44917]],[[-75.10944,5.44806],[-75.10944,5.44972]],[[-75.11639,5.44806],[-75.11583,5.44861],[-75.115,5.44861],[-75.11389,5.44944]],[[-75.11667,5.44806],[-75.11639,5.44806]],[[-75.11792,5.44806],[-75.11667,5.44806]],[[-75.12806,5.44806],[-75.12722,5.44833]],[[-75.12847,5.44806],[-75.12806,5.44806]],[[-75.11194,5.44819],[-75.11194,5.44917]],[[-75.12681,5.44819],[-75.12639,5.44861]],[[-75.12931,5.44819],[-75.12861,5.44778]],[[-75.11444,5.44833],[-75.11389,5.44944]],[[-75.12222,5.44833],[-75.12194,5.44861]],[[-75.12722,5.44833],[-75.12639,5.44861]],[[-75.1,5.44847],[-75.1,5.44889],[-75.09861,5.45028],[-75.09833,5.45111]],[[-75.10514,5.44847],[-75.10583,5.44917]],[[-75.12514,5.44847],[-75.12472,5.44889],[-75.12472,5.44944]],[[-75.11278,5.44861],[-75.11306,5.44889],[-75.11222,5.44972]],[[-75.12194,5.44861],[-75.12167,5.44917]],[[-75.12639,5.44861],[-75.12556,5.44944]],[[-75.10486,5.44875],[-75.10556,5.44944]],[[-75.10889,5.44875],[-75.10889,5.44917]],[[-75.11333,5.44875],[-75.11333,5.44917],[-75.11278,5.44972]],[[-75.12542,5.44875],[-75.12472,5.44944]],[[-75.12347,5.44889],[-75.12278,5.44917]],[[-75.09708,5.44903],[-75.09528,5.45056]],[[-75.10736,5.44903],[-75.10778,5.44944]],[[-75.12069,5.44903],[-75.12111,5.44944]],[[-75.10347,5.44917],[-75.10472,5.44944],[-75.10528,5.45028]],[[-75.10583,5.44917],[-75.10556,5.44944]],[[-75.10889,5.44917],[-75.10861,5.44972]],[[-75.11194,5.44917],[-75.11167,5.44972]],[[-75.12139,5.44917],[-75.12111,5.44944]],[[-75.12167,5.44917],[-75.12139,5.44917]],[[-75.12278,5.44917],[-75.12167,5.44917]],[[-75.09472,5.44931],[-75.09472,5.44972],[-75.09361,5.45111]],[[-75.09625,5.44931],[-75.095,5.45056]],[[-75.09806,5.44931],[-75.09806,5.45139]],[[-75.1,5.44931],[-75.10028,5.45028]],[[-75.10556,5.44944],[-75.10528,5.45028]],[[-75.10736,5.44944],[-75.10778,5.44944]],[[-75.10778,5.44944],[-75.10833,5.44972]],[[-75.11389,5.44944],[-75.11361,5.44972]],[[-75.12111,5.44944],[-75.12111,5.45],[-75.12056,5.45028],[-75.12056,5.45056]],[[-75.12472,5.44944],[-75.12444,5.44972]],[[-75.12528,5.44944],[-75.12472,5.44944]],[[-75.12556,5.44944],[-75.12528,5.44944]],[[-75.12653,5.44944],[-75.12556,5.44944]],[[-75.09181,5.44958],[-75.09083,5.45083]],[[-75.09903,5.44958],[-75.09833,5.45028],[-75.09833,5.45111]],[[-75.11875,5.44958],[-75.11722,5.45139]],[[-75.10833,5.44972],[-75.10833,5.45]],[[-75.10861,5.44972],[-75.10833,5.45]],[[-75.10889,5.44972],[-75.10861,5.44972]],[[-75.10944,5.44972],[-75.10889,5.44972]],[[-75.11167,5.44972],[-75.11083,5.44972],[-75.11056,5.45]],[[-75.11222,5.44972],[-75.11167,5.44972]],[[-75.11278,5.44972],[-75.1125,5.45]],[[-75.11361,5.44972],[-75.11278,5.44972]],[[-75.12444,5.44972],[-75.12278,5.44917]],[[-75.09097,5.44986],[-75.09056,5.45028],[-75.09056,5.45111]],[[-75.09208,5.44986],[-75.09083,5.45083]],[[-75.10069,5.44986],[-75.10028,5.45028]],[[-75.12764,5.44986],[-75.12722,5.45028]],[[-75.10833,5.45],[-75.10833,5.45083]],[[-75.11056,5.45],[-75.10972,5.44944],[-75.10944,5.44972]],[[-75.1125,5.45],[-75.11222,5.44972]],[[-75.10306,5.45014],[-75.10306,5.45056],[-75.10361,5.45111],[-75.10389,5.4525]],[[-75.11639,5.45014],[-75.11639,5.45056]],[[-75.10028,5.45028],[-75.1,5.45222]],[[-75.10528,5.45028],[-75.10528,5.45167]],[[-75.11167,5.45028],[-75.11167,5.45],[-75.11056,5.45]],[[-75.11444,5.45028],[-75.11361,5.44972]],[[-75.11472,5.45028],[-75.11444,5.45028]],[[-75.12611,5.45028],[-75.12528,5.44944]],[[-75.12722,5.45028],[-75.12611,5.45028]],[[-75.12764,5.45028],[-75.12722,5.45028]],[[-75.10056,5.45042],[-75.1,5.45222]],[[-75.10778,5.45042],[-75.10778,5.45083]],[[-75.09472,5.45056],[-75.09361,5.45139]],[[-75.095,5.45056],[-75.09333,5.45167]],[[-75.09528,5.45056],[-75.095,5.45056]],[[-75.09569,5.45056],[-75.09528,5.45056]],[[-75.11333,5.45056],[-75.1125,5.45]],[[-75.11639,5.45056],[-75.11611,5.45083]],[[-75.11681,5.45056],[-75.11639,5.45056]],[[-75.12056,5.45056],[-75.12028,5.45083]],[[-75.12736,5.45056],[-75.12639,5.45056],[-75.12611,5.45028]],[[-75.09403,5.45069],[-75.09361,5.45111]],[[-75.1075,5.45069],[-75.1075,5.45111]],[[-75.11208,5.45069],[-75.11167,5.45028]],[[-75.11486,5.45069],[-75.11444,5.45028]],[[-75.12514,5.45069],[-75.12444,5.44972]],[[-75.09083,5.45083],[-75.09056,5.45111]],[[-75.10778,5.45083],[-75.1075,5.45111]],[[-75.10833,5.45083],[-75.10778,5.45083]],[[-75.11611,5.45083],[-75.11556,5.45028],[-75.11472,5.45028]],[[-75.12028,5.45083],[-75.11972,5.45139],[-75.11889,5.45139]],[[-75.12056,5.45083],[-75.12028,5.45083]],[[-75.12181,5.45083],[-75.12056,5.45083]],[[-75.10389,5.45097],[-75.10417,5.45167],[-75.10389,5.4525]],[[-75.10556,5.45097],[-75.10528,5.45167]],[[-75.11931,5.45097],[-75.11889,5.45139]],[[-75.12653,5.45097],[-75.12472,5.44944]],[[-75.09056,5.45111],[-75.09028,5.45194]],[[-75.09361,5.45111],[-75.09361,5.45139]],[[-75.09833,5.45111],[-75.09806,5.45139]],[[-75.1075,5.45111],[-75.10639,5.45222],[-75.10583,5.45222],[-75.10583,5.4525]],[[-75.10792,5.45111],[-75.1075,5.45111]],[[-75.09097,5.45125],[-75.09028,5.45194]],[[-75.09694,5.45125],[-75.09694,5.45167],[-75.09556,5.45306]],[[-75.11167,5.45125],[-75.11167,5.45028]],[[-75.09361,5.45139],[-75.09333,5.45167]],[[-75.09806,5.45139],[-75.09639,5.45361]],[[-75.10931,5.45139],[-75.10833,5.45111],[-75.10833,5.45083]],[[-75.11722,5.45139],[-75.11694,5.45167]],[[-75.11889,5.45139],[-75.11806,5.45167]],[[-75.09014,5.45153],[-75.08972,5.45194],[-75.08972,5.4525]],[[-75.10139,5.45153],[-75.10139,5.45222],[-75.09944,5.45389]],[[-75.10222,5.45153],[-75.10222,5.45306],[-75.10194,5.45361]],[[-75.11583,5.45153],[-75.11583,5.45111],[-75.11472,5.45028]],[[-75.12097,5.45153],[-75.12056,5.45083]],[[-75.12458,5.45153],[-75.12278,5.45028],[-75.12056,5.45056]],[[-75.09333,5.45167],[-75.0925,5.4525]],[[-75.10528,5.45167],[-75.10417,5.4525]],[[-75.11694,5.45167],[-75.11639,5.45083],[-75.11611,5.45083]],[[-75.11806,5.45167],[-75.11722,5.45139]],[[-75.09292,5.45181],[-75.0925,5.4525]],[[-75.10167,5.45181],[-75.10167,5.45361]],[[-75.10278,5.45181],[-75.10278,5.45306],[-75.10194,5.45361]],[[-75.09028,5.45194],[-75.08972,5.4525]],[[-75.1175,5.45194],[-75.11694,5.45167]],[[-75.12111,5.45194],[-75.11944,5.45194],[-75.11889,5.45139]],[[-75.12167,5.45194],[-75.12111,5.45194]],[[-75.09222,5.45208],[-75.09194,5.45278]],[[-75.09597,5.45208],[-75.09556,5.4525],[-75.09556,5.45306]],[[-75.09833,5.45208],[-75.09833,5.45306],[-75.09778,5.45361]],[[-75.1,5.45222],[-75.09972,5.45278]],[[-75.12194,5.45222],[-75.12167,5.45194]],[[-75.09528,5.45236],[-75.09528,5.45278],[-75.09472,5.45333]],[[-75.09972,5.45236],[-75.09972,5.45278]],[[-75.12153,5.45236],[-75.12111,5.45194]],[[-75.08972,5.4525],[-75.08917,5.45306]],[[-75.0925,5.4525],[-75.09222,5.45278]],[[-75.10389,5.4525],[-75.10361,5.45278]],[[-75.10417,5.4525],[-75.10361,5.45278]],[[-75.10556,5.4525],[-75.105,5.45222],[-75.10417,5.4525]],[[-75.10583,5.4525],[-75.10556,5.4525]],[[-75.11944,5.4525],[-75.11889,5.45167],[-75.11806,5.45167]],[[-75.12569,5.4525],[-75.125,5.4525],[-75.12444,5.45194],[-75.12167,5.45194]],[[-75.11333,5.45264],[-75.11333,5.45056]],[[-75.12236,5.45264],[-75.12194,5.45222]],[[-75.09194,5.45278],[-75.09083,5.45333]],[[-75.09222,5.45278],[-75.09194,5.45278]],[[-75.09972,5.45278],[-75.09889,5.45389]],[[-75.10361,5.45278],[-75.10306,5.45306]],[[-75.12403,5.45278],[-75.12278,5.45222],[-75.12194,5.45222]],[[-75.10014,5.45292],[-75.09917,5.45389]],[[-75.11069,5.45292],[-75.11028,5.45333]],[[-75.11986,5.45292],[-75.11944,5.4525]],[[-75.08917,5.45306],[-75.08806,5.45306],[-75.08639,5.45167],[-75.08611,5.45167],[-75.08611,5.45194],[-75.08583,5.45167],[-75.08516,5.45189]],[[-75.09528,5.45306],[-75.09472,5.45333]],[[-75.09556,5.45306],[-75.09528,5.45306]],[[-75.10306,5.45306],[-75.1025,5.45361]],[[-75.11833,5.45306],[-75.1175,5.45194]],[[-75.09764,5.45319],[-75.09722,5.45361]],[[-75.09,5.45333],[-75.08917,5.45306]],[[-75.09028,5.45333],[-75.09,5.45333]],[[-75.09083,5.45333],[-75.09028,5.45333]],[[-75.09208,5.45333],[-75.09083,5.45333]],[[-75.09417,5.45333],[-75.09361,5.45306],[-75.09361,5.45278],[-75.09333,5.45306],[-75.09306,5.45278],[-75.09222,5.45278]],[[-75.09472,5.45333],[-75.09417,5.45333]],[[-75.11,5.45333],[-75.10889,5.45333],[-75.10861,5.45361]],[[-75.11028,5.45333],[-75.11,5.45333]],[[-75.10069,5.45347],[-75.10028,5.45389]],[[-75.10306,5.45347],[-75.10306,5.45306]],[[-75.11514,5.45347],[-75.11444,5.4525],[-75.11361,5.45194],[-75.11361,5.45083],[-75.11333,5.45056]],[[-75.11833,5.45347],[-75.11833,5.45306]],[[-75.09639,5.45361],[-75.09528,5.45306]],[[-75.09667,5.45361],[-75.09639,5.45361]],[[-75.09722,5.45361],[-75.09667,5.45361]],[[-75.09778,5.45361],[-75.0975,5.45389]],[[-75.10167,5.45361],[-75.10111,5.45389]],[[-75.10194,5.45361],[-75.10167,5.45361]],[[-75.1025,5.45361],[-75.10194,5.45361]],[[-75.10292,5.45361],[-75.1025,5.45361]],[[-75.10528,5.45361],[-75.10556,5.4525]],[[-75.10639,5.45361],[-75.10583,5.45306],[-75.10583,5.4525]],[[-75.10667,5.45361],[-75.10639,5.45361]],[[-75.10861,5.45361],[-75.10833,5.45389]],[[-75.11083,5.45361],[-75.11028,5.45333]],[[-75.11139,5.45361],[-75.11083,5.45361]],[[-75.11208,5.45361],[-75.11139,5.45361]],[[-75.11972,5.45361],[-75.11944,5.4525]],[[-75.09,5.45375],[-75.09,5.45333]],[[-75.09458,5.45375],[-75.09417,5.45333]],[[-75.11,5.45375],[-75.11,5.45333]],[[-75.0975,5.45389],[-75.09722,5.45361]],[[-75.09889,5.45389],[-75.09833,5.45361],[-75.09806,5.45389],[-75.09778,5.45361]],[[-75.09917,5.45389],[-75.09889,5.45389]],[[-75.09944,5.45389],[-75.09917,5.45389]],[[-75.10028,5.45389],[-75.09944,5.45389]],[[-75.10056,5.45389],[-75.10028,5.45389]],[[-75.10111,5.45389],[-75.10056,5.45389]],[[-75.10833,5.45389],[-75.10806,5.45361],[-75.10667,5.45361]],[[-75.11208,5.45389],[-75.11139,5.45361]],[[-75.11972,5.45389],[-75.11972,5.45361]],[[-75.12042,5.45389],[-75.11972,5.45361]],[[-75.10569,5.45403],[-75.10528,5.45361]],[[-75.11722,5.45403],[-75.1175,5.45194]],[[-75.11861,5.45403],[-75.11833,5.45306]],[[-75.12542,5.45403],[-75.12472,5.45472]],[[-75.09917,5.45417],[-75.09889,5.45389]],[[-75.09986,5.45417],[-75.09917,5.45417]],[[-75.105,5.45417],[-75.10528,5.45361]],[[-75.10694,5.45417],[-75.10639,5.45361]],[[-75.11139,5.45417],[-75.11083,5.45361]],[[-75.11222,5.45417],[-75.11139,5.45417]],[[-75.1125,5.45417],[-75.11222,5.45417]],[[-75.11347,5.45417],[-75.1125,5.45417]],[[-75.12625,5.45417],[-75.12583,5.45417],[-75.12528,5.45472]],[[-75.10819,5.45431],[-75.10778,5.45389],[-75.10694,5.45389],[-75.10667,5.45361]],[[-75.12403,5.45431],[-75.12361,5.45472]],[[-75.09667,5.45444],[-75.09639,5.45361]],[[-75.09917,5.45444],[-75.09917,5.45417]],[[-75.12083,5.45444],[-75.12028,5.45444],[-75.11972,5.45389]],[[-75.09764,5.45458],[-75.09667,5.45361]],[[-75.10958,5.45458],[-75.10861,5.45389],[-75.10861,5.45361]],[[-75.11292,5.45458],[-75.1125,5.45417]],[[-75.1075,5.45472],[-75.10694,5.45417]],[[-75.12361,5.45472],[-75.12306,5.455],[-75.12167,5.455]],[[-75.12389,5.45472],[-75.12361,5.45472]],[[-75.12472,5.45472],[-75.12389,5.45472]],[[-75.12528,5.45472],[-75.12472,5.45472]],[[-75.12597,5.45472],[-75.12528,5.45472]],[[-75.09708,5.45486],[-75.09667,5.45444]],[[-75.105,5.45486],[-75.105,5.45417]],[[-75.09972,5.455],[-75.09917,5.45444]],[[-75.10347,5.455],[-75.10306,5.455],[-75.10167,5.45361]],[[-75.10722,5.455],[-75.10694,5.45417]],[[-75.11306,5.455],[-75.11222,5.45417]],[[-75.11514,5.455],[-75.11306,5.455]],[[-75.12167,5.455],[-75.12083,5.45444]],[[-75.09028,5.45514],[-75.09028,5.45333]],[[-75.09667,5.45514],[-75.09667,5.45444]],[[-75.11208,5.45514],[-75.11139,5.45417]],[[-75.12569,5.45514],[-75.12528,5.45472]],[[-75.09194,5.45528],[-75.09083,5.45333]],[[-75.12222,5.45528],[-75.12167,5.455]],[[-75.10236,5.45542],[-75.10111,5.45389]],[[-75.12167,5.45542],[-75.12167,5.455]],[[-75.12486,5.45542],[-75.12389,5.45472]],[[-75.09222,5.45556],[-75.09194,5.45528]],[[-75.09972,5.45556],[-75.09972,5.455]],[[-75.10472,5.45556],[-75.10472,5.45444],[-75.105,5.45417]],[[-75.11361,5.45556],[-75.11306,5.455]],[[-75.11417,5.45556],[-75.11361,5.45556]],[[-75.11569,5.45556],[-75.11417,5.45556]],[[-75.12403,5.45556],[-75.12222,5.45528]],[[-75.10819,5.45569],[-75.1075,5.45472]],[[-75.09222,5.45583],[-75.09222,5.45556]],[[-75.09278,5.45583],[-75.09222,5.45556]],[[-75.09514,5.45583],[-75.09278,5.45583]],[[-75.11972,5.45583],[-75.12,5.455],[-75.11972,5.45389]],[[-75.12278,5.45583],[-75.12222,5.45528]],[[-75.12319,5.45583],[-75.12278,5.45583]],[[-75.09806,5.45611],[-75.09806,5.45472],[-75.0975,5.45389]],[[-75.10778,5.45611],[-75.10778,5.45556],[-75.10722,5.455]],[[-75.11056,5.45611],[-75.10833,5.45389]],[[-75.11514,5.45611],[-75.11472,5.45611],[-75.11417,5.45556]],[[-75.09222,5.45625],[-75.09222,5.45583]],[[-75.10097,5.45625],[-75.09972,5.455]],[[-75.12014,5.45625],[-75.11972,5.45583]],[[-75.09194,5.45639],[-75.09194,5.45528]],[[-75.09486,5.45639],[-75.09333,5.45639],[-75.09278,5.45583]],[[-75.10222,5.45639],[-75.10056,5.45389]],[[-75.11056,5.45639],[-75.11056,5.45611]],[[-75.11125,5.45639],[-75.11056,5.45611]],[[-75.12278,5.45639],[-75.12278,5.45583]],[[-75.09806,5.45653],[-75.09806,5.45611]],[[-75.09944,5.45653],[-75.09944,5.455],[-75.09917,5.45444]],[[-75.11431,5.45653],[-75.11361,5.45556]],[[-75.09306,5.45667],[-75.09222,5.45583]],[[-75.11083,5.45667],[-75.11056,5.45639]],[[-75.11361,5.45667],[-75.11306,5.455]],[[-75.12361,5.45667],[-75.12278,5.45583]],[[-75.12403,5.45667],[-75.12361,5.45667]],[[-75.10722,5.45681],[-75.10722,5.455]],[[-75.11764,5.45681],[-75.11806,5.45639],[-75.11806,5.45583],[-75.11972,5.45389]],[[-75.12278,5.45681],[-75.12278,5.45639]],[[-75.12319,5.45681],[-75.12278,5.45639]],[[-75.09306,5.45694],[-75.09306,5.45667]],[[-75.10528,5.45694],[-75.10472,5.45611],[-75.10472,5.45556]],[[-75.11181,5.45694],[-75.11083,5.45667]],[[-75.12167,5.45694],[-75.12139,5.45528],[-75.12083,5.45444]],[[-75.09167,5.45708],[-75.09194,5.45639]],[[-75.09861,5.45708],[-75.09861,5.45667],[-75.09806,5.45611]],[[-75.10778,5.45708],[-75.10778,5.45611]],[[-75.11403,5.45708],[-75.11361,5.45667]],[[-75.12361,5.45708],[-75.12361,5.45667]],[[-75.10347,5.45722],[-75.10306,5.45722],[-75.10222,5.45639]],[[-75.1,5.45736],[-75.09972,5.45556]],[[-75.10569,5.45736],[-75.10528,5.45694]],[[-75.11111,5.45736],[-75.11083,5.45667]],[[-75.11361,5.45736],[-75.11361,5.45667]],[[-75.09444,5.4575],[-75.09222,5.45556]],[[-75.1025,5.4575],[-75.10222,5.45639]],[[-75.09306,5.45764],[-75.09306,5.45694]],[[-75.12167,5.45764],[-75.12167,5.45694]],[[-75.09333,5.45778],[-75.09306,5.45694]],[[-75.095,5.45778],[-75.09444,5.4575]],[[-75.09528,5.45778],[-75.095,5.45778]],[[-75.12139,5.45778],[-75.12167,5.45694]],[[-75.09431,5.45792],[-75.09306,5.45667]],[[-75.11083,5.45792],[-75.11056,5.45639]],[[-75.09583,5.45806],[-75.09528,5.45778]],[[-75.10556,5.45806],[-75.10528,5.45694]],[[-75.11306,5.45819],[-75.11306,5.4575],[-75.11361,5.45667]],[[-75.09722,5.45833],[-75.09583,5.45806]],[[-75.10139,5.45833],[-75.10056,5.45639],[-75.09972,5.45556]],[[-75.09222,5.45847],[-75.09194,5.45639]],[[-75.09569,5.45847],[-75.095,5.45778]],[[-75.09597,5.45847],[-75.09528,5.45778]],[[-75.10278,5.45847],[-75.1025,5.4575]],[[-75.10347,5.45847],[-75.1025,5.4575]],[[-75.10597,5.45847],[-75.10556,5.45806]],[[-75.10931,5.45847],[-75.10778,5.45611]],[[-75.11889,5.45847],[-75.11972,5.45583]],[[-75.09778,5.45861],[-75.09722,5.45833]],[[-75.09847,5.45861],[-75.09778,5.45861]],[[-75.10139,5.45861],[-75.10139,5.45833]],[[-75.09653,5.45875],[-75.09583,5.45806]],[[-75.09764,5.45875],[-75.09722,5.45833]],[[-75.10708,5.45875],[-75.10667,5.45833],[-75.10667,5.45778],[-75.10472,5.45556]],[[-75.12139,5.45875],[-75.12139,5.45778]],[[-75.10139,5.45903],[-75.10139,5.45861]],[[-75.11083,5.45903],[-75.11056,5.45778],[-75.1075,5.45472]],[[-75.10569,5.45931],[-75.10528,5.45889],[-75.10556,5.45806]],[[-75.10264,5.45958],[-75.10139,5.45833]],[[-75.12069,5.45958],[-75.12111,5.45917],[-75.12111,5.45806],[-75.12139,5.45778]],[[-75.09861,5.45972],[-75.09778,5.45861]],[[-75.09431,5.45986],[-75.09333,5.45889],[-75.09333,5.45778]],[[-75.09625,5.46014],[-75.09528,5.45917],[-75.09528,5.45833],[-75.09444,5.4575]],[[-75.09903,5.46014],[-75.09861,5.45972]],[[-75.09972,5.46028],[-75.09917,5.45972],[-75.09861,5.45972]],[[-75.10222,5.46042],[-75.10194,5.45917],[-75.10139,5.45861]],[[-75.10014,5.46097],[-75.09972,5.46028]],[[-75.10069,5.46097],[-75.09972,5.46028]],[[-75.09653,5.46111],[-75.09611,5.46111],[-75.09361,5.45889],[-75.09361,5.45806],[-75.09333,5.45778]]]},"properties":{"nombre":"Quebrada Santa Rosa","longitud_km":74.1006}}]}