{"type":"FeatureCollection","features":[{"type":"Feature","id":0,"geometry":{"type":"LineString","coordinates":[[-75.09569,5.44722],[-75.09139,5.44694]]},"properties":{"nombre":"Quebrada Honda","longitud_km":0.4781}},{"type":"Feature","id":1,"geometry":{"type":"LineString","coordinates":[[-75.09264,5.44819],[-75.09139,5.44694]]},"properties":{"nombre":"Quebrada Honda","longitud_km":0.1957}},{"type":"Feature","id":2,"geometry":{"type":"LineString","coordinates":[[-75.09403,5.44667],[-75.09306,5.44667]]},"properties":{"nombre":"Quebrada Honda","longitud_km":0.1077}},{"type":"Feature","id":3,"geometry":{"type":"LineString","coordinates":[[-75.09306,5.44667],[-75.09111,5.44667]]},"properties":{"nombre":"Quebrada Honda","longitud_km":0.2155}},{"type":"Feature","id":4,"geometry":{"type":"LineString","coordinates":[[-75.09139,5.44694],[-75.09111,5.44667]]},"properties":{"nombre":"Quebrada Honda","longitud_km":0.0435}},{"type":"Feature","id":5,"geometry":{"type":"LineString","coordinates":[[-75.09958,5.44639],[-75.09917,5.44639]]},"properties":{"nombre":"Quebrada Honda","longitud_km":0.0462}},{"type":"Feature","id":6,"geometry":{"type":"LineString","coordinates":[[-75.09986,5.44708],[-75.09917,5.44639]]},"properties":{"nombre":"Quebrada Honda","longitud_km":0.1087}},{"type":"Feature","id":7,"geometry":{"type":"LineString","coordinates":[[-75.09542,5.44639],[-75.09333,5.44639],[-75.09306,5.44667]]},"properties":{"nombre":"Quebrada Honda","longitud_km":0.2743}},{"type":"Feature","id":8,"geometry":{"type":"LineString","coordinates":[[-75.09958,5.44597],[-75.09917,5.44639]]},"properties":{"nombre":"Quebrada Honda","longitud_km":0.0652}},{"type":"Feature","id":9,"geometry":{"type":"LineString","coordinates":[[-75.09917,5.44639],[-75.09889,5.44611],[-75.09778,5.44611]]},"properties":{"nombre":"Quebrada Honda","longitud_km":0.1666}},{"type":"Feature","id":10,"geometry":{"type":"LineString","coordinates":[[-75.09847,5.44681],[-75.09778,5.44611]]},"properties":{"nombre":"Quebrada Honda","longitud_km":0.1087}},{"type":"Feature","id":11,"geometry":{"type":"LineString","coordinates":[[-75.09111,5.44667],[-75.09028,5.44611],[-75.08889,5.44611]]},"properties":{"nombre":"Quebrada Honda","longitud_km":0.2648}},{"type":"Feature","id":12,"geometry":{"type":"LineString","coordinates":[[-75.08889,5.44611],[-75.08833,5.44611]]},"properties":{"nombre":"Quebrada Honda","longitud_km":0.0616}},{"type":"Feature","id":13,"geometry":{"type":"LineString","coordinates":[[-75.08986,5.44639],[-75.08861,5.44639],[-75.08833,5.44611]]},"properties":{"nombre":"Quebrada Honda","longitud_km":0.182}},{"type":"Feature","id":14,"geometry":{"type":"LineString","coordinates":[[-75.08833,5.44611],[-75.08806,5.44611]]},"properties":{"nombre":"Quebrada Honda","longitud_km":0.0308}},{"type":"Feature","id":15,"geometry":{"type":"LineString","coordinates":[[-75.09097,5.44778],[-75.08944,5.4475],[-75.08806,5.44611]]},"properties":{"nombre":"Quebrada Honda","longitud_km":0.3895}},{"type":"Feature","id":16,"geometry":{"type":"LineString","coordinates":[[-75.08806,5.44611],[-75.08778,5.44611]]},"properties":{"nombre":"Quebrada Honda","longitud_km":0.0308}},{"type":"Feature","id":17,"geometry":{"type":"LineString","coordinates":[[-75.08958,5.44792],[-75.08778,5.44611]]},"properties":{"nombre":"Quebrada Honda","longitud_km":0.2826}},{"type":"Feature","id":18,"geometry":{"type":"LineString","coordinates":[[-75.08778,5.44611],[-75.0875,5.44609]]},"properties":{"nombre":"Quebrada Honda","longitud_km":0.0332}},{"type":"Feature","id":19,"geometry":{"type":"LineString","coordinates":[[-75.08733,5.44634],[-75.08738,5.44618]]},"properties":{"nombre":"Quebrada Honda","longitud_km":0.0192}},{"type":"Feature","id":20,"geometry":{"type":"LineString","coordinates":[[-75.09569,5.44556],[-75.09389,5.44556]]},"properties":{"nombre":"Quebrada Honda","longitud_km":0.2001}},{"type":"Feature","id":21,"geometry":{"type":"LineString","coordinates":[[-75.09778,5.44611],[-75.09722,5.44583],[-75.09417,5.44583],[-75.09389,5.44556]]},"properties":{"nombre":"Quebrada Honda","longitud_km":0.4508}},{"type":"Feature","id":22,"geometry":{"type":"LineString","coordinates":[[-75.09,5.44556],[-75.08889,5.44611]]},"properties":{"nombre":"Quebrada Honda","longitud_km":0.1376}},{"type":"Feature","id":23,"geometry":{"type":"LineString","coordinates":[[-75.09431,5.44528],[-75.09361,5.44528]]},"properties":{"nombre":"Quebrada Honda","longitud_km":0.077}},{"type":"Feature","id":24,"geometry":{"type":"LineString","coordinates":[[-75.09389,5.44556],[-75.09361,5.44528]]},"properties":{"nombre":"Quebrada Honda","longitud_km":0.0435}},{"type":"Feature","id":25,"geometry":{"type":"LineString","coordinates":[[-75.0925,5.44472],[-75.09222,5.44472]]},"properties":{"nombre":"Quebrada Honda","longitud_km":0.0308}},{"type":"Feature","id":26,"geometry":{"type":"LineString","coordinates":[[-75.09361,5.44528],[-75.09306,5.44528],[-75.09222,5.44472]]},"properties":{"nombre":"Quebrada Honda","longitud_km":0.1725}},{"type":"Feature","id":27,"geometry":{"type":"LineString","coordinates":[[-75.09222,5.44472],[-75.09139,5.44472],[-75.09,5.44556]]},"properties":{"nombre":"Quebrada Honda","longitud_km":0.2717}},{"type":"Feature","id":28,"geometry":{"type":"LineString","coordinates":[[-75.09097,5.44458],[-75.09,5.44556]]},"properties":{"nombre":"Quebrada Honda","longitud_km":0.1522}},{"type":"Feature","id":29,"geometry":{"type":"LineString","coordinates":[[-75.09375,5.44444],[-75.09333,5.44444]]},"properties":{"nombre":"Quebrada Honda","longitud_km":0.0462}},{"type":"Feature","id":30,"geometry":{"type":"LineString","coordinates":[[-75.09333,5.44444],[-75.0925,5.44472]]},"properties":{"nombre":"Quebrada Honda","longitud_km":0.0973}},{"type":"Feature","id":31,"geometry":{"type":"LineString","coordinates":[[-75.09708,5.44486],[-75.09611,5.44389],[-75.09472,5.44389],[-75.09444,5.44361],[-75.09333,5.44444]]},"properties":{"nombre":"Quebrada Honda","longitud_km":0.5033}},{"type":"Feature","id":32,"geometry":{"type":"LineString","coordinates":[[-75.09764,5.44306],[-75.09722,5.44306]]},"properties":{"nombre":"Quebrada Honda","longitud_km":0.0462}},{"type":"Feature","id":33,"geometry":{"type":"LineString","coordinates":[[-75.09819,5.44403],[-75.09722,5.44306]]},"properties":{"nombre":"Quebrada Honda","longitud_km":0.1522}},{"type":"Feature","id":34,"geometry":{"type":"LineString","coordinates":[[-75.09722,5.44306],[-75.09694,5.44306]]},"properties":{"nombre":"Quebrada Honda","longitud_km":0.0308}},{"type":"Feature","id":35,"geometry":{"type":"LineString","coordinates":[[-75.09764,5.44375],[-75.09694,5.44306]]},"properties":{"nombre":"Quebrada Honda","longitud_km":0.1087}},{"type":"Feature","id":36,"geometry":{"type":"LineString","coordinates":[[-75.09694,5.44306],[-75.09389,5.44333],[-75.0925,5.44472]]},"properties":{"nombre":"Quebrada Honda","longitud_km":0.5574}}]}