{"type":"FeatureCollection","features":[{"type":"Feature","id":0,"geometry":{"type":"LineString","coordinates":[[-75.11944,5.43958],[-75.11889,5.43806]]},"properties":{"nombre":"Quebrada La Cristalina","longitud_km":0.1798}},{"type":"Feature","id":1,"geometry":{"type":"LineString","coordinates":[[-75.11833,5.43931],[-75.11833,5.43833],[-75.11889,5.43806]]},"properties":{"nombre":"Quebrada La Cristalina","longitud_km":0.1763}},{"type":"Feature","id":2,"geometry":{"type":"LineString","coordinates":[[-75.11931,5.43819],[-75.11889,5.43778]]},"properties":{"nombre":"Quebrada La Cristalina","longitud_km":0.0652}},{"type":"Feature","id":3,"geometry":{"type":"LineString","coordinates":[[-75.11889,5.43806],[-75.11889,5.43778]]},"properties":{"nombre":"Quebrada La Cristalina","longitud_km":0.0307}},{"type":"Feature","id":4,"geometry":{"type":"LineString","coordinates":[[-75.11806,5.43931],[-75.11778,5.43833],[-75.11722,5.43778]]},"properties":{"nombre":"Quebrada La Cristalina","longitud_km":0.1988}},{"type":"Feature","id":5,"geometry":{"type":"LineString","coordinates":[[-75.1175,5.43875],[-75.11722,5.43778]]},"properties":{"nombre":"Quebrada La Cristalina","longitud_km":0.1118}},{"type":"Feature","id":6,"geometry":{"type":"LineString","coordinates":[[-75.09292,5.43792],[-75.0925,5.4375],[-75.09139,5.4375]]},"properties":{"nombre":"Quebrada La Cristalina","longitud_km":0.1883}},{"type":"Feature","id":7,"geometry":{"type":"LineString","coordinates":[[-75.09139,5.4375],[-75.09056,5.4375]]},"properties":{"nombre":"Quebrada La Cristalina","longitud_km":0.0923}},{"type":"Feature","id":8,"geometry":{"type":"LineString","coordinates":[[-75.09208,5.43861],[-75.09167,5.43861],[-75.09056,5.4375]]},"properties":{"nombre":"Quebrada La Cristalina","longitud_km":0.2201}},{"type":"Feature","id":9,"geometry":{"type":"LineString","coordinates":[[-75.09056,5.4375],[-75.09028,5.4375]]},"properties":{"nombre":"Quebrada La Cristalina","longitud_km":0.0308}},{"type":"Feature","id":10,"geometry":{"type":"LineString","coordinates":[[-75.09153,5.43875],[-75.09028,5.4375]]},"properties":{"nombre":"Quebrada La Cristalina","longitud_km":0.1957}},{"type":"Feature","id":11,"geometry":{"type":"LineString","coordinates":[[-75.09028,5.4375],[-75.09,5.4375]]},"properties":{"nombre":"Quebrada La Cristalina","longitud_km":0.0308}},{"type":"Feature","id":12,"geometry":{"type":"LineString","coordinates":[[-75.09,5.43792],[-75.09,5.4375]]},"properties":{"nombre":"Quebrada La Cristalina","longitud_km":0.0461}},{"type":"Feature","id":13,"geometry":{"type":"LineString","coordinates":[[-75.09403,5.43806],[-75.09361,5.43806],[-75.09278,5.43722],[-75.09167,5.43722],[-75.09139,5.4375]]},"properties":{"nombre":"Quebrada La Cristalina","longitud_km":0.3432}},{"type":"Feature","id":14,"geometry":{"type":"LineString","coordinates":[[-75.115,5.43819],[-75.115,5.43778],[-75.11417,5.43694]]},"properties":{"nombre":"Quebrada La Cristalina","longitud_km":0.1765}},{"type":"Feature","id":15,"geometry":{"type":"LineString","coordinates":[[-75.11458,5.43819],[-75.11417,5.43778],[-75.11417,5.43694]]},"properties":{"nombre":"Quebrada La Cristalina","longitud_km":0.1574}},{"type":"Feature","id":16,"geometry":{"type":"LineString","coordinates":[[-75.12028,5.43847],[-75.12028,5.43806],[-75.11889,5.43667]]},"properties":{"nombre":"Quebrada La Cristalina","longitud_km":0.2635}},{"type":"Feature","id":17,"geometry":{"type":"LineString","coordinates":[[-75.11889,5.43778],[-75.11889,5.43667]]},"properties":{"nombre":"Quebrada La Cristalina","longitud_km":0.1229}},{"type":"Feature","id":18,"geometry":{"type":"LineString","coordinates":[[-75.10597,5.43736],[-75.10528,5.43667]]},"properties":{"nombre":"Quebrada La Cristalina","longitud_km":0.1087}},{"type":"Feature","id":19,"geometry":{"type":"LineString","coordinates":[[-75.10528,5.43792],[-75.10528,5.43667]]},"properties":{"nombre":"Quebrada La Cristalina","longitud_km":0.1382}},{"type":"Feature","id":20,"geometry":{"type":"LineString","coordinates":[[-75.08681,5.43708],[-75.08639,5.43667]]},"properties":{"nombre":"Quebrada La Cristalina","longitud_km":0.0652}},{"type":"Feature","id":21,"geometry":{"type":"LineString","coordinates":[[-75.08708,5.43819],[-75.08639,5.4375],[-75.08639,5.43667]]},"properties":{"nombre":"Quebrada La Cristalina","longitud_km":0.2008}},{"type":"Feature","id":22,"geometry":{"type":"LineString","coordinates":[[-75.12056,5.43847],[-75.12,5.43722],[-75.11889,5.43639]]},"properties":{"nombre":"Quebrada La Cristalina","longitud_km":0.3051}},{"type":"Feature","id":23,"geometry":{"type":"LineString","coordinates":[[-75.11889,5.43667],[-75.11889,5.43639]]},"properties":{"nombre":"Quebrada La Cristalina","longitud_km":0.0307}},{"type":"Feature","id":24,"geometry":{"type":"LineString","coordinates":[[-75.09,5.4375],[-75.08833,5.43611]]},"properties":{"nombre":"Quebrada La Cristalina","longitud_km":0.2402}},{"type":"Feature","id":25,"geometry":{"type":"LineString","coordinates":[[-75.08917,5.43736],[-75.08917,5.43694],[-75.08833,5.43611]]},"properties":{"nombre":"Quebrada La Cristalina","longitud_km":0.1765}},{"type":"Feature","id":26,"geometry":{"type":"LineString","coordinates":[[-75.08833,5.43611],[-75.08806,5.43611]]},"properties":{"nombre":"Quebrada La Cristalina","longitud_km":0.0308}},{"type":"Feature","id":27,"geometry":{"type":"LineString","coordinates":[[-75.08875,5.43681],[-75.08806,5.43611]]},"properties":{"nombre":"Quebrada La Cristalina","longitud_km":0.1087}},{"type":"Feature","id":28,"geometry":{"type":"LineString","coordinates":[[-75.12153,5.43583],[-75.12083,5.43583]]},"properties":{"nombre":"Quebrada La Cristalina","longitud_km":0.077}},{"type":"Feature","id":29,"geometry":{"type":"LineString","coordinates":[[-75.12264,5.43736],[-75.12083,5.43583]]},"properties":{"nombre":"Quebrada La Cristalina","longitud_km":0.2619}},{"type":"Feature","id":30,"geometry":{"type":"LineString","coordinates":[[-75.11472,5.43722],[-75.11361,5.43583]]},"properties":{"nombre":"Quebrada La Cristalina","longitud_km":0.1968}},{"type":"Feature","id":31,"geometry":{"type":"LineString","coordinates":[[-75.11417,5.43694],[-75.11361,5.43583]]},"properties":{"nombre":"Quebrada La Cristalina","longitud_km":0.1374}},{"type":"Feature","id":32,"geometry":{"type":"LineString","coordinates":[[-75.10917,5.43708],[-75.10861,5.43583]]},"properties":{"nombre":"Quebrada La Cristalina","longitud_km":0.1513}},{"type":"Feature","id":33,"geometry":{"type":"LineString","coordinates":[[-75.10861,5.43792],[-75.10861,5.43583]]},"properties":{"nombre":"Quebrada La Cristalina","longitud_km":0.2304}},{"type":"Feature","id":34,"geometry":{"type":"LineString","coordinates":[[-75.08806,5.43611],[-75.08778,5.43583]]},"properties":{"nombre":"Quebrada La Cristalina","longitud_km":0.0435}},{"type":"Feature","id":35,"geometry":{"type":"LineString","coordinates":[[-75.08778,5.43583],[-75.08694,5.43583]]},"properties":{"nombre":"Quebrada La Cristalina","longitud_km":0.0923}},{"type":"Feature","id":36,"geometry":{"type":"LineString","coordinates":[[-75.08736,5.43625],[-75.08694,5.43583]]},"properties":{"nombre":"Quebrada La Cristalina","longitud_km":0.0652}},{"type":"Feature","id":37,"geometry":{"type":"LineString","coordinates":[[-75.08694,5.43583],[-75.08667,5.43583]]},"properties":{"nombre":"Quebrada La Cristalina","longitud_km":0.0308}},{"type":"Feature","id":38,"geometry":{"type":"LineString","coordinates":[[-75.08667,5.43583],[-75.08639,5.43583]]},"properties":{"nombre":"Quebrada La Cristalina","longitud_km":0.0308}},{"type":"Feature","id":39,"geometry":{"type":"LineString","coordinates":[[-75.08681,5.43611],[-75.08639,5.43611],[-75.08639,5.43583]]},"properties":{"nombre":"Quebrada La Cristalina","longitud_km":0.0769}},{"type":"Feature","id":40,"geometry":{"type":"LineString","coordinates":[[-75.12764,5.43597],[-75.12722,5.43556]]},"properties":{"nombre":"Quebrada La Cristalina","longitud_km":0.0652}},{"type":"Feature","id":41,"geometry":{"type":"LineString","coordinates":[[-75.12722,5.43625],[-75.12722,5.43556]]},"properties":{"nombre":"Quebrada La Cristalina","longitud_km":0.0768}},{"type":"Feature","id":42,"geometry":{"type":"LineString","coordinates":[[-75.12083,5.43583],[-75.12,5.43556]]},"properties":{"nombre":"Quebrada La Cristalina","longitud_km":0.0973}},{"type":"Feature","id":43,"geometry":{"type":"LineString","coordinates":[[-75.12069,5.43625],[-75.12,5.43556]]},"properties":{"nombre":"Quebrada La Cristalina","longitud_km":0.1087}},{"type":"Feature","id":44,"geometry":{"type":"LineString","coordinates":[[-75.12125,5.43764],[-75.11944,5.43556]]},"properties":{"nombre":"Quebrada La Cristalina","longitud_km":0.3051}},{"type":"Feature","id":45,"geometry":{"type":"LineString","coordinates":[[-75.12097,5.43819],[-75.11944,5.43639],[-75.11944,5.43556]]},"properties":{"nombre":"Quebrada La Cristalina","longitud_km":0.3539}},{"type":"Feature","id":46,"geometry":{"type":"LineString","coordinates":[[-75.11361,5.43583],[-75.11333,5.43556]]},"properties":{"nombre":"Quebrada La Cristalina","longitud_km":0.0435}},{"type":"Feature","id":47,"geometry":{"type":"LineString","coordinates":[[-75.11278,5.43736],[-75.11333,5.43556]]},"properties":{"nombre":"Quebrada La Cristalina","longitud_km":0.2089}},{"type":"Feature","id":48,"geometry":{"type":"LineString","coordinates":[[-75.09514,5.43764],[-75.09306,5.43556]]},"properties":{"nombre":"Quebrada La Cristalina","longitud_km":0.3261}},{"type":"Feature","id":49,"geometry":{"type":"LineString","coordinates":[[-75.09306,5.43597],[-75.09306,5.43556]]},"properties":{"nombre":"Quebrada La Cristalina","longitud_km":0.0461}},{"type":"Feature","id":50,"geometry":{"type":"LineString","coordinates":[[-75.08986,5.43681],[-75.08833,5.43556]]},"properties":{"nombre":"Quebrada La Cristalina","longitud_km":0.2185}},{"type":"Feature","id":51,"geometry":{"type":"LineString","coordinates":[[-75.08833,5.43556],[-75.08778,5.43583]]},"properties":{"nombre":"Quebrada La Cristalina","longitud_km":0.0688}},{"type":"Feature","id":52,"geometry":{"type":"LineString","coordinates":[[-75.08708,5.43542],[-75.08667,5.43583]]},"properties":{"nombre":"Quebrada La Cristalina","longitud_km":0.0652}},{"type":"Feature","id":53,"geometry":{"type":"LineString","coordinates":[[-75.08639,5.43583],[-75.08583,5.43556]]},"properties":{"nombre":"Quebrada La Cristalina","longitud_km":0.0688}},{"type":"Feature","id":54,"geometry":{"type":"LineString","coordinates":[[-75.08639,5.43667],[-75.08583,5.43556]]},"properties":{"nombre":"Quebrada La Cristalina","longitud_km":0.1374}},{"type":"Feature","id":55,"geometry":{"type":"LineString","coordinates":[[-75.11625,5.43653],[-75.115,5.43528]]},"properties":{"nombre":"Quebrada La Cristalina","longitud_km":0.1957}},{"type":"Feature","id":56,"geometry":{"type":"LineString","coordinates":[[-75.11722,5.43778],[-75.115,5.43528]]},"properties":{"nombre":"Quebrada La Cristalina","longitud_km":0.3702}},{"type":"Feature","id":57,"geometry":{"type":"LineString","coordinates":[[-75.11486,5.43653],[-75.11333,5.43528]]},"properties":{"nombre":"Quebrada La Cristalina","longitud_km":0.2185}},{"type":"Feature","id":58,"geometry":{"type":"LineString","coordinates":[[-75.11333,5.43556],[-75.11333,5.43528]]},"properties":{"nombre":"Quebrada La Cristalina","longitud_km":0.0307}},{"type":"Feature","id":59,"geometry":{"type":"LineString","coordinates":[[-75.11069,5.43736],[-75.10861,5.43528]]},"properties":{"nombre":"Quebrada La Cristalina","longitud_km":0.3261}},{"type":"Feature","id":60,"geometry":{"type":"LineString","coordinates":[[-75.10861,5.43583],[-75.10861,5.43528]]},"properties":{"nombre":"Quebrada La Cristalina","longitud_km":0.0614}},{"type":"Feature","id":61,"geometry":{"type":"LineString","coordinates":[[-75.09486,5.43625],[-75.09389,5.43528],[-75.09306,5.43528]]},"properties":{"nombre":"Quebrada La Cristalina","longitud_km":0.2445}},{"type":"Feature","id":62,"geometry":{"type":"LineString","coordinates":[[-75.09375,5.43597],[-75.09306,5.43528]]},"properties":{"nombre":"Quebrada La Cristalina","longitud_km":0.1087}},{"type":"Feature","id":63,"geometry":{"type":"LineString","coordinates":[[-75.12292,5.43542],[-75.1225,5.435]]},"properties":{"nombre":"Quebrada La Cristalina","longitud_km":0.0652}},{"type":"Feature","id":64,"geometry":{"type":"LineString","coordinates":[[-75.12278,5.43653],[-75.1225,5.435]]},"properties":{"nombre":"Quebrada La Cristalina","longitud_km":0.1717}},{"type":"Feature","id":65,"geometry":{"type":"LineString","coordinates":[[-75.10528,5.43667],[-75.10528,5.435]]},"properties":{"nombre":"Quebrada La Cristalina","longitud_km":0.1843}},{"type":"Feature","id":66,"geometry":{"type":"LineString","coordinates":[[-75.105,5.43736],[-75.105,5.43528],[-75.10528,5.435]]},"properties":{"nombre":"Quebrada La Cristalina","longitud_km":0.2738}},{"type":"Feature","id":67,"geometry":{"type":"LineString","coordinates":[[-75.08958,5.435],[-75.08917,5.435]]},"properties":{"nombre":"Quebrada La Cristalina","longitud_km":0.0462}},{"type":"Feature","id":68,"geometry":{"type":"LineString","coordinates":[[-75.08917,5.435],[-75.08889,5.435]]},"properties":{"nombre":"Quebrada La Cristalina","longitud_km":0.0308}},{"type":"Feature","id":69,"geometry":{"type":"LineString","coordinates":[[-75.08889,5.435],[-75.08861,5.435],[-75.08833,5.43556]]},"properties":{"nombre":"Quebrada La Cristalina","longitud_km":0.0995}},{"type":"Feature","id":70,"geometry":{"type":"LineString","coordinates":[[-75.11944,5.43556],[-75.11861,5.43472]]},"properties":{"nombre":"Quebrada La Cristalina","longitud_km":0.1305}},{"type":"Feature","id":71,"geometry":{"type":"LineString","coordinates":[[-75.11889,5.43639],[-75.11861,5.43611],[-75.11861,5.43472]]},"properties":{"nombre":"Quebrada La Cristalina","longitud_km":0.1971}},{"type":"Feature","id":72,"geometry":{"type":"LineString","coordinates":[[-75.115,5.43528],[-75.11444,5.43472]]},"properties":{"nombre":"Quebrada La Cristalina","longitud_km":0.087}},{"type":"Feature","id":73,"geometry":{"type":"LineString","coordinates":[[-75.11514,5.43597],[-75.11444,5.43472]]},"properties":{"nombre":"Quebrada La Cristalina","longitud_km":0.1582}},{"type":"Feature","id":74,"geometry":{"type":"LineString","coordinates":[[-75.10861,5.43528],[-75.10833,5.43472]]},"properties":{"nombre":"Quebrada La Cristalina","longitud_km":0.0687}},{"type":"Feature","id":75,"geometry":{"type":"LineString","coordinates":[[-75.10833,5.43653],[-75.10833,5.43472]]},"properties":{"nombre":"Quebrada La Cristalina","longitud_km":0.1996}},{"type":"Feature","id":76,"geometry":{"type":"LineString","coordinates":[[-75.10208,5.43625],[-75.10111,5.43472]]},"properties":{"nombre":"Quebrada La Cristalina","longitud_km":0.2004}},{"type":"Feature","id":77,"geometry":{"type":"LineString","coordinates":[[-75.10111,5.43569],[-75.10111,5.43472]]},"properties":{"nombre":"Quebrada La Cristalina","longitud_km":0.1075}},{"type":"Feature","id":78,"geometry":{"type":"LineString","coordinates":[[-75.08889,5.43458],[-75.08889,5.435]]},"properties":{"nombre":"Quebrada La Cristalina","longitud_km":0.0461}},{"type":"Feature","id":79,"geometry":{"type":"LineString","coordinates":[[-75.12542,5.43625],[-75.1225,5.43444]]},"properties":{"nombre":"Quebrada La Cristalina","longitud_km":0.3799}},{"type":"Feature","id":80,"geometry":{"type":"LineString","coordinates":[[-75.12319,5.43542],[-75.1225,5.43444]]},"properties":{"nombre":"Quebrada La Cristalina","longitud_km":0.1322}},{"type":"Feature","id":81,"geometry":{"type":"LineString","coordinates":[[-75.09181,5.43569],[-75.09056,5.43444],[-75.09,5.43444]]},"properties":{"nombre":"Quebrada La Cristalina","longitud_km":0.2572}},{"type":"Feature","id":82,"geometry":{"type":"LineString","coordinates":[[-75.09,5.43444],[-75.08972,5.43444]]},"properties":{"nombre":"Quebrada La Cristalina","longitud_km":0.0308}},{"type":"Feature","id":83,"geometry":{"type":"LineString","coordinates":[[-75.08972,5.43444],[-75.08917,5.435]]},"properties":{"nombre":"Quebrada La Cristalina","longitud_km":0.087}},{"type":"Feature","id":84,"geometry":{"type":"LineString","coordinates":[[-75.085,5.43472],[-75.08472,5.43444]]},"properties":{"nombre":"Quebrada La Cristalina","longitud_km":0.0435}},{"type":"Feature","id":85,"geometry":{"type":"LineString","coordinates":[[-75.08583,5.43556],[-75.08472,5.43472],[-75.08472,5.43444]]},"properties":{"nombre":"Quebrada La Cristalina","longitud_km":0.1845}},{"type":"Feature","id":86,"geometry":{"type":"LineString","coordinates":[[-75.12,5.43556],[-75.11861,5.43417]]},"properties":{"nombre":"Quebrada La Cristalina","longitud_km":0.2174}},{"type":"Feature","id":87,"geometry":{"type":"LineString","coordinates":[[-75.11861,5.43472],[-75.11861,5.43417]]},"properties":{"nombre":"Quebrada La Cristalina","longitud_km":0.0614}},{"type":"Feature","id":88,"geometry":{"type":"LineString","coordinates":[[-75.10847,5.43458],[-75.10806,5.43417]]},"properties":{"nombre":"Quebrada La Cristalina","longitud_km":0.0652}},{"type":"Feature","id":89,"geometry":{"type":"LineString","coordinates":[[-75.10833,5.43472],[-75.10806,5.43417]]},"properties":{"nombre":"Quebrada La Cristalina","longitud_km":0.0687}},{"type":"Feature","id":90,"geometry":{"type":"LineString","coordinates":[[-75.10083,5.43569],[-75.10083,5.43472],[-75.10028,5.43417]]},"properties":{"nombre":"Quebrada La Cristalina","longitud_km":0.1945}},{"type":"Feature","id":91,"geometry":{"type":"LineString","coordinates":[[-75.10028,5.43486],[-75.10028,5.43417]]},"properties":{"nombre":"Quebrada La Cristalina","longitud_km":0.0768}},{"type":"Feature","id":92,"geometry":{"type":"LineString","coordinates":[[-75.09306,5.43528],[-75.09167,5.43417]]},"properties":{"nombre":"Quebrada La Cristalina","longitud_km":0.1969}},{"type":"Feature","id":93,"geometry":{"type":"LineString","coordinates":[[-75.09306,5.43556],[-75.09167,5.43417]]},"properties":{"nombre":"Quebrada La Cristalina","longitud_km":0.2174}},{"type":"Feature","id":94,"geometry":{"type":"LineString","coordinates":[[-75.0925,5.43625],[-75.09222,5.43528],[-75.09111,5.43417],[-75.09056,5.43417]]},"properties":{"nombre":"Quebrada La Cristalina","longitud_km":0.3473}},{"type":"Feature","id":95,"geometry":{"type":"LineString","coordinates":[[-75.09056,5.43417],[-75.09028,5.43417]]},"properties":{"nombre":"Quebrada La Cristalina","longitud_km":0.0308}},{"type":"Feature","id":96,"geometry":{"type":"LineString","coordinates":[[-75.09028,5.43417],[-75.09,5.43444]]},"properties":{"nombre":"Quebrada La Cristalina","longitud_km":0.0435}},{"type":"Feature","id":97,"geometry":{"type":"LineString","coordinates":[[-75.11861,5.43417],[-75.11833,5.43389]]},"properties":{"nombre":"Quebrada La Cristalina","longitud_km":0.0435}},{"type":"Feature","id":98,"geometry":{"type":"LineString","coordinates":[[-75.11833,5.43486],[-75.11833,5.43389]]},"properties":{"nombre":"Quebrada La Cristalina","longitud_km":0.1075}},{"type":"Feature","id":99,"geometry":{"type":"LineString","coordinates":[[-75.1025,5.43542],[-75.10222,5.43389]]},"properties":{"nombre":"Quebrada La Cristalina","longitud_km":0.1717}},{"type":"Feature","id":100,"geometry":{"type":"LineString","coordinates":[[-75.10236,5.43625],[-75.10194,5.43583],[-75.10222,5.43444],[-75.10167,5.43389]]},"properties":{"nombre":"Quebrada La Cristalina","longitud_km":0.3088}},{"type":"Feature","id":101,"geometry":{"type":"LineString","coordinates":[[-75.10111,5.43472],[-75.10083,5.43389]]},"properties":{"nombre":"Quebrada La Cristalina","longitud_km":0.0971}},{"type":"Feature","id":102,"geometry":{"type":"LineString","coordinates":[[-75.09167,5.43417],[-75.09083,5.43389]]},"properties":{"nombre":"Quebrada La Cristalina","longitud_km":0.0973}},{"type":"Feature","id":103,"geometry":{"type":"LineString","coordinates":[[-75.09083,5.43389],[-75.09056,5.43417]]},"properties":{"nombre":"Quebrada La Cristalina","longitud_km":0.0435}},{"type":"Feature","id":104,"geometry":{"type":"LineString","coordinates":[[-75.09069,5.43375],[-75.09028,5.43417]]},"properties":{"nombre":"Quebrada La Cristalina","longitud_km":0.0652}},{"type":"Feature","id":105,"geometry":{"type":"LineString","coordinates":[[-75.08472,5.43444],[-75.08417,5.43389]]},"properties":{"nombre":"Quebrada La Cristalina","longitud_km":0.087}},{"type":"Feature","id":106,"geometry":{"type":"LineString","coordinates":[[-75.11375,5.43431],[-75.11278,5.43361],[-75.11222,5.43361]]},"properties":{"nombre":"Quebrada La Cristalina","longitud_km":0.1939}},{"type":"Feature","id":107,"geometry":{"type":"LineString","coordinates":[[-75.11333,5.43528],[-75.11222,5.43361]]},"properties":{"nombre":"Quebrada La Cristalina","longitud_km":0.2216}},{"type":"Feature","id":108,"geometry":{"type":"LineString","coordinates":[[-75.11222,5.43361],[-75.11194,5.43361]]},"properties":{"nombre":"Quebrada La Cristalina","longitud_km":0.0308}},{"type":"Feature","id":109,"geometry":{"type":"LineString","coordinates":[[-75.11194,5.43361],[-75.11139,5.43361]]},"properties":{"nombre":"Quebrada La Cristalina","longitud_km":0.0616}},{"type":"Feature","id":110,"geometry":{"type":"LineString","coordinates":[[-75.11194,5.43597],[-75.11194,5.43417],[-75.11139,5.43361]]},"properties":{"nombre":"Quebrada La Cristalina","longitud_km":0.2866}},{"type":"Feature","id":111,"geometry":{"type":"LineString","coordinates":[[-75.11139,5.43361],[-75.11111,5.43361]]},"properties":{"nombre":"Quebrada La Cristalina","longitud_km":0.0308}},{"type":"Feature","id":112,"geometry":{"type":"LineString","coordinates":[[-75.11111,5.43542],[-75.11111,5.43361]]},"properties":{"nombre":"Quebrada La Cristalina","longitud_km":0.1996}},{"type":"Feature","id":113,"geometry":{"type":"LineString","coordinates":[[-75.11111,5.43361],[-75.11083,5.43361]]},"properties":{"nombre":"Quebrada La Cristalina","longitud_km":0.0308}},{"type":"Feature","id":114,"geometry":{"type":"LineString","coordinates":[[-75.11083,5.43653],[-75.11083,5.43361]]},"properties":{"nombre":"Quebrada La Cristalina","longitud_km":0.3225}},{"type":"Feature","id":115,"geometry":{"type":"LineString","coordinates":[[-75.11083,5.43361],[-75.11028,5.43361]]},"properties":{"nombre":"Quebrada La Cristalina","longitud_km":0.0616}},{"type":"Feature","id":116,"geometry":{"type":"LineString","coordinates":[[-75.11056,5.43542],[-75.11056,5.43389],[-75.11028,5.43361]]},"properties":{"nombre":"Quebrada La Cristalina","longitud_km":0.2124}},{"type":"Feature","id":117,"geometry":{"type":"LineString","coordinates":[[-75.10806,5.43417],[-75.10778,5.43361]]},"properties":{"nombre":"Quebrada La Cristalina","longitud_km":0.0687}},{"type":"Feature","id":118,"geometry":{"type":"LineString","coordinates":[[-75.10819,5.43653],[-75.10722,5.43556],[-75.10722,5.43389],[-75.10694,5.43361]]},"properties":{"nombre":"Quebrada La Cristalina","longitud_km":0.38}},{"type":"Feature","id":119,"geometry":{"type":"LineString","coordinates":[[-75.10694,5.43361],[-75.10639,5.43361]]},"properties":{"nombre":"Quebrada La Cristalina","longitud_km":0.0616}},{"type":"Feature","id":120,"geometry":{"type":"LineString","coordinates":[[-75.10694,5.43708],[-75.10694,5.43444],[-75.10639,5.43361]]},"properties":{"nombre":"Quebrada La Cristalina","longitud_km":0.4026}},{"type":"Feature","id":121,"geometry":{"type":"LineString","coordinates":[[-75.10639,5.43361],[-75.10583,5.43361]]},"properties":{"nombre":"Quebrada La Cristalina","longitud_km":0.0616}},{"type":"Feature","id":122,"geometry":{"type":"LineString","coordinates":[[-75.10625,5.43403],[-75.10583,5.43361]]},"properties":{"nombre":"Quebrada La Cristalina","longitud_km":0.0652}},{"type":"Feature","id":123,"geometry":{"type":"LineString","coordinates":[[-75.10583,5.43361],[-75.10528,5.43361]]},"properties":{"nombre":"Quebrada La Cristalina","longitud_km":0.0616}},{"type":"Feature","id":124,"geometry":{"type":"LineString","coordinates":[[-75.10639,5.43681],[-75.10639,5.43583],[-75.10556,5.435],[-75.10556,5.43389],[-75.10528,5.43361]]},"properties":{"nombre":"Quebrada La Cristalina","longitud_km":0.4043}},{"type":"Feature","id":125,"geometry":{"type":"LineString","coordinates":[[-75.10528,5.43361],[-75.105,5.43361]]},"properties":{"nombre":"Quebrada La Cristalina","longitud_km":0.0308}},{"type":"Feature","id":126,"geometry":{"type":"LineString","coordinates":[[-75.10528,5.435],[-75.105,5.43361]]},"properties":{"nombre":"Quebrada La Cristalina","longitud_km":0.1566}},{"type":"Feature","id":127,"geometry":{"type":"LineString","coordinates":[[-75.10361,5.43597],[-75.10361,5.43472],[-75.10278,5.43361],[-75.1025,5.43361]]},"properties":{"nombre":"Quebrada La Cristalina","longitud_km":0.3227}},{"type":"Feature","id":128,"geometry":{"type":"LineString","coordinates":[[-75.1025,5.43361],[-75.10222,5.43389]]},"properties":{"nombre":"Quebrada La Cristalina","longitud_km":0.0435}},{"type":"Feature","id":129,"geometry":{"type":"LineString","coordinates":[[-75.10222,5.43389],[-75.10194,5.43361]]},"properties":{"nombre":"Quebrada La Cristalina","longitud_km":0.0435}},{"type":"Feature","id":130,"geometry":{"type":"LineString","coordinates":[[-75.10194,5.43361],[-75.10167,5.43389]]},"properties":{"nombre":"Quebrada La Cristalina","longitud_km":0.0435}},{"type":"Feature","id":131,"geometry":{"type":"LineString","coordinates":[[-75.10167,5.43389],[-75.10111,5.43361]]},"properties":{"nombre":"Quebrada La Cristalina","longitud_km":0.0688}},{"type":"Feature","id":132,"geometry":{"type":"LineString","coordinates":[[-75.10111,5.43361],[-75.10083,5.43389]]},"properties":{"nombre":"Quebrada La Cristalina","longitud_km":0.0435}},{"type":"Feature","id":133,"geometry":{"type":"LineString","coordinates":[[-75.10028,5.43417],[-75.1,5.43361],[-75.09972,5.43361]]},"properties":{"nombre":"Quebrada La Cristalina","longitud_km":0.0995}},{"type":"Feature","id":134,"geometry":{"type":"LineString","coordinates":[[-75.09972,5.43458],[-75.09972,5.43417],[-75.09917,5.43361]]},"properties":{"nombre":"Quebrada La Cristalina","longitud_km":0.133}},{"type":"Feature","id":135,"geometry":{"type":"LineString","coordinates":[[-75.09917,5.43361],[-75.09889,5.43361]]},"properties":{"nombre":"Quebrada La Cristalina","longitud_km":0.0308}},{"type":"Feature","id":136,"geometry":{"type":"LineString","coordinates":[[-75.09319,5.43361],[-75.09278,5.43361]]},"properties":{"nombre":"Quebrada La Cristalina","longitud_km":0.0462}},{"type":"Feature","id":137,"geometry":{"type":"LineString","coordinates":[[-75.09278,5.43361],[-75.09167,5.43417]]},"properties":{"nombre":"Quebrada La Cristalina","longitud_km":0.1376}},{"type":"Feature","id":138,"geometry":{"type":"LineString","coordinates":[[-75.09,5.43347],[-75.08972,5.43444]]},"properties":{"nombre":"Quebrada La Cristalina","longitud_km":0.1118}},{"type":"Feature","id":139,"geometry":{"type":"LineString","coordinates":[[-75.08486,5.43347],[-75.08417,5.43389]]},"properties":{"nombre":"Quebrada La Cristalina","longitud_km":0.0897}},{"type":"Feature","id":140,"geometry":{"type":"LineString","coordinates":[[-75.08417,5.43389],[-75.08389,5.43361],[-75.08331,5.43361]]},"properties":{"nombre":"Quebrada La Cristalina","longitud_km":0.1075}},{"type":"Feature","id":141,"geometry":{"type":"LineString","coordinates":[[-75.12014,5.43403],[-75.11944,5.43333],[-75.11889,5.43333]]},"properties":{"nombre":"Quebrada La Cristalina","longitud_km":0.1703}},{"type":"Feature","id":142,"geometry":{"type":"LineString","coordinates":[[-75.11889,5.43333],[-75.11833,5.43333]]},"properties":{"nombre":"Quebrada La Cristalina","longitud_km":0.0616}},{"type":"Feature","id":143,"geometry":{"type":"LineString","coordinates":[[-75.11833,5.43389],[-75.11833,5.43333]]},"properties":{"nombre":"Quebrada La Cristalina","longitud_km":0.0614}},{"type":"Feature","id":144,"geometry":{"type":"LineString","coordinates":[[-75.11736,5.43514],[-75.11556,5.43333]]},"properties":{"nombre":"Quebrada La Cristalina","longitud_km":0.2826}},{"type":"Feature","id":145,"geometry":{"type":"LineString","coordinates":[[-75.11556,5.43333],[-75.11528,5.43333]]},"properties":{"nombre":"Quebrada La Cristalina","longitud_km":0.0308}},{"type":"Feature","id":146,"geometry":{"type":"LineString","coordinates":[[-75.11597,5.43431],[-75.11528,5.43333]]},"properties":{"nombre":"Quebrada La Cristalina","longitud_km":0.1322}},{"type":"Feature","id":147,"geometry":{"type":"LineString","coordinates":[[-75.11528,5.43333],[-75.11417,5.43333]]},"properties":{"nombre":"Quebrada La Cristalina","longitud_km":0.1231}},{"type":"Feature","id":148,"geometry":{"type":"LineString","coordinates":[[-75.11458,5.43375],[-75.11417,5.43333]]},"properties":{"nombre":"Quebrada La Cristalina","longitud_km":0.0652}},{"type":"Feature","id":149,"geometry":{"type":"LineString","coordinates":[[-75.11028,5.43361],[-75.11,5.43333]]},"properties":{"nombre":"Quebrada La Cristalina","longitud_km":0.0435}},{"type":"Feature","id":150,"geometry":{"type":"LineString","coordinates":[[-75.10778,5.43361],[-75.1075,5.43333]]},"properties":{"nombre":"Quebrada La Cristalina","longitud_km":0.0435}},{"type":"Feature","id":151,"geometry":{"type":"LineString","coordinates":[[-75.1075,5.43333],[-75.10694,5.43361]]},"properties":{"nombre":"Quebrada La Cristalina","longitud_km":0.0688}},{"type":"Feature","id":152,"geometry":{"type":"LineString","coordinates":[[-75.105,5.43361],[-75.10472,5.43333]]},"properties":{"nombre":"Quebrada La Cristalina","longitud_km":0.0435}},{"type":"Feature","id":153,"geometry":{"type":"LineString","coordinates":[[-75.10472,5.43333],[-75.10417,5.43333]]},"properties":{"nombre":"Quebrada La Cristalina","longitud_km":0.0616}},{"type":"Feature","id":154,"geometry":{"type":"LineString","coordinates":[[-75.10417,5.43514],[-75.10417,5.43333]]},"properties":{"nombre":"Quebrada La Cristalina","longitud_km":0.1996}},{"type":"Feature","id":155,"geometry":{"type":"LineString","coordinates":[[-75.10417,5.43333],[-75.10389,5.43333]]},"properties":{"nombre":"Quebrada La Cristalina","longitud_km":0.0308}},{"type":"Feature","id":156,"geometry":{"type":"LineString","coordinates":[[-75.10389,5.43625],[-75.10389,5.43333]]},"properties":{"nombre":"Quebrada La Cristalina","longitud_km":0.3225}},{"type":"Feature","id":157,"geometry":{"type":"LineString","coordinates":[[-75.10389,5.43333],[-75.10278,5.43333],[-75.1025,5.43361]]},"properties":{"nombre":"Quebrada La Cristalina","longitud_km":0.1666}},{"type":"Feature","id":158,"geometry":{"type":"LineString","coordinates":[[-75.10083,5.43389],[-75.1,5.43333],[-75.09972,5.43361]]},"properties":{"nombre":"Quebrada La Cristalina","longitud_km":0.1544}},{"type":"Feature","id":159,"geometry":{"type":"LineString","coordinates":[[-75.09972,5.43361],[-75.09944,5.43333],[-75.09917,5.43361]]},"properties":{"nombre":"Quebrada La Cristalina","longitud_km":0.087}},{"type":"Feature","id":160,"geometry":{"type":"LineString","coordinates":[[-75.09889,5.43361],[-75.09778,5.43333]]},"properties":{"nombre":"Quebrada La Cristalina","longitud_km":0.1269}},{"type":"Feature","id":161,"geometry":{"type":"LineString","coordinates":[[-75.09833,5.43458],[-75.09833,5.43389],[-75.09778,5.43333]]},"properties":{"nombre":"Quebrada La Cristalina","longitud_km":0.1637}},{"type":"Feature","id":162,"geometry":{"type":"LineString","coordinates":[[-75.09778,5.43333],[-75.0975,5.43333]]},"properties":{"nombre":"Quebrada La Cristalina","longitud_km":0.0308}},{"type":"Feature","id":163,"geometry":{"type":"LineString","coordinates":[[-75.0975,5.43333],[-75.09694,5.43333]]},"properties":{"nombre":"Quebrada La Cristalina","longitud_km":0.0616}},{"type":"Feature","id":164,"geometry":{"type":"LineString","coordinates":[[-75.09806,5.43542],[-75.09778,5.43361],[-75.09694,5.43333]]},"properties":{"nombre":"Quebrada La Cristalina","longitud_km":0.2993}},{"type":"Feature","id":165,"geometry":{"type":"LineString","coordinates":[[-75.09694,5.43333],[-75.09667,5.43333]]},"properties":{"nombre":"Quebrada La Cristalina","longitud_km":0.0308}},{"type":"Feature","id":166,"geometry":{"type":"LineString","coordinates":[[-75.09722,5.43458],[-75.09722,5.43389],[-75.09667,5.43333]]},"properties":{"nombre":"Quebrada La Cristalina","longitud_km":0.1637}},{"type":"Feature","id":167,"geometry":{"type":"LineString","coordinates":[[-75.09667,5.43333],[-75.09639,5.43333]]},"properties":{"nombre":"Quebrada La Cristalina","longitud_km":0.0308}},{"type":"Feature","id":168,"geometry":{"type":"LineString","coordinates":[[-75.09667,5.43431],[-75.09639,5.43333]]},"properties":{"nombre":"Quebrada La Cristalina","longitud_km":0.1118}},{"type":"Feature","id":169,"geometry":{"type":"LineString","coordinates":[[-75.09639,5.43333],[-75.09611,5.43333]]},"properties":{"nombre":"Quebrada La Cristalina","longitud_km":0.0308}},{"type":"Feature","id":170,"geometry":{"type":"LineString","coordinates":[[-75.09611,5.43333],[-75.09528,5.43333]]},"properties":{"nombre":"Quebrada La Cristalina","longitud_km":0.0923}},{"type":"Feature","id":171,"geometry":{"type":"LineString","coordinates":[[-75.09639,5.43514],[-75.09639,5.43472],[-75.09528,5.43333]]},"properties":{"nombre":"Quebrada La Cristalina","longitud_km":0.2429}},{"type":"Feature","id":172,"geometry":{"type":"LineString","coordinates":[[-75.09528,5.43333],[-75.095,5.43361],[-75.09361,5.43333]]},"properties":{"nombre":"Quebrada La Cristalina","longitud_km":0.2004}},{"type":"Feature","id":173,"geometry":{"type":"LineString","coordinates":[[-75.09597,5.43597],[-75.09361,5.43333]]},"properties":{"nombre":"Quebrada La Cristalina","longitud_km":0.3919}},{"type":"Feature","id":174,"geometry":{"type":"LineString","coordinates":[[-75.09361,5.43333],[-75.09333,5.43333]]},"properties":{"nombre":"Quebrada La Cristalina","longitud_km":0.0308}},{"type":"Feature","id":175,"geometry":{"type":"LineString","coordinates":[[-75.09333,5.43333],[-75.09306,5.43333]]},"properties":{"nombre":"Quebrada La Cristalina","longitud_km":0.0308}},{"type":"Feature","id":176,"geometry":{"type":"LineString","coordinates":[[-75.09306,5.43333],[-75.09278,5.43361]]},"properties":{"nombre":"Quebrada La Cristalina","longitud_km":0.0435}},{"type":"Feature","id":177,"geometry":{"type":"LineString","coordinates":[[-75.09153,5.43319],[-75.09083,5.43389]]},"properties":{"nombre":"Quebrada La Cristalina","longitud_km":0.1087}},{"type":"Feature","id":178,"geometry":{"type":"LineString","coordinates":[[-75.12347,5.43333],[-75.12278,5.43306]]},"properties":{"nombre":"Quebrada La Cristalina","longitud_km":0.0828}},{"type":"Feature","id":179,"geometry":{"type":"LineString","coordinates":[[-75.12278,5.43306],[-75.1225,5.43306]]},"properties":{"nombre":"Quebrada La Cristalina","longitud_km":0.0308}},{"type":"Feature","id":180,"geometry":{"type":"LineString","coordinates":[[-75.12292,5.43347],[-75.1225,5.43306]]},"properties":{"nombre":"Quebrada La Cristalina","longitud_km":0.0652}},{"type":"Feature","id":181,"geometry":{"type":"LineString","coordinates":[[-75.1225,5.43306],[-75.12111,5.43306]]},"properties":{"nombre":"Quebrada La Cristalina","longitud_km":0.1539}},{"type":"Feature","id":182,"geometry":{"type":"LineString","coordinates":[[-75.1225,5.43444],[-75.12111,5.43306]]},"properties":{"nombre":"Quebrada La Cristalina","longitud_km":0.2174}},{"type":"Feature","id":183,"geometry":{"type":"LineString","coordinates":[[-75.12111,5.43306],[-75.12028,5.43306]]},"properties":{"nombre":"Quebrada La Cristalina","longitud_km":0.0923}},{"type":"Feature","id":184,"geometry":{"type":"LineString","coordinates":[[-75.1225,5.435],[-75.12028,5.43306]]},"properties":{"nombre":"Quebrada La Cristalina","longitud_km":0.3269}},{"type":"Feature","id":185,"geometry":{"type":"LineString","coordinates":[[-75.12028,5.43306],[-75.12,5.43306]]},"properties":{"nombre":"Quebrada La Cristalina","longitud_km":0.0308}},{"type":"Feature","id":186,"geometry":{"type":"LineString","coordinates":[[-75.12,5.43306],[-75.11944,5.43306]]},"properties":{"nombre":"Quebrada La Cristalina","longitud_km":0.0616}},{"type":"Feature","id":187,"geometry":{"type":"LineString","coordinates":[[-75.11944,5.43306],[-75.11889,5.43333]]},"properties":{"nombre":"Quebrada La Cristalina","longitud_km":0.0688}},{"type":"Feature","id":188,"geometry":{"type":"LineString","coordinates":[[-75.11833,5.43333],[-75.11806,5.43306]]},"properties":{"nombre":"Quebrada La Cristalina","longitud_km":0.0435}},{"type":"Feature","id":189,"geometry":{"type":"LineString","coordinates":[[-75.11806,5.43306],[-75.11694,5.43361],[-75.11639,5.43306],[-75.11556,5.43333]]},"properties":{"nombre":"Quebrada La Cristalina","longitud_km":0.3219}},{"type":"Feature","id":190,"geometry":{"type":"LineString","coordinates":[[-75.11417,5.43333],[-75.11333,5.43306]]},"properties":{"nombre":"Quebrada La Cristalina","longitud_km":0.0973}},{"type":"Feature","id":191,"geometry":{"type":"LineString","coordinates":[[-75.11444,5.43472],[-75.11333,5.43306]]},"properties":{"nombre":"Quebrada La Cristalina","longitud_km":0.2216}},{"type":"Feature","id":192,"geometry":{"type":"LineString","coordinates":[[-75.11333,5.43306],[-75.1125,5.43306]]},"properties":{"nombre":"Quebrada La Cristalina","longitud_km":0.0923}},{"type":"Feature","id":193,"geometry":{"type":"LineString","coordinates":[[-75.1125,5.43306],[-75.11194,5.43361]]},"properties":{"nombre":"Quebrada La Cristalina","longitud_km":0.087}},{"type":"Feature","id":194,"geometry":{"type":"LineString","coordinates":[[-75.11,5.43333],[-75.10917,5.43306]]},"properties":{"nombre":"Quebrada La Cristalina","longitud_km":0.0973}},{"type":"Feature","id":195,"geometry":{"type":"LineString","coordinates":[[-75.10917,5.43403],[-75.10917,5.43306]]},"properties":{"nombre":"Quebrada La Cristalina","longitud_km":0.1075}},{"type":"Feature","id":196,"geometry":{"type":"LineString","coordinates":[[-75.10014,5.43306],[-75.09972,5.43306]]},"properties":{"nombre":"Quebrada La Cristalina","longitud_km":0.0462}},{"type":"Feature","id":197,"geometry":{"type":"LineString","coordinates":[[-75.09972,5.43306],[-75.09944,5.43306]]},"properties":{"nombre":"Quebrada La Cristalina","longitud_km":0.0308}},{"type":"Feature","id":198,"geometry":{"type":"LineString","coordinates":[[-75.09944,5.43306],[-75.09889,5.43361]]},"properties":{"nombre":"Quebrada La Cristalina","longitud_km":0.087}},{"type":"Feature","id":199,"geometry":{"type":"LineString","coordinates":[[-75.09361,5.43306],[-75.09333,5.43333]]},"properties":{"nombre":"Quebrada La Cristalina","longitud_km":0.0435}},{"type":"Feature","id":200,"geometry":{"type":"LineString","coordinates":[[-75.09347,5.43292],[-75.09306,5.43333]]},"properties":{"nombre":"Quebrada La Cristalina","longitud_km":0.0652}},{"type":"Feature","id":201,"geometry":{"type":"LineString","coordinates":[[-75.13069,5.43347],[-75.12972,5.43278]]},"properties":{"nombre":"Quebrada La Cristalina","longitud_km":0.1323}},{"type":"Feature","id":202,"geometry":{"type":"LineString","coordinates":[[-75.12972,5.43278],[-75.12889,5.43278]]},"properties":{"nombre":"Quebrada La Cristalina","longitud_km":0.0923}},{"type":"Feature","id":203,"geometry":{"type":"LineString","coordinates":[[-75.12889,5.43278],[-75.12861,5.43278]]},"properties":{"nombre":"Quebrada La Cristalina","longitud_km":0.0308}},{"type":"Feature","id":204,"geometry":{"type":"LineString","coordinates":[[-75.12986,5.43375],[-75.12861,5.43278]]},"properties":{"nombre":"Quebrada La Cristalina","longitud_km":0.1753}},{"type":"Feature","id":205,"geometry":{"type":"LineString","coordinates":[[-75.12722,5.43556],[-75.12556,5.43361],[-75.12444,5.43278],[-75.12389,5.43278]]},"properties":{"nombre":"Quebrada La Cristalina","longitud_km":0.4988}},{"type":"Feature","id":206,"geometry":{"type":"LineString","coordinates":[[-75.12569,5.43514],[-75.12389,5.43278]]},"properties":{"nombre":"Quebrada La Cristalina","longitud_km":0.3289}},{"type":"Feature","id":207,"geometry":{"type":"LineString","coordinates":[[-75.11986,5.43264],[-75.11944,5.43306]]},"properties":{"nombre":"Quebrada La Cristalina","longitud_km":0.0652}},{"type":"Feature","id":208,"geometry":{"type":"LineString","coordinates":[[-75.11806,5.43278],[-75.11806,5.43306]]},"properties":{"nombre":"Quebrada La Cristalina","longitud_km":0.0307}},{"type":"Feature","id":209,"geometry":{"type":"LineString","coordinates":[[-75.11278,5.43278],[-75.1125,5.43306]]},"properties":{"nombre":"Quebrada La Cristalina","longitud_km":0.0435}},{"type":"Feature","id":210,"geometry":{"type":"LineString","coordinates":[[-75.11097,5.43264],[-75.11,5.43333]]},"properties":{"nombre":"Quebrada La Cristalina","longitud_km":0.1323}},{"type":"Feature","id":211,"geometry":{"type":"LineString","coordinates":[[-75.10958,5.43278],[-75.10917,5.43278]]},"properties":{"nombre":"Quebrada La Cristalina","longitud_km":0.0462}},{"type":"Feature","id":212,"geometry":{"type":"LineString","coordinates":[[-75.10917,5.43278],[-75.10917,5.43306]]},"properties":{"nombre":"Quebrada La Cristalina","longitud_km":0.0307}},{"type":"Feature","id":213,"geometry":{"type":"LineString","coordinates":[[-75.10917,5.43306],[-75.10889,5.43278],[-75.10778,5.43361]]},"properties":{"nombre":"Quebrada La Cristalina","longitud_km":0.1973}},{"type":"Feature","id":214,"geometry":{"type":"LineString","coordinates":[[-75.10444,5.43278],[-75.10417,5.43333]]},"properties":{"nombre":"Quebrada La Cristalina","longitud_km":0.0687}},{"type":"Feature","id":215,"geometry":{"type":"LineString","coordinates":[[-75.10389,5.43264],[-75.10389,5.43333]]},"properties":{"nombre":"Quebrada La Cristalina","longitud_km":0.0768}},{"type":"Feature","id":216,"geometry":{"type":"LineString","coordinates":[[-75.10222,5.43264],[-75.10194,5.43361]]},"properties":{"nombre":"Quebrada La Cristalina","longitud_km":0.1118}},{"type":"Feature","id":217,"geometry":{"type":"LineString","coordinates":[[-75.09778,5.43264],[-75.0975,5.43333]]},"properties":{"nombre":"Quebrada La Cristalina","longitud_km":0.0827}},{"type":"Feature","id":218,"geometry":{"type":"LineString","coordinates":[[-75.13153,5.4325],[-75.13,5.4325],[-75.12972,5.43278]]},"properties":{"nombre":"Quebrada La Cristalina","longitud_km":0.2128}},{"type":"Feature","id":219,"geometry":{"type":"LineString","coordinates":[[-75.12833,5.4325],[-75.12778,5.4325]]},"properties":{"nombre":"Quebrada La Cristalina","longitud_km":0.0616}},{"type":"Feature","id":220,"geometry":{"type":"LineString","coordinates":[[-75.12861,5.43278],[-75.12778,5.4325]]},"properties":{"nombre":"Quebrada La Cristalina","longitud_km":0.0973}},{"type":"Feature","id":221,"geometry":{"type":"LineString","coordinates":[[-75.12778,5.4325],[-75.1275,5.4325]]},"properties":{"nombre":"Quebrada La Cristalina","longitud_km":0.0308}},{"type":"Feature","id":222,"geometry":{"type":"LineString","coordinates":[[-75.12819,5.43319],[-75.1275,5.4325]]},"properties":{"nombre":"Quebrada La Cristalina","longitud_km":0.1087}},{"type":"Feature","id":223,"geometry":{"type":"LineString","coordinates":[[-75.12681,5.43375],[-75.12583,5.43278],[-75.12472,5.4325]]},"properties":{"nombre":"Quebrada La Cristalina","longitud_km":0.2791}},{"type":"Feature","id":224,"geometry":{"type":"LineString","coordinates":[[-75.12681,5.43431],[-75.12472,5.4325]]},"properties":{"nombre":"Quebrada La Cristalina","longitud_km":0.3052}},{"type":"Feature","id":225,"geometry":{"type":"LineString","coordinates":[[-75.12472,5.4325],[-75.12361,5.4325]]},"properties":{"nombre":"Quebrada La Cristalina","longitud_km":0.1231}},{"type":"Feature","id":226,"geometry":{"type":"LineString","coordinates":[[-75.12389,5.43278],[-75.12361,5.4325]]},"properties":{"nombre":"Quebrada La Cristalina","longitud_km":0.0435}},{"type":"Feature","id":227,"geometry":{"type":"LineString","coordinates":[[-75.12361,5.4325],[-75.12278,5.43306]]},"properties":{"nombre":"Quebrada La Cristalina","longitud_km":0.1109}},{"type":"Feature","id":228,"geometry":{"type":"LineString","coordinates":[[-75.12097,5.4325],[-75.12056,5.4325]]},"properties":{"nombre":"Quebrada La Cristalina","longitud_km":0.0462}},{"type":"Feature","id":229,"geometry":{"type":"LineString","coordinates":[[-75.12056,5.4325],[-75.12,5.43306]]},"properties":{"nombre":"Quebrada La Cristalina","longitud_km":0.087}},{"type":"Feature","id":230,"geometry":{"type":"LineString","coordinates":[[-75.11931,5.43236],[-75.11861,5.43306],[-75.11806,5.43306]]},"properties":{"nombre":"Quebrada La Cristalina","longitud_km":0.1703}},{"type":"Feature","id":231,"geometry":{"type":"LineString","coordinates":[[-75.10167,5.4325],[-75.10111,5.43361]]},"properties":{"nombre":"Quebrada La Cristalina","longitud_km":0.1374}},{"type":"Feature","id":232,"geometry":{"type":"LineString","coordinates":[[-75.09972,5.4325],[-75.09972,5.43306]]},"properties":{"nombre":"Quebrada La Cristalina","longitud_km":0.0614}},{"type":"Feature","id":233,"geometry":{"type":"LineString","coordinates":[[-75.09944,5.43236],[-75.09944,5.43306]]},"properties":{"nombre":"Quebrada La Cristalina","longitud_km":0.0768}},{"type":"Feature","id":234,"geometry":{"type":"LineString","coordinates":[[-75.09486,5.43236],[-75.09417,5.43306],[-75.09361,5.43306]]},"properties":{"nombre":"Quebrada La Cristalina","longitud_km":0.1703}},{"type":"Feature","id":235,"geometry":{"type":"LineString","coordinates":[[-75.12681,5.43222],[-75.12639,5.43222]]},"properties":{"nombre":"Quebrada La Cristalina","longitud_km":0.0462}},{"type":"Feature","id":236,"geometry":{"type":"LineString","coordinates":[[-75.12639,5.43222],[-75.12611,5.43222]]},"properties":{"nombre":"Quebrada La Cristalina","longitud_km":0.0308}},{"type":"Feature","id":237,"geometry":{"type":"LineString","coordinates":[[-75.12653,5.43264],[-75.12611,5.43222]]},"properties":{"nombre":"Quebrada La Cristalina","longitud_km":0.0652}},{"type":"Feature","id":238,"geometry":{"type":"LineString","coordinates":[[-75.12611,5.43222],[-75.125,5.43222]]},"properties":{"nombre":"Quebrada La Cristalina","longitud_km":0.1231}},{"type":"Feature","id":239,"geometry":{"type":"LineString","coordinates":[[-75.125,5.43222],[-75.12472,5.4325]]},"properties":{"nombre":"Quebrada La Cristalina","longitud_km":0.0435}},{"type":"Feature","id":240,"geometry":{"type":"LineString","coordinates":[[-75.115,5.43222],[-75.11472,5.43222]]},"properties":{"nombre":"Quebrada La Cristalina","longitud_km":0.0308}},{"type":"Feature","id":241,"geometry":{"type":"LineString","coordinates":[[-75.11472,5.43222],[-75.11389,5.43278],[-75.11278,5.43278]]},"properties":{"nombre":"Quebrada La Cristalina","longitud_km":0.234}},{"type":"Feature","id":242,"geometry":{"type":"LineString","coordinates":[[-75.11306,5.43222],[-75.11278,5.43278]]},"properties":{"nombre":"Quebrada La Cristalina","longitud_km":0.0687}},{"type":"Feature","id":243,"geometry":{"type":"LineString","coordinates":[[-75.12903,5.43181],[-75.12833,5.4325]]},"properties":{"nombre":"Quebrada La Cristalina","longitud_km":0.1087}},{"type":"Feature","id":244,"geometry":{"type":"LineString","coordinates":[[-75.1275,5.4325],[-75.12694,5.43194]]},"properties":{"nombre":"Quebrada La Cristalina","longitud_km":0.087}},{"type":"Feature","id":245,"geometry":{"type":"LineString","coordinates":[[-75.12694,5.43194],[-75.12667,5.43194]]},"properties":{"nombre":"Quebrada La Cristalina","longitud_km":0.0308}},{"type":"Feature","id":246,"geometry":{"type":"LineString","coordinates":[[-75.12667,5.43194],[-75.12639,5.43222]]},"properties":{"nombre":"Quebrada La Cristalina","longitud_km":0.0435}},{"type":"Feature","id":247,"geometry":{"type":"LineString","coordinates":[[-75.11889,5.43181],[-75.11889,5.43222],[-75.11806,5.43306]]},"properties":{"nombre":"Quebrada La Cristalina","longitud_km":0.1765}},{"type":"Feature","id":248,"geometry":{"type":"LineString","coordinates":[[-75.11778,5.43181],[-75.11806,5.43278]]},"properties":{"nombre":"Quebrada La Cristalina","longitud_km":0.1118}},{"type":"Feature","id":249,"geometry":{"type":"LineString","coordinates":[[-75.11222,5.43194],[-75.11083,5.43361]]},"properties":{"nombre":"Quebrada La Cristalina","longitud_km":0.2401}},{"type":"Feature","id":250,"geometry":{"type":"LineString","coordinates":[[-75.10583,5.43181],[-75.10556,5.43306],[-75.10472,5.43333]]},"properties":{"nombre":"Quebrada La Cristalina","longitud_km":0.2389}},{"type":"Feature","id":251,"geometry":{"type":"LineString","coordinates":[[-75.105,5.43194],[-75.10444,5.43278]]},"properties":{"nombre":"Quebrada La Cristalina","longitud_km":0.1108}},{"type":"Feature","id":252,"geometry":{"type":"LineString","coordinates":[[-75.09458,5.43181],[-75.09361,5.43306]]},"properties":{"nombre":"Quebrada La Cristalina","longitud_km":0.1752}},{"type":"Feature","id":253,"geometry":{"type":"LineString","coordinates":[[-75.12819,5.43153],[-75.12778,5.43194],[-75.12694,5.43194]]},"properties":{"nombre":"Quebrada La Cristalina","longitud_km":0.1576}},{"type":"Feature","id":254,"geometry":{"type":"LineString","coordinates":[[-75.12694,5.43167],[-75.12667,5.43194]]},"properties":{"nombre":"Quebrada La Cristalina","longitud_km":0.0435}},{"type":"Feature","id":255,"geometry":{"type":"LineString","coordinates":[[-75.1125,5.43153],[-75.1125,5.43306]]},"properties":{"nombre":"Quebrada La Cristalina","longitud_km":0.1689}},{"type":"Feature","id":256,"geometry":{"type":"LineString","coordinates":[[-75.13125,5.43139],[-75.13083,5.43139],[-75.12889,5.43278]]},"properties":{"nombre":"Quebrada La Cristalina","longitud_km":0.3108}},{"type":"Feature","id":257,"geometry":{"type":"LineString","coordinates":[[-75.12792,5.43125],[-75.1275,5.43167],[-75.12694,5.43167]]},"properties":{"nombre":"Quebrada La Cristalina","longitud_km":0.1268}},{"type":"Feature","id":258,"geometry":{"type":"LineString","coordinates":[[-75.12694,5.43139],[-75.12694,5.43167]]},"properties":{"nombre":"Quebrada La Cristalina","longitud_km":0.0307}},{"type":"Feature","id":259,"geometry":{"type":"LineString","coordinates":[[-75.11569,5.43125],[-75.11472,5.43222]]},"properties":{"nombre":"Quebrada La Cristalina","longitud_km":0.1522}},{"type":"Feature","id":260,"geometry":{"type":"LineString","coordinates":[[-75.11361,5.43139],[-75.11306,5.43222]]},"properties":{"nombre":"Quebrada La Cristalina","longitud_km":0.1108}},{"type":"Feature","id":261,"geometry":{"type":"LineString","coordinates":[[-75.09972,5.43125],[-75.09972,5.4325]]},"properties":{"nombre":"Quebrada La Cristalina","longitud_km":0.1382}},{"type":"Feature","id":262,"geometry":{"type":"LineString","coordinates":[[-75.12083,5.43111],[-75.12056,5.43139],[-75.12056,5.4325]]},"properties":{"nombre":"Quebrada La Cristalina","longitud_km":0.1663}},{"type":"Feature","id":263,"geometry":{"type":"LineString","coordinates":[[-75.11653,5.43097],[-75.115,5.43222]]},"properties":{"nombre":"Quebrada La Cristalina","longitud_km":0.2185}},{"type":"Feature","id":264,"geometry":{"type":"LineString","coordinates":[[-75.11361,5.43097],[-75.11361,5.43139]]},"properties":{"nombre":"Quebrada La Cristalina","longitud_km":0.0461}},{"type":"Feature","id":265,"geometry":{"type":"LineString","coordinates":[[-75.10597,5.43097],[-75.105,5.43194]]},"properties":{"nombre":"Quebrada La Cristalina","longitud_km":0.1522}},{"type":"Feature","id":266,"geometry":{"type":"LineString","coordinates":[[-75.1025,5.43111],[-75.1025,5.43306],[-75.10194,5.43361]]},"properties":{"nombre":"Quebrada La Cristalina","longitud_km":0.302}},{"type":"Feature","id":267,"geometry":{"type":"LineString","coordinates":[[-75.09806,5.43097],[-75.09778,5.43222],[-75.09667,5.43333]]},"properties":{"nombre":"Quebrada La Cristalina","longitud_km":0.3155}},{"type":"Feature","id":268,"geometry":{"type":"LineString","coordinates":[[-75.09722,5.43097],[-75.09722,5.43167],[-75.09611,5.43333]]},"properties":{"nombre":"Quebrada La Cristalina","longitud_km":0.2984}},{"type":"Feature","id":269,"geometry":{"type":"LineString","coordinates":[[-75.13028,5.43083],[-75.12833,5.4325]]},"properties":{"nombre":"Quebrada La Cristalina","longitud_km":0.2835}},{"type":"Feature","id":270,"geometry":{"type":"LineString","coordinates":[[-75.12722,5.43083],[-75.12694,5.43139]]},"properties":{"nombre":"Quebrada La Cristalina","longitud_km":0.0687}},{"type":"Feature","id":271,"geometry":{"type":"LineString","coordinates":[[-75.12528,5.43083],[-75.12556,5.43139],[-75.125,5.43222]]},"properties":{"nombre":"Quebrada La Cristalina","longitud_km":0.1795}},{"type":"Feature","id":272,"geometry":{"type":"LineString","coordinates":[[-75.12111,5.43083],[-75.12083,5.43111]]},"properties":{"nombre":"Quebrada La Cristalina","longitud_km":0.0435}},{"type":"Feature","id":273,"geometry":{"type":"LineString","coordinates":[[-75.12042,5.43069],[-75.12083,5.43111]]},"properties":{"nombre":"Quebrada La Cristalina","longitud_km":0.0652}},{"type":"Feature","id":274,"geometry":{"type":"LineString","coordinates":[[-75.1075,5.43069],[-75.1075,5.43333]]},"properties":{"nombre":"Quebrada La Cristalina","longitud_km":0.2918}},{"type":"Feature","id":275,"geometry":{"type":"LineString","coordinates":[[-75.105,5.43083],[-75.105,5.43194]]},"properties":{"nombre":"Quebrada La Cristalina","longitud_km":0.1229}},{"type":"Feature","id":276,"geometry":{"type":"LineString","coordinates":[[-75.12569,5.43042],[-75.12528,5.43083]]},"properties":{"nombre":"Quebrada La Cristalina","longitud_km":0.0652}},{"type":"Feature","id":277,"geometry":{"type":"LineString","coordinates":[[-75.10972,5.43056],[-75.10944,5.43056]]},"properties":{"nombre":"Quebrada La Cristalina","longitud_km":0.0308}},{"type":"Feature","id":278,"geometry":{"type":"LineString","coordinates":[[-75.10944,5.43056],[-75.10917,5.43083],[-75.10917,5.43278]]},"properties":{"nombre":"Quebrada La Cristalina","longitud_km":0.2585}},{"type":"Feature","id":279,"geometry":{"type":"LineString","coordinates":[[-75.10542,5.43042],[-75.105,5.43083]]},"properties":{"nombre":"Quebrada La Cristalina","longitud_km":0.0652}},{"type":"Feature","id":280,"geometry":{"type":"LineString","coordinates":[[-75.10167,5.43042],[-75.10167,5.4325]]},"properties":{"nombre":"Quebrada La Cristalina","longitud_km":0.2304}},{"type":"Feature","id":281,"geometry":{"type":"LineString","coordinates":[[-75.10139,5.43042],[-75.10139,5.43222],[-75.10167,5.4325]]},"properties":{"nombre":"Quebrada La Cristalina","longitud_km":0.2431}},{"type":"Feature","id":282,"geometry":{"type":"LineString","coordinates":[[-75.12375,5.43028],[-75.12333,5.43028]]},"properties":{"nombre":"Quebrada La Cristalina","longitud_km":0.0462}},{"type":"Feature","id":283,"geometry":{"type":"LineString","coordinates":[[-75.12333,5.43028],[-75.12222,5.43028],[-75.12111,5.43083]]},"properties":{"nombre":"Quebrada La Cristalina","longitud_km":0.2607}},{"type":"Feature","id":284,"geometry":{"type":"LineString","coordinates":[[-75.115,5.43028],[-75.11472,5.43028]]},"properties":{"nombre":"Quebrada La Cristalina","longitud_km":0.0308}},{"type":"Feature","id":285,"geometry":{"type":"LineString","coordinates":[[-75.11472,5.43028],[-75.11361,5.43139]]},"properties":{"nombre":"Quebrada La Cristalina","longitud_km":0.1739}},{"type":"Feature","id":286,"geometry":{"type":"LineString","coordinates":[[-75.11375,5.43014],[-75.11333,5.43056],[-75.11306,5.43222]]},"properties":{"nombre":"Quebrada La Cristalina","longitud_km":0.2521}},{"type":"Feature","id":287,"geometry":{"type":"LineString","coordinates":[[-75.11,5.43028],[-75.10972,5.43056]]},"properties":{"nombre":"Quebrada La Cristalina","longitud_km":0.0435}},{"type":"Feature","id":288,"geometry":{"type":"LineString","coordinates":[[-75.12694,5.42986],[-75.12694,5.43139]]},"properties":{"nombre":"Quebrada La Cristalina","longitud_km":0.1689}},{"type":"Feature","id":289,"geometry":{"type":"LineString","coordinates":[[-75.12528,5.42986],[-75.12528,5.43083]]},"properties":{"nombre":"Quebrada La Cristalina","longitud_km":0.1075}},{"type":"Feature","id":290,"geometry":{"type":"LineString","coordinates":[[-75.12361,5.43],[-75.12333,5.43028]]},"properties":{"nombre":"Quebrada La Cristalina","longitud_km":0.0435}},{"type":"Feature","id":291,"geometry":{"type":"LineString","coordinates":[[-75.12278,5.43],[-75.12167,5.43028],[-75.12111,5.43083]]},"properties":{"nombre":"Quebrada La Cristalina","longitud_km":0.2139}},{"type":"Feature","id":292,"geometry":{"type":"LineString","coordinates":[[-75.10944,5.43],[-75.10944,5.43056]]},"properties":{"nombre":"Quebrada La Cristalina","longitud_km":0.0614}},{"type":"Feature","id":293,"geometry":{"type":"LineString","coordinates":[[-75.10347,5.42986],[-75.1025,5.43111]]},"properties":{"nombre":"Quebrada La Cristalina","longitud_km":0.1752}},{"type":"Feature","id":294,"geometry":{"type":"LineString","coordinates":[[-75.10069,5.42986],[-75.10028,5.43028],[-75.1,5.43222],[-75.09972,5.4325]]},"properties":{"nombre":"Quebrada La Cristalina","longitud_km":0.3259}},{"type":"Feature","id":295,"geometry":{"type":"LineString","coordinates":[[-75.1325,5.42972],[-75.13083,5.43083],[-75.13028,5.43083]]},"properties":{"nombre":"Quebrada La Cristalina","longitud_km":0.2834}},{"type":"Feature","id":296,"geometry":{"type":"LineString","coordinates":[[-75.12917,5.42972],[-75.12694,5.43167]]},"properties":{"nombre":"Quebrada La Cristalina","longitud_km":0.3269}},{"type":"Feature","id":297,"geometry":{"type":"LineString","coordinates":[[-75.12208,5.42958],[-75.12111,5.43083]]},"properties":{"nombre":"Quebrada La Cristalina","longitud_km":0.1752}},{"type":"Feature","id":298,"geometry":{"type":"LineString","coordinates":[[-75.12111,5.42972],[-75.12083,5.43111]]},"properties":{"nombre":"Quebrada La Cristalina","longitud_km":0.1566}},{"type":"Feature","id":299,"geometry":{"type":"LineString","coordinates":[[-75.11569,5.42958],[-75.115,5.43028]]},"properties":{"nombre":"Quebrada La Cristalina","longitud_km":0.1087}},{"type":"Feature","id":300,"geometry":{"type":"LineString","coordinates":[[-75.11,5.42958],[-75.11,5.43028]]},"properties":{"nombre":"Quebrada La Cristalina","longitud_km":0.0768}},{"type":"Feature","id":301,"geometry":{"type":"LineString","coordinates":[[-75.10944,5.42972],[-75.10944,5.43]]},"properties":{"nombre":"Quebrada La Cristalina","longitud_km":0.0307}},{"type":"Feature","id":302,"geometry":{"type":"LineString","coordinates":[[-75.105,5.42972],[-75.105,5.43083]]},"properties":{"nombre":"Quebrada La Cristalina","longitud_km":0.1229}},{"type":"Feature","id":303,"geometry":{"type":"LineString","coordinates":[[-75.1025,5.42958],[-75.10278,5.43056],[-75.1025,5.43111]]},"properties":{"nombre":"Quebrada La Cristalina","longitud_km":0.1805}},{"type":"Feature","id":304,"geometry":{"type":"LineString","coordinates":[[-75.13319,5.42944],[-75.1325,5.42972]]},"properties":{"nombre":"Quebrada La Cristalina","longitud_km":0.0829}},{"type":"Feature","id":305,"geometry":{"type":"LineString","coordinates":[[-75.1325,5.42931],[-75.1325,5.42972]]},"properties":{"nombre":"Quebrada La Cristalina","longitud_km":0.0461}},{"type":"Feature","id":306,"geometry":{"type":"LineString","coordinates":[[-75.12958,5.42931],[-75.12917,5.42972]]},"properties":{"nombre":"Quebrada La Cristalina","longitud_km":0.0652}},{"type":"Feature","id":307,"geometry":{"type":"LineString","coordinates":[[-75.12111,5.42944],[-75.12111,5.42972]]},"properties":{"nombre":"Quebrada La Cristalina","longitud_km":0.0307}},{"type":"Feature","id":308,"geometry":{"type":"LineString","coordinates":[[-75.11861,5.42931],[-75.11861,5.43028],[-75.11806,5.43083],[-75.11806,5.43278]]},"properties":{"nombre":"Quebrada La Cristalina","longitud_km":0.4095}},{"type":"Feature","id":309,"geometry":{"type":"LineString","coordinates":[[-75.10944,5.42944],[-75.10944,5.42972]]},"properties":{"nombre":"Quebrada La Cristalina","longitud_km":0.0307}},{"type":"Feature","id":310,"geometry":{"type":"LineString","coordinates":[[-75.10542,5.42931],[-75.105,5.42972]]},"properties":{"nombre":"Quebrada La Cristalina","longitud_km":0.0652}},{"type":"Feature","id":311,"geometry":{"type":"LineString","coordinates":[[-75.13069,5.42903],[-75.12972,5.42972],[-75.12917,5.42972]]},"properties":{"nombre":"Quebrada La Cristalina","longitud_km":0.1938}},{"type":"Feature","id":312,"geometry":{"type":"LineString","coordinates":[[-75.12903,5.42903],[-75.12722,5.43083]]},"properties":{"nombre":"Quebrada La Cristalina","longitud_km":0.2826}},{"type":"Feature","id":313,"geometry":{"type":"LineString","coordinates":[[-75.12111,5.42917],[-75.12111,5.42944]]},"properties":{"nombre":"Quebrada La Cristalina","longitud_km":0.0307}},{"type":"Feature","id":314,"geometry":{"type":"LineString","coordinates":[[-75.11153,5.42903],[-75.11,5.43028]]},"properties":{"nombre":"Quebrada La Cristalina","longitud_km":0.2185}},{"type":"Feature","id":315,"geometry":{"type":"LineString","coordinates":[[-75.11014,5.42903],[-75.10972,5.42944],[-75.10972,5.43028],[-75.10944,5.43056]]},"properties":{"nombre":"Quebrada La Cristalina","longitud_km":0.2009}},{"type":"Feature","id":316,"geometry":{"type":"LineString","coordinates":[[-75.10847,5.42903],[-75.10944,5.43]]},"properties":{"nombre":"Quebrada La Cristalina","longitud_km":0.1522}},{"type":"Feature","id":317,"geometry":{"type":"LineString","coordinates":[[-75.10472,5.42917],[-75.10444,5.43],[-75.10472,5.43083],[-75.10444,5.43278]]},"properties":{"nombre":"Quebrada La Cristalina","longitud_km":0.4115}},{"type":"Feature","id":318,"geometry":{"type":"LineString","coordinates":[[-75.13236,5.42875],[-75.13028,5.43083]]},"properties":{"nombre":"Quebrada La Cristalina","longitud_km":0.3261}},{"type":"Feature","id":319,"geometry":{"type":"LineString","coordinates":[[-75.12306,5.42889],[-75.12278,5.43]]},"properties":{"nombre":"Quebrada La Cristalina","longitud_km":0.1267}},{"type":"Feature","id":320,"geometry":{"type":"LineString","coordinates":[[-75.10944,5.42889],[-75.10944,5.42944]]},"properties":{"nombre":"Quebrada La Cristalina","longitud_km":0.0614}},{"type":"Feature","id":321,"geometry":{"type":"LineString","coordinates":[[-75.10431,5.42875],[-75.10472,5.42917]]},"properties":{"nombre":"Quebrada La Cristalina","longitud_km":0.0652}},{"type":"Feature","id":322,"geometry":{"type":"LineString","coordinates":[[-75.12861,5.42847],[-75.12861,5.42889],[-75.12722,5.43083]]},"properties":{"nombre":"Quebrada La Cristalina","longitud_km":0.3105}},{"type":"Feature","id":323,"geometry":{"type":"LineString","coordinates":[[-75.12111,5.42847],[-75.12111,5.42917]]},"properties":{"nombre":"Quebrada La Cristalina","longitud_km":0.0768}},{"type":"Feature","id":324,"geometry":{"type":"LineString","coordinates":[[-75.11292,5.42847],[-75.1125,5.42889],[-75.1125,5.42944],[-75.11167,5.43028],[-75.11111,5.43056],[-75.10972,5.43056]]},"properties":{"nombre":"Quebrada La Cristalina","longitud_km":0.4798}},{"type":"Feature","id":325,"geometry":{"type":"LineString","coordinates":[[-75.12681,5.42819],[-75.125,5.42972],[-75.12361,5.43]]},"properties":{"nombre":"Quebrada La Cristalina","longitud_km":0.4188}},{"type":"Feature","id":326,"geometry":{"type":"LineString","coordinates":[[-75.12597,5.42819],[-75.12528,5.42889],[-75.12472,5.42889],[-75.12361,5.43]]},"properties":{"nombre":"Quebrada La Cristalina","longitud_km":0.3442}},{"type":"Feature","id":327,"geometry":{"type":"LineString","coordinates":[[-75.12375,5.42819],[-75.12306,5.42889]]},"properties":{"nombre":"Quebrada La Cristalina","longitud_km":0.1087}},{"type":"Feature","id":328,"geometry":{"type":"LineString","coordinates":[[-75.12306,5.42819],[-75.12306,5.42889]]},"properties":{"nombre":"Quebrada La Cristalina","longitud_km":0.0768}},{"type":"Feature","id":329,"geometry":{"type":"LineString","coordinates":[[-75.12194,5.42833],[-75.12111,5.42944]]},"properties":{"nombre":"Quebrada La Cristalina","longitud_km":0.1537}},{"type":"Feature","id":330,"geometry":{"type":"LineString","coordinates":[[-75.11806,5.42833],[-75.11778,5.42861],[-75.11778,5.42944],[-75.11722,5.42972],[-75.115,5.43222]]},"properties":{"nombre":"Quebrada La Cristalina","longitud_km":0.5746}},{"type":"Feature","id":331,"geometry":{"type":"LineString","coordinates":[[-75.10944,5.42833],[-75.10944,5.42889]]},"properties":{"nombre":"Quebrada La Cristalina","longitud_km":0.0614}},{"type":"Feature","id":332,"geometry":{"type":"LineString","coordinates":[[-75.10764,5.42833],[-75.10806,5.42833],[-75.10944,5.42972]]},"properties":{"nombre":"Quebrada La Cristalina","longitud_km":0.2636}},{"type":"Feature","id":333,"geometry":{"type":"LineString","coordinates":[[-75.11486,5.42792],[-75.11528,5.42833],[-75.11528,5.42889],[-75.11472,5.42944],[-75.11472,5.43028]]},"properties":{"nombre":"Quebrada La Cristalina","longitud_km":0.3058}},{"type":"Feature","id":334,"geometry":{"type":"LineString","coordinates":[[-75.12194,5.42764],[-75.12194,5.42833]]},"properties":{"nombre":"Quebrada La Cristalina","longitud_km":0.0768}},{"type":"Feature","id":335,"geometry":{"type":"LineString","coordinates":[[-75.12042,5.42764],[-75.12,5.42833],[-75.12111,5.42972]]},"properties":{"nombre":"Quebrada La Cristalina","longitud_km":0.2864}},{"type":"Feature","id":336,"geometry":{"type":"LineString","coordinates":[[-75.11806,5.42764],[-75.11806,5.42833]]},"properties":{"nombre":"Quebrada La Cristalina","longitud_km":0.0768}},{"type":"Feature","id":337,"geometry":{"type":"LineString","coordinates":[[-75.11069,5.42778],[-75.11028,5.42778],[-75.10944,5.42889]]},"properties":{"nombre":"Quebrada La Cristalina","longitud_km":0.1999}},{"type":"Feature","id":338,"geometry":{"type":"LineString","coordinates":[[-75.10917,5.42778],[-75.10944,5.42833]]},"properties":{"nombre":"Quebrada La Cristalina","longitud_km":0.0687}},{"type":"Feature","id":339,"geometry":{"type":"LineString","coordinates":[[-75.10806,5.42764],[-75.10806,5.42806],[-75.10944,5.42944]]},"properties":{"nombre":"Quebrada La Cristalina","longitud_km":0.2635}},{"type":"Feature","id":340,"geometry":{"type":"LineString","coordinates":[[-75.11931,5.42736],[-75.11806,5.42833]]},"properties":{"nombre":"Quebrada La Cristalina","longitud_km":0.1753}},{"type":"Feature","id":341,"geometry":{"type":"LineString","coordinates":[[-75.10917,5.42736],[-75.10917,5.42778]]},"properties":{"nombre":"Quebrada La Cristalina","longitud_km":0.0461}},{"type":"Feature","id":342,"geometry":{"type":"LineString","coordinates":[[-75.105,5.42736],[-75.10472,5.42917]]},"properties":{"nombre":"Quebrada La Cristalina","longitud_km":0.202}},{"type":"Feature","id":343,"geometry":{"type":"LineString","coordinates":[[-75.1225,5.42708],[-75.1225,5.42778],[-75.12194,5.42833]]},"properties":{"nombre":"Quebrada La Cristalina","longitud_km":0.1638}},{"type":"Feature","id":344,"geometry":{"type":"LineString","coordinates":[[-75.12139,5.42708],[-75.12139,5.42889],[-75.12111,5.42917]]},"properties":{"nombre":"Quebrada La Cristalina","longitud_km":0.2431}},{"type":"Feature","id":345,"geometry":{"type":"LineString","coordinates":[[-75.10861,5.42722],[-75.10917,5.42778]]},"properties":{"nombre":"Quebrada La Cristalina","longitud_km":0.087}},{"type":"Feature","id":346,"geometry":{"type":"LineString","coordinates":[[-75.10819,5.42722],[-75.10861,5.42722]]},"properties":{"nombre":"Quebrada La Cristalina","longitud_km":0.0462}},{"type":"Feature","id":347,"geometry":{"type":"LineString","coordinates":[[-75.12472,5.42681],[-75.12444,5.42806],[-75.12361,5.42889],[-75.12361,5.42944],[-75.12278,5.43]]},"properties":{"nombre":"Quebrada La Cristalina","longitud_km":0.4444}},{"type":"Feature","id":348,"geometry":{"type":"LineString","coordinates":[[-75.11667,5.42694],[-75.11583,5.42778],[-75.11583,5.42861],[-75.115,5.42972],[-75.115,5.43028]]},"properties":{"nombre":"Quebrada La Cristalina","longitud_km":0.4377}},{"type":"Feature","id":349,"geometry":{"type":"LineString","coordinates":[[-75.10819,5.42681],[-75.10861,5.42722]]},"properties":{"nombre":"Quebrada La Cristalina","longitud_km":0.0652}},{"type":"Feature","id":350,"geometry":{"type":"LineString","coordinates":[[-75.11819,5.42639],[-75.11667,5.42694]]},"properties":{"nombre":"Quebrada La Cristalina","longitud_km":0.1801}},{"type":"Feature","id":351,"geometry":{"type":"LineString","coordinates":[[-75.10972,5.42639],[-75.10944,5.42833]]},"properties":{"nombre":"Quebrada La Cristalina","longitud_km":0.2172}},{"type":"Feature","id":352,"geometry":{"type":"LineString","coordinates":[[-75.11403,5.42611],[-75.11361,5.42611]]},"properties":{"nombre":"Quebrada La Cristalina","longitud_km":0.0462}},{"type":"Feature","id":353,"geometry":{"type":"LineString","coordinates":[[-75.11361,5.42611],[-75.1125,5.42611]]},"properties":{"nombre":"Quebrada La Cristalina","longitud_km":0.1231}},{"type":"Feature","id":354,"geometry":{"type":"LineString","coordinates":[[-75.1125,5.42611],[-75.11194,5.42611]]},"properties":{"nombre":"Quebrada La Cristalina","longitud_km":0.0616}},{"type":"Feature","id":355,"geometry":{"type":"LineString","coordinates":[[-75.11292,5.42639],[-75.11194,5.42611]]},"properties":{"nombre":"Quebrada La Cristalina","longitud_km":0.112}},{"type":"Feature","id":356,"geometry":{"type":"LineString","coordinates":[[-75.11,5.42611],[-75.10972,5.42639]]},"properties":{"nombre":"Quebrada La Cristalina","longitud_km":0.0435}},{"type":"Feature","id":357,"geometry":{"type":"LineString","coordinates":[[-75.10653,5.42597],[-75.10611,5.42639],[-75.10639,5.4275],[-75.105,5.42917],[-75.105,5.42972]]},"properties":{"nombre":"Quebrada La Cristalina","longitud_km":0.4934}},{"type":"Feature","id":358,"geometry":{"type":"LineString","coordinates":[[-75.11667,5.42569],[-75.11667,5.42694]]},"properties":{"nombre":"Quebrada La Cristalina","longitud_km":0.1382}},{"type":"Feature","id":359,"geometry":{"type":"LineString","coordinates":[[-75.11514,5.42583],[-75.11389,5.42583]]},"properties":{"nombre":"Quebrada La Cristalina","longitud_km":0.1385}},{"type":"Feature","id":360,"geometry":{"type":"LineString","coordinates":[[-75.11389,5.42583],[-75.11361,5.42611]]},"properties":{"nombre":"Quebrada La Cristalina","longitud_km":0.0435}},{"type":"Feature","id":361,"geometry":{"type":"LineString","coordinates":[[-75.11319,5.42583],[-75.1125,5.42611]]},"properties":{"nombre":"Quebrada La Cristalina","longitud_km":0.0829}},{"type":"Feature","id":362,"geometry":{"type":"LineString","coordinates":[[-75.11194,5.42611],[-75.11139,5.42667],[-75.11028,5.42583]]},"properties":{"nombre":"Quebrada La Cristalina","longitud_km":0.2408}},{"type":"Feature","id":363,"geometry":{"type":"LineString","coordinates":[[-75.11028,5.42583],[-75.11,5.42611]]},"properties":{"nombre":"Quebrada La Cristalina","longitud_km":0.0435}},{"type":"Feature","id":364,"geometry":{"type":"LineString","coordinates":[[-75.10958,5.42583],[-75.11,5.42583],[-75.11,5.42611]]},"properties":{"nombre":"Quebrada La Cristalina","longitud_km":0.0769}},{"type":"Feature","id":365,"geometry":{"type":"LineString","coordinates":[[-75.11792,5.42556],[-75.11722,5.42583],[-75.11722,5.42639],[-75.11667,5.42694]]},"properties":{"nombre":"Quebrada La Cristalina","longitud_km":0.2312}},{"type":"Feature","id":366,"geometry":{"type":"LineString","coordinates":[[-75.10889,5.42556],[-75.10972,5.42639]]},"properties":{"nombre":"Quebrada La Cristalina","longitud_km":0.1304}},{"type":"Feature","id":367,"geometry":{"type":"LineString","coordinates":[[-75.11431,5.42514],[-75.11389,5.42583]]},"properties":{"nombre":"Quebrada La Cristalina","longitud_km":0.0896}},{"type":"Feature","id":368,"geometry":{"type":"LineString","coordinates":[[-75.11236,5.42514],[-75.11194,5.42556],[-75.11194,5.42611]]},"properties":{"nombre":"Quebrada La Cristalina","longitud_km":0.1267}},{"type":"Feature","id":369,"geometry":{"type":"LineString","coordinates":[[-75.11056,5.425],[-75.11028,5.42583]]},"properties":{"nombre":"Quebrada La Cristalina","longitud_km":0.0971}},{"type":"Feature","id":370,"geometry":{"type":"LineString","coordinates":[[-75.11153,5.42472],[-75.11056,5.425]]},"properties":{"nombre":"Quebrada La Cristalina","longitud_km":0.112}},{"type":"Feature","id":371,"geometry":{"type":"LineString","coordinates":[[-75.11056,5.42472],[-75.11056,5.425]]},"properties":{"nombre":"Quebrada La Cristalina","longitud_km":0.0307}},{"type":"Feature","id":372,"geometry":{"type":"LineString","coordinates":[[-75.10861,5.42431],[-75.10889,5.42556]]},"properties":{"nombre":"Quebrada La Cristalina","longitud_km":0.1416}},{"type":"Feature","id":373,"geometry":{"type":"LineString","coordinates":[[-75.11083,5.42403],[-75.11056,5.42472]]},"properties":{"nombre":"Quebrada La Cristalina","longitud_km":0.0827}},{"type":"Feature","id":374,"geometry":{"type":"LineString","coordinates":[[-75.10708,5.42403],[-75.10889,5.42556]]},"properties":{"nombre":"Quebrada La Cristalina","longitud_km":0.2619}},{"type":"Feature","id":375,"geometry":{"type":"LineString","coordinates":[[-75.11056,5.42375],[-75.11056,5.42472]]},"properties":{"nombre":"Quebrada La Cristalina","longitud_km":0.1075}},{"type":"Feature","id":376,"geometry":{"type":"LineString","coordinates":[[-75.10708,5.42347],[-75.10889,5.42556]]},"properties":{"nombre":"Quebrada La Cristalina","longitud_km":0.3051}}]}