{"type":"FeatureCollection","features":[{"type":"Feature","id":0,"geometry":{"type":"MultiLineString","coordinates":[[[-75.09889,5.43736],[-75.09889,5.43833]],[[-75.09931,5.43792],[-75.09889,5.43833]],[[-75.09889,5.43833],[-75.09806,5.43972]],[[-75.10292,5.43861],[-75.1025,5.43861],[-75.10194,5.43917]],[[-75.09625,5.43875],[-75.09417,5.44083]],[[-75.10014,5.43903],[-75.09972,5.43944]],[[-75.10194,5.43917],[-75.09972,5.43944]],[[-75.10264,5.43917],[-75.10194,5.43917]],[[-75.08903,5.43931],[-75.08833,5.44],[-75.08833,5.44194],[-75.0875,5.44278]],[[-75.09972,5.43944],[-75.09889,5.43972]],[[-75.11347,5.43944],[-75.11306,5.43944],[-75.11194,5.44056]],[[-75.10236,5.43958],[-75.10194,5.43917]],[[-75.10958,5.43958],[-75.10833,5.44083]],[[-75.09806,5.43972],[-75.09639,5.44083]],[[-75.09889,5.43972],[-75.09806,5.43972]],[[-75.10903,5.43986],[-75.10833,5.44056]],[[-75.11181,5.43986],[-75.11139,5.44056]],[[-75.11194,5.43986],[-75.11167,5.44056]],[[-75.09042,5.44],[-75.09,5.44],[-75.08861,5.44139]],[[-75.09917,5.44],[-75.09889,5.43972]],[[-75.09986,5.44],[-75.09917,5.44]],[[-75.09236,5.44014],[-75.09194,5.44056]],[[-75.09403,5.44014],[-75.09333,5.44083]],[[-75.10792,5.44014],[-75.10833,5.44056]],[[-75.09569,5.44042],[-75.09528,5.44083]],[[-75.09681,5.44042],[-75.09639,5.44083]],[[-75.10528,5.44042],[-75.10528,5.44139],[-75.10556,5.44167]],[[-75.10556,5.44042],[-75.10556,5.44167]],[[-75.10903,5.44042],[-75.10833,5.44111]],[[-75.09194,5.44056],[-75.09167,5.44083],[-75.09056,5.44056],[-75.08944,5.44167]],[[-75.10833,5.44056],[-75.10833,5.44083]],[[-75.11139,5.44056],[-75.11056,5.44139]],[[-75.11167,5.44056],[-75.11139,5.44056]],[[-75.11194,5.44056],[-75.11167,5.44056]],[[-75.11542,5.44056],[-75.11389,5.44056],[-75.11361,5.44083]],[[-75.10292,5.44069],[-75.10139,5.44194]],[[-75.09278,5.44083],[-75.09194,5.44056]],[[-75.09306,5.44083],[-75.09278,5.44083]],[[-75.09333,5.44083],[-75.09306,5.44083]],[[-75.09417,5.44083],[-75.09333,5.44083]],[[-75.095,5.44083],[-75.09417,5.44083]],[[-75.09528,5.44083],[-75.095,5.44083]],[[-75.09639,5.44083],[-75.09528,5.44083]],[[-75.10028,5.44083],[-75.09917,5.44]],[[-75.10069,5.44083],[-75.10028,5.44083]],[[-75.10833,5.44083],[-75.10833,5.44111]],[[-75.11361,5.44083],[-75.11278,5.44111],[-75.11194,5.44056]],[[-75.11417,5.44083],[-75.11361,5.44083]],[[-75.11486,5.44083],[-75.11417,5.44083]],[[-75.08861,5.44097],[-75.08861,5.44139]],[[-75.09403,5.44111],[-75.09306,5.44083]],[[-75.09639,5.44111],[-75.09528,5.44111],[-75.095,5.44083]],[[-75.09667,5.44111],[-75.09639,5.44111]],[[-75.09694,5.44111],[-75.09667,5.44111]],[[-75.10833,5.44111],[-75.10778,5.44167]],[[-75.11611,5.44111],[-75.11444,5.44111],[-75.11417,5.44083]],[[-75.09014,5.44125],[-75.08972,5.44167]],[[-75.09278,5.44125],[-75.09278,5.44083]],[[-75.09306,5.44125],[-75.09306,5.44083]],[[-75.10111,5.44125],[-75.10111,5.44167]],[[-75.08861,5.44139],[-75.08861,5.44194],[-75.0875,5.44278]],[[-75.11056,5.44139],[-75.10944,5.44222]],[[-75.11097,5.44139],[-75.11056,5.44139]],[[-75.11833,5.44139],[-75.11778,5.44111],[-75.11611,5.44111]],[[-75.11875,5.44139],[-75.11833,5.44139]],[[-75.09708,5.44153],[-75.09667,5.44111]],[[-75.10764,5.44153],[-75.10722,5.44194]],[[-75.08944,5.44167],[-75.08889,5.44222]],[[-75.08972,5.44167],[-75.08944,5.44167]],[[-75.09042,5.44167],[-75.08972,5.44167]],[[-75.10111,5.44167],[-75.10028,5.44083]],[[-75.10556,5.44167],[-75.105,5.4425]],[[-75.10778,5.44167],[-75.10722,5.44194]],[[-75.09875,5.44181],[-75.09806,5.44111],[-75.09694,5.44111]],[[-75.09097,5.44194],[-75.08944,5.44194],[-75.08889,5.44222]],[[-75.10139,5.44194],[-75.10111,5.44167]],[[-75.10722,5.44194],[-75.10667,5.4425]],[[-75.10833,5.44194],[-75.10778,5.44167]],[[-75.10931,5.44194],[-75.10861,5.44167],[-75.10833,5.44194]],[[-75.11931,5.44194],[-75.11889,5.44194],[-75.11833,5.44139]],[[-75.11847,5.44208],[-75.1175,5.44139],[-75.11639,5.44139],[-75.11611,5.44111]],[[-75.08889,5.44222],[-75.08833,5.44278]],[[-75.10167,5.44222],[-75.10139,5.44194]],[[-75.10194,5.44222],[-75.10167,5.44222]],[[-75.10264,5.44222],[-75.10194,5.44222]],[[-75.10944,5.44222],[-75.10861,5.44222],[-75.10833,5.44194]],[[-75.10139,5.44236],[-75.10139,5.44194]],[[-75.10194,5.4425],[-75.10167,5.44222]],[[-75.105,5.4425],[-75.10417,5.44278]],[[-75.10528,5.4425],[-75.105,5.4425]],[[-75.10556,5.4425],[-75.10528,5.4425]],[[-75.10667,5.4425],[-75.10556,5.4425]],[[-75.11139,5.4425],[-75.10944,5.44222]],[[-75.11403,5.4425],[-75.11306,5.44278]],[[-75.09931,5.44264],[-75.09806,5.44139],[-75.09722,5.44139],[-75.09694,5.44111]],[[-75.0875,5.44278],[-75.08722,5.44306]],[[-75.08833,5.44278],[-75.08806,5.44306]],[[-75.08889,5.44278],[-75.08833,5.44278]],[[-75.09042,5.44278],[-75.08889,5.44278]],[[-75.10222,5.44278],[-75.10194,5.4425]],[[-75.10306,5.44278],[-75.1025,5.44278],[-75.10194,5.44222]],[[-75.10333,5.44278],[-75.10306,5.44278]],[[-75.10417,5.44278],[-75.10333,5.44278]],[[-75.10583,5.44278],[-75.10556,5.4425]],[[-75.10653,5.44278],[-75.10583,5.44278]],[[-75.11167,5.44278],[-75.11139,5.4425]],[[-75.11306,5.44278],[-75.11139,5.4425]],[[-75.11444,5.44278],[-75.11306,5.44278]],[[-75.11542,5.44278],[-75.11444,5.44278]],[[-75.08722,5.44306],[-75.08681,5.44292]],[[-75.08806,5.44306],[-75.08722,5.44306]],[[-75.09028,5.44306],[-75.08917,5.44306],[-75.08889,5.44278]],[[-75.09097,5.44306],[-75.09028,5.44306]],[[-75.11514,5.44306],[-75.11444,5.44278]],[[-75.10083,5.44319],[-75.10111,5.44167]],[[-75.10194,5.44319],[-75.10194,5.4425]],[[-75.10417,5.44319],[-75.10417,5.44278]],[[-75.11236,5.44319],[-75.11167,5.44278]],[[-75.08875,5.44347],[-75.08806,5.44306]],[[-75.09069,5.44347],[-75.09028,5.44306]],[[-75.09903,5.44347],[-75.09861,5.44306],[-75.09806,5.44306],[-75.09639,5.44111]],[[-75.10361,5.44347],[-75.10333,5.44278]],[[-75.10611,5.44347],[-75.10583,5.44278]],[[-75.11375,5.44347],[-75.11306,5.44278]],[[-75.10833,5.44361],[-75.1075,5.44278],[-75.10667,5.4425]],[[-75.10583,5.44375],[-75.10583,5.44278]],[[-75.10278,5.44389],[-75.10222,5.44278]],[[-75.11014,5.44403],[-75.10972,5.44361],[-75.10833,5.44361]],[[-75.11236,5.44403],[-75.11167,5.44278]],[[-75.10861,5.44431],[-75.10833,5.44361]],[[-75.10528,5.44458],[-75.10528,5.4425]],[[-75.10306,5.44514],[-75.10306,5.44417],[-75.10278,5.44389]],[[-75.10597,5.44514],[-75.10556,5.44472],[-75.10556,5.44278],[-75.10528,5.4425]],[[-75.10194,5.44542],[-75.10222,5.44278]],[[-75.10333,5.44542],[-75.10333,5.44306],[-75.10306,5.44278]],[[-75.10222,5.44597],[-75.10222,5.44556],[-75.10278,5.445],[-75.10278,5.44389]]]},"properties":{"nombre":"Quebrada Santa Teresa","longitud_km":16.371}}]}