{"type":"FeatureCollection","features":[{"type":"Feature","id":0,"geometry":{"type":"LineString","coordinates":[[-75.09698,5.49987],[-75.09629,5.50021],[-75.09486,5.50055],[-75.09308,5.50055],[-75.09033,5.50008],[-75.08839,5.49938],[-75.08633,5.49817],[-75.0841,5.49747],[-75.0831,5.49661],[-75.08185,5.49286],[-75.08247,5.49115],[-75.08223,5.49005],[-75.08226,5.48926],[-75.08161,5.48742],[-75.08191,5.48484],[-75.08346,5.48312],[-75.0861,5.48262],[-75.08688,5.48203],[-75.08762,5.48074],[-75.08765,5.48006],[-75.08724,5.47842],[-75.0874,5.47608],[-75.08785,5.47548],[-75.08917,5.47474],[-75.08911,5.47437],[-75.0884,5.47321],[-75.08864,5.47204],[-75.08852,5.47163],[-75.08776,5.47094],[-75.08761,5.47038],[-75.08763,5.46837],[-75.08824,5.46684],[-75.08811,5.46512],[-75.0878,5.46423],[-75.08679,5.4626],[-75.08617,5.46088],[-75.08666,5.45885],[-75.08597,5.45741],[-75.08598,5.45586],[-75.08634,5.45482],[-75.08631,5.45386],[-75.08513,5.45219],[-75.08456,5.45208],[-75.08428,5.45169],[-75.08453,5.45088],[-75.08536,5.45033],[-75.08572,5.44941],[-75.08691,5.44766],[-75.08725,5.4469],[-75.08743,5.44585],[-75.08601,5.4426],[-75.08577,5.44232],[-75.08313,5.4408],[-75.08245,5.44019],[-75.08212,5.43973],[-75.08197,5.43868],[-75.0821,5.43812],[-75.08328,5.43689],[-75.08363,5.43614],[-75.08342,5.435],[-75.08273,5.43348],[-75.08274,5.43265],[-75.0831,5.43209],[-75.08514,5.43117],[-75.08545,5.4308],[-75.08557,5.42933],[-75.08547,5.42893],[-75.085,5.42838],[-75.082,5.42621],[-75.08126,5.42543],[-75.08098,5.4249],[-75.08092,5.42442],[-75.08175,5.42284],[-75.08196,5.42188],[-75.08126,5.42048],[-75.07993,5.41937],[-75.07975,5.41888],[-75.07974,5.41687],[-75.07864,5.4147],[-75.07891,5.41332],[-75.07845,5.4119],[-75.07845,5.4108],[-75.07958,5.40729],[-75.0797,5.40643],[-75.07967,5.406],[-75.0788,5.40458],[-75.0784,5.40265],[-75.07751,5.40163],[-75.07601,5.40047],[-75.07498,5.3989],[-75.0743,5.39841],[-75.07379,5.39767],[-75.07293,5.39708],[-75.07228,5.3968],[-75.07141,5.39678],[-75.07005,5.39602],[-75.06862,5.39592],[-75.06789,5.3967],[-75.06709,5.39692],[-75.06411,5.3966],[-75.06325,5.39626],[-75.06209,5.39676],[-75.06029,5.39672],[-75.05917,5.39693],[-75.05834,5.39661],[-75.05791,5.39661],[-75.05682,5.39795],[-75.05539,5.39817],[-75.05478,5.39792],[-75.05343,5.39722],[-75.05141,5.39581],[-75.05042,5.39408],[-75.05018,5.39251],[-75.05022,5.39087],[-75.05065,5.39037],[-75.05083,5.38976],[-75.05083,5.38904],[-75.05047,5.38836],[-75.04777,5.38626],[-75.04651,5.3862],[-75.0444,5.38567],[-75.03982,5.38324],[-75.03929,5.38274],[-75.03864,5.38138],[-75.03778,5.38034],[-75.03699,5.3797],[-75.03552,5.37704],[-75.03516,5.37622],[-75.03512,5.37554],[-75.03541,5.37439],[-75.03587,5.37381],[-75.03652,5.37352],[-75.03691,5.37309],[-75.03726,5.37148],[-75.03823,5.37051],[-75.03834,5.36983],[-75.03876,5.36911],[-75.0413,5.36663],[-75.04302,5.36422],[-75.04395,5.3626],[-75.04398,5.36199],[-75.04334,5.35815]]},"properties":{"nombre":"Río Tenerife","longitud_km":23.0364}}]}