{"type":"FeatureCollection","features":[{"type":"Feature","id":0,"geometry":{"type":"Polygon","coordinates":[[[-75.09458,5.44208],[-75.0963,5.44237],[-75.09769,5.44294],[-75.10087,5.44555],[-75.10193,5.44698],[-75.10161,5.44732],[-75.09944,5.44764],[-75.09796,5.44742],[-75.09498,5.44804],[-75.09392,5.44868],[-75.09278,5.44851],[-75.09104,5.44877],[-75.0897,5.44807],[-75.08807,5.44665],[-75.08724,5.44631],[-75.08748,5.44609],[-75.08878,5.44582],[-75.08998,5.44426],[-75.09234,5.44307],[-75.09379,5.44276],[-75.09458,5.44208]]]},"properties":{"nombre":"Quebrada Honda","area_ha":69.9696}}]}