{"type":"FeatureCollection","features":[{"type":"Feature","id":0,"geometry":{"type":"Polygon","coordinates":[[[-75.10681,5.42181],[-75.10895,5.42281],[-75.11104,5.42273],[-75.11359,5.42421],[-75.115,5.42417],[-75.11556,5.42388],[-75.11642,5.42474],[-75.11835,5.42471],[-75.11984,5.42549],[-75.12568,5.42589],[-75.12722,5.42695],[-75.12999,5.42778],[-75.13243,5.42812],[-75.13361,5.42721],[-75.13428,5.42757],[-75.13383,5.42969],[-75.13305,5.43083],[-75.13278,5.43167],[-75.13161,5.43396],[-75.12981,5.4348],[-75.12752,5.43727],[-75.12491,5.43724],[-75.12256,5.43969],[-75.12161,5.44031],[-75.12081,5.44113],[-75.12022,5.4411],[-75.11917,5.44055],[-75.11777,5.44028],[-75.11527,5.43945],[-75.11307,5.43838],[-75.1071,5.43919],[-75.10503,5.43911],[-75.10354,5.43808],[-75.10096,5.43779],[-75.09935,5.43668],[-75.09675,5.43755],[-75.09473,5.43911],[-75.09206,5.43977],[-75.08954,5.43911],[-75.08799,5.43917],[-75.08694,5.43973],[-75.08622,5.43935],[-75.08528,5.43638],[-75.0844,5.43489],[-75.0831,5.43368],[-75.08505,5.43303],[-75.08589,5.43306],[-75.08698,5.43364],[-75.08791,5.4336],[-75.08981,5.43215],[-75.09361,5.43083],[-75.09667,5.43028],[-75.09934,5.42938],[-75.10027,5.42888],[-75.10196,5.42848],[-75.10277,5.42805],[-75.10332,5.42807],[-75.10421,5.42746],[-75.10505,5.42576],[-75.10639,5.42452],[-75.10681,5.42181]]]},"properties":{"nombre":"Quebrada la Cristalina","area_ha":647.9614}}]}