{"type":"FeatureCollection","features":[{"type":"Feature","id":0,"geometry":{"type":"Polygon","coordinates":[[[-75.13486,5.42514],[-75.13556,5.42527],[-75.13672,5.42588],[-75.13748,5.42667],[-75.14111,5.4275],[-75.14174,5.42782],[-75.14513,5.42779],[-75.14639,5.42694],[-75.14709,5.42696],[-75.14805,5.42823],[-75.14662,5.43034],[-75.14585,5.43108],[-75.145,5.4325],[-75.14441,5.43307],[-75.1436,5.43305],[-75.14304,5.43363],[-75.14194,5.43416],[-75.14075,5.4354],[-75.13917,5.43861],[-75.13805,5.44],[-75.13769,5.44187],[-75.13679,5.44391],[-75.13549,5.44476],[-75.13473,5.44556],[-75.13244,5.44593],[-75.13194,5.44696],[-75.13041,5.4477],[-75.12924,5.44949],[-75.12878,5.45091],[-75.12748,5.45252],[-75.12751,5.45442],[-75.12673,5.45636],[-75.12508,5.45794],[-75.12351,5.45845],[-75.12078,5.46081],[-75.11973,5.45972],[-75.11806,5.45863],[-75.1175,5.45777],[-75.11692,5.45749],[-75.11618,5.45751],[-75.11308,5.45969],[-75.11256,5.46023],[-75.1094,5.45945],[-75.10749,5.4601],[-75.10472,5.46055],[-75.10319,5.46131],[-75.10056,5.46195],[-75.10025,5.46194],[-75.09867,5.46113],[-75.09694,5.46244],[-75.09481,5.46073],[-75.0922,5.45944],[-75.09131,5.45851],[-75.09024,5.45688],[-75.08943,5.4561],[-75.08888,5.45498],[-75.08584,5.45222],[-75.08503,5.45183],[-75.08726,5.4511],[-75.08875,5.4511],[-75.09139,5.44889],[-75.09201,5.44858],[-75.0939,5.44862],[-75.095,5.44805],[-75.09782,5.44749],[-75.10016,5.44753],[-75.10311,5.44693],[-75.10424,5.44575],[-75.10639,5.44611],[-75.10802,5.44527],[-75.1094,5.4453],[-75.11,5.445],[-75.11177,5.44456],[-75.11322,5.44506],[-75.11528,5.44417],[-75.11716,5.44255],[-75.11961,5.44317],[-75.12016,5.44261],[-75.12056,5.44137],[-75.12163,5.44029],[-75.12253,5.43971],[-75.12468,5.43752],[-75.12533,5.4372],[-75.12751,5.43725],[-75.1299,5.43477],[-75.13114,5.43417],[-75.13197,5.4333],[-75.13305,5.43083],[-75.13363,5.42998],[-75.13428,5.42798],[-75.13376,5.42698],[-75.13486,5.42514]]]},"properties":{"nombre":"Quebrada Santa Rosa","area_ha":989.9215}}]}