{"type":"FeatureCollection","features":[{"type":"Feature","id":0,"geometry":{"type":"Polygon","coordinates":[[[-75.09847,5.43681],[-75.09973,5.43693],[-75.10096,5.4378],[-75.10334,5.43792],[-75.10471,5.4389],[-75.10687,5.43923],[-75.1128,5.4384],[-75.11527,5.43945],[-75.1164,5.43971],[-75.11777,5.44029],[-75.11918,5.44055],[-75.12029,5.4411],[-75.12055,5.44177],[-75.11973,5.44322],[-75.11715,5.44252],[-75.11544,5.44413],[-75.11431,5.44447],[-75.11323,5.44508],[-75.11208,5.44466],[-75.11034,5.4448],[-75.10931,5.44537],[-75.10795,5.44526],[-75.10639,5.44612],[-75.10423,5.44573],[-75.10338,5.44672],[-75.10213,5.44721],[-75.10084,5.44555],[-75.09754,5.44283],[-75.09494,5.44205],[-75.09362,5.44279],[-75.09239,5.44307],[-75.09064,5.44405],[-75.08878,5.44443],[-75.08757,5.44375],[-75.08665,5.44278],[-75.08705,5.4417],[-75.08696,5.43965],[-75.08879,5.4389],[-75.09204,5.43979],[-75.09474,5.43911],[-75.09673,5.43755],[-75.09822,5.4371],[-75.09847,5.43681]]]},"properties":{"nombre":"Quebrada Santa Teresa","area_ha":222.6631}}]}