{"type":"FeatureCollection","features":[{"type":"Feature","id":0,"geometry":{"type":"Polygon","coordinates":[[[-75.115238,5.443768],[-75.115249,5.443752],[-75.115256,5.443734],[-75.115273,5.44372],[-75.115268,5.443698],[-75.115254,5.443684],[-75.115239,5.443674],[-75.115225,5.443661],[-75.115213,5.443638],[-75.115202,5.443617],[-75.115105,5.443612],[-75.11509,5.443551],[-75.115187,5.443501],[-75.11521,5.443429],[-75.115236,5.443352],[-75.115236,5.443304],[-75.115186,5.443263],[-75.11521,5.443199],[-75.115204,5.443099],[-75.115227,5.443045],[-75.115629,5.44323],[-75.115621,5.443297],[-75.115539,5.443461],[-75.115508,5.443598],[-75.115449,5.443619],[-75.11545,5.443641],[-75.115448,5.443663],[-75.115437,5.443678],[-75.115421,5.443688],[-75.115401,5.443699],[-75.115383,5.443707],[-75.11537,5.443725],[-75.11537,5.443748],[-75.115355,5.443764],[-75.115331,5.443764],[-75.115312,5.443773],[-75.115295,5.443782],[-75.115274,5.44377],[-75.115258,5.443779],[-75.115238,5.443768]]]},"properties":{"uso_suelo":"Zona de uso Intensivo e Infraestructura","area_ha":0.26}},{"type":"Feature","id":1,"geometry":{"type":"Polygon","coordinates":[[[-75.111359,5.445593],[-75.111401,5.445587],[-75.111444,5.445588],[-75.111487,5.445596],[-75.111527,5.44561],[-75.111565,5.445632],[-75.111598,5.445658],[-75.111627,5.445691],[-75.11165,5.445727],[-75.111667,5.445766],[-75.111678,5.445808],[-75.111681,5.445851],[-75.111678,5.445894],[-75.111667,5.445936],[-75.11165,5.445976],[-75.111627,5.446012],[-75.111598,5.446044],[-75.111565,5.446071],[-75.111527,5.446092],[-75.111487,5.446107],[-75.111445,5.446115],[-75.111402,5.446116],[-75.111359,5.44611],[-75.111318,5.446097],[-75.111279,5.446078],[-75.111245,5.446053],[-75.111219,5.446015],[-75.1112,5.445974],[-75.111187,5.44593],[-75.111181,5.445885],[-75.111181,5.445839],[-75.111189,5.445795],[-75.111203,5.445751],[-75.111224,5.445711],[-75.11125,5.445674],[-75.111282,5.445641],[-75.111319,5.445614],[-75.111359,5.445593]]]},"properties":{"uso_suelo":null,"area_ha":0.2552}},{"type":"Feature","id":2,"geometry":{"type":"Polygon","coordinates":[[[-75.114883,5.444052],[-75.114816,5.444129],[-75.114745,5.44421],[-75.11466,5.444308],[-75.114536,5.44436],[-75.11447,5.444275],[-75.114432,5.444178],[-75.114565,5.444157],[-75.114649,5.444102],[-75.11475,5.444042],[-75.114846,5.444021],[-75.114883,5.444052]]]},"properties":{"uso_suelo":"Zona de uso Intensivo e Infraestructura","area_ha":0.0812}},{"type":"Feature","id":3,"geometry":{"type":"Polygon","coordinates":[[[-75.114809,5.444263],[-75.11479,5.444249],[-75.114974,5.444076],[-75.114974,5.444146],[-75.11496,5.444272],[-75.114919,5.444303],[-75.114869,5.444301],[-75.114809,5.444263]]]},"properties":{"uso_suelo":"Zona de uso Intensivo e Infraestructura","area_ha":0.0267}},{"type":"Feature","id":4,"geometry":{"type":"Polygon","coordinates":[[[-75.118329,5.458618],[-75.118279,5.45862],[-75.118234,5.458606],[-75.118165,5.458585],[-75.118198,5.458544],[-75.118298,5.458558],[-75.118393,5.458576],[-75.118364,5.458617],[-75.118329,5.458618]]]},"properties":{"uso_suelo":"Zona de uso Intensivo e Infraestructura","area_ha":0.0132}}]}