{"type":"FeatureCollection","name":"predios_rab","features":[{"type":"Feature","properties":{"id":"ad-1","ids":",ad-1,","nombre_predio":"Ayacucho (+Mariposas)","estado":"Adquirido","area_sig_ha":35.54,"area_en_rab_ha":28.48},"geometry":{"type":"Polygon","coordinates":[[[-75.12367,5.44276],[-75.12365,5.44259],[-75.12363,5.44234],[-75.12359,5.44213],[-75.12304,5.44123],[-75.1229,5.4411],[-75.12251,5.44084],[-75.12144,5.44029],[-75.12148,5.44016],[-75.12152,5.44009],[-75.12177,5.43991],[-75.122,5.43969],[-75.12226,5.43954],[-75.12259,5.43939],[-75.12279,5.43926],[-75.12291,5.43915],[-75.12299,5.43898],[-75.12301,5.43882],[-75.12302,5.43865],[-75.12306,5.4385],[-75.12311,5.43841],[-75.12315,5.43837],[-75.12328,5.43834],[-75.12342,5.43836],[-75.12355,5.4384],[-75.12365,5.43842],[-75.12375,5.43841],[-75.12382,5.43839],[-75.12391,5.43835],[-75.12399,5.43827],[-75.12403,5.43822],[-75.12406,5.43816],[-75.12407,5.43811],[-75.12406,5.43805],[-75.12405,5.43792],[-75.12407,5.43786],[-75.12411,5.43779],[-75.12415,5.43777],[-75.12421,5.43774],[-75.12427,5.4377],[-75.12434,5.43758],[-75.12438,5.43747],[-75.12444,5.43743],[-75.12468,5.43736],[-75.12474,5.43723],[-75.12481,5.43709],[-75.12488,5.43701],[-75.12496,5.43697],[-75.12522,5.43694],[-75.12529,5.43695],[-75.12537,5.43701],[-75.12552,5.43723],[-75.1256,5.43725],[-75.1257,5.43725],[-75.12583,5.43727],[-75.12591,5.43732],[-75.12597,5.43739],[-75.12602,5.4375],[-75.12604,5.43763],[-75.12604,5.43774],[-75.12607,5.43788],[-75.12611,5.43798],[-75.12615,5.43803],[-75.12621,5.43802],[-75.12664,5.43788],[-75.12675,5.43781],[-75.12682,5.43772],[-75.12684,5.43764],[-75.12682,5.43742],[-75.12688,5.43737],[-75.1272,5.43732],[-75.12741,5.43737],[-75.12755,5.43724],[-75.12761,5.43699],[-75.12768,5.43694],[-75.12775,5.43693],[-75.12783,5.43694],[-75.1279,5.43699],[-75.12795,5.43704],[-75.12804,5.43704],[-75.12804,5.43727],[-75.12806,5.43755],[-75.12814,5.43833],[-75.12814,5.43861],[-75.12813,5.43887],[-75.12868,5.43927],[-75.1288,5.43932],[-75.12874,5.43948],[-75.12865,5.43971],[-75.12862,5.43984],[-75.12862,5.43999],[-75.12856,5.4402],[-75.1285,5.44036],[-75.12839,5.44054],[-75.12829,5.44062],[-75.12813,5.44062],[-75.12802,5.44061],[-75.12761,5.44069],[-75.12746,5.44065],[-75.12731,5.44053],[-75.12722,5.44047],[-75.12711,5.44046],[-75.12698,5.44047],[-75.12654,5.44066],[-75.12637,5.44072],[-75.1262,5.44072],[-75.12606,5.44068],[-75.12589,5.44065],[-75.12574,5.44068],[-75.12559,5.44077],[-75.12545,5.44093],[-75.12539,5.44117],[-75.12538,5.44132],[-75.12538,5.44146],[-75.12533,5.44178],[-75.12537,5.44224],[-75.12537,5.44244],[-75.12533,5.44265],[-75.12525,5.44277],[-75.12511,5.44282],[-75.12499,5.4428],[-75.12485,5.44279],[-75.12477,5.44285],[-75.12474,5.44292],[-75.12466,5.4435],[-75.12461,5.44365],[-75.12454,5.44374],[-75.12442,5.44379],[-75.12425,5.44377],[-75.12415,5.44372],[-75.12408,5.44366],[-75.12403,5.44357],[-75.12396,5.44335],[-75.12394,5.44325],[-75.12389,5.44312],[-75.12382,5.44306],[-75.12374,5.44302],[-75.12366,5.44301],[-75.12367,5.44276]]]}},{"type":"Feature","properties":{"id":"ad-4","ids":",ad-4,ad-1,","nombre_predio":"Las Mariposas","estado":"Adquirido","area_sig_ha":null,"area_en_rab_ha":7.02},"geometry":{"type":"Polygon","coordinates":[[[-75.12823,5.43701],[-75.12835,5.43693],[-75.12843,5.43687],[-75.12859,5.43671],[-75.12873,5.4365],[-75.12881,5.43635],[-75.12889,5.43626],[-75.12901,5.43615],[-75.12911,5.43607],[-75.12921,5.43597],[-75.1293,5.43573],[-75.12936,5.43569],[-75.12942,5.43566],[-75.12965,5.43562],[-75.12976,5.43558],[-75.12986,5.43551],[-75.12994,5.4354],[-75.12996,5.43533],[-75.12994,5.435],[-75.13002,5.43494],[-75.13011,5.43493],[-75.13021,5.43495],[-75.13034,5.43499],[-75.13045,5.43504],[-75.13058,5.43513],[-75.13069,5.43523],[-75.13078,5.43536],[-75.13079,5.43576],[-75.13074,5.43591],[-75.13067,5.43603],[-75.13056,5.43619],[-75.13044,5.43628],[-75.13014,5.43642],[-75.13,5.43655],[-75.12993,5.43668],[-75.12991,5.43768],[-75.12986,5.43802],[-75.1298,5.43822],[-75.12972,5.43836],[-75.12963,5.4385],[-75.12952,5.43857],[-75.12939,5.43861],[-75.12914,5.43865],[-75.12904,5.4387],[-75.12895,5.4388],[-75.12887,5.4389],[-75.12882,5.439],[-75.12883,5.43922],[-75.1288,5.43932],[-75.12868,5.43927],[-75.12813,5.43887],[-75.12814,5.43861],[-75.12814,5.43833],[-75.12806,5.43755],[-75.12804,5.43727],[-75.12804,5.43704],[-75.12813,5.43702],[-75.12823,5.43701]]]}},{"type":"Feature","properties":{"id":"ad-2","ids":",ad-2,","nombre_predio":"El Rocio No.2","estado":"Adquirido","area_sig_ha":32.21,"area_en_rab_ha":32.18},"geometry":{"type":"Polygon","coordinates":[[[-75.11692,5.45681],[-75.11695,5.45668],[-75.11702,5.45654],[-75.11709,5.45637],[-75.1171,5.45619],[-75.1171,5.45602],[-75.11708,5.45587],[-75.11704,5.4557],[-75.11696,5.45546],[-75.1169,5.45534],[-75.11678,5.4552],[-75.11663,5.45507],[-75.11651,5.455],[-75.11622,5.455],[-75.11607,5.45496],[-75.11595,5.45489],[-75.11582,5.45477],[-75.11564,5.45457],[-75.11557,5.45445],[-75.11557,5.45402],[-75.11551,5.45387],[-75.11539,5.45368],[-75.11507,5.45329],[-75.11481,5.453],[-75.11465,5.45274],[-75.11456,5.4525],[-75.1145,5.45223],[-75.11449,5.45202],[-75.1145,5.45177],[-75.11456,5.45145],[-75.11468,5.45101],[-75.11472,5.45081],[-75.11472,5.45023],[-75.11481,5.45028],[-75.11492,5.45032],[-75.11506,5.45032],[-75.11516,5.45034],[-75.11529,5.4504],[-75.11553,5.45046],[-75.11567,5.45053],[-75.11598,5.45092],[-75.1161,5.45101],[-75.11646,5.45116],[-75.11659,5.4512],[-75.11674,5.45123],[-75.11689,5.45125],[-75.11703,5.45131],[-75.11727,5.45155],[-75.11737,5.45156],[-75.11747,5.45156],[-75.11792,5.45152],[-75.11853,5.45154],[-75.11862,5.4515],[-75.11888,5.45116],[-75.11898,5.45114],[-75.11908,5.45116],[-75.11915,5.45122],[-75.11942,5.45176],[-75.11953,5.45192],[-75.11962,5.45195],[-75.11969,5.45195],[-75.11979,5.45239],[-75.11981,5.45291],[-75.11981,5.45306],[-75.11983,5.45332],[-75.11989,5.45357],[-75.12,5.4538],[-75.12021,5.45418],[-75.12018,5.45444],[-75.1201,5.45444],[-75.12011,5.45448],[-75.12012,5.45463],[-75.12009,5.4549],[-75.12003,5.45517],[-75.11986,5.45568],[-75.11976,5.45592],[-75.1196,5.45624],[-75.11921,5.45737],[-75.11912,5.45755],[-75.11894,5.45784],[-75.11875,5.4581],[-75.11859,5.45827],[-75.11845,5.45849],[-75.11836,5.45862],[-75.11828,5.45862],[-75.11817,5.45859],[-75.11807,5.45854],[-75.118,5.45846],[-75.11797,5.45837],[-75.11797,5.45827],[-75.118,5.45816],[-75.11799,5.45807],[-75.11795,5.45797],[-75.11787,5.45791],[-75.11776,5.45784],[-75.11755,5.45775],[-75.11744,5.45771],[-75.11732,5.45764],[-75.11723,5.45756],[-75.11713,5.45744],[-75.11706,5.4573],[-75.11699,5.45711],[-75.11694,5.45694],[-75.11692,5.45681]]]}},{"type":"Feature","properties":{"id":"ad-3","ids":",ad-3,pa-5,","nombre_predio":"Los Cerezos","estado":"Adquirido","area_sig_ha":17.14,"area_en_rab_ha":17.09},"geometry":{"type":"Polygon","coordinates":[[[-75.12993,5.43699],[-75.12993,5.43668],[-75.13,5.43655],[-75.13014,5.43642],[-75.13044,5.43628],[-75.13056,5.43619],[-75.13067,5.43603],[-75.13074,5.43591],[-75.13079,5.43576],[-75.13078,5.43536],[-75.13083,5.43529],[-75.1309,5.43523],[-75.13096,5.43522],[-75.13106,5.43524],[-75.13117,5.43527],[-75.13128,5.43527],[-75.13139,5.43528],[-75.13145,5.43525],[-75.13151,5.43519],[-75.13156,5.43512],[-75.13155,5.43479],[-75.13159,5.43468],[-75.13166,5.43457],[-75.13175,5.43448],[-75.1319,5.4344],[-75.13205,5.43435],[-75.13212,5.43435],[-75.1324,5.43434],[-75.13249,5.43434],[-75.13266,5.43433],[-75.13274,5.43428],[-75.13282,5.4342],[-75.13304,5.43361],[-75.13318,5.43338],[-75.13334,5.43315],[-75.13338,5.43312],[-75.13342,5.43308],[-75.13357,5.433],[-75.13364,5.433],[-75.13386,5.43305],[-75.13392,5.43306],[-75.13398,5.43302],[-75.13403,5.4329],[-75.13407,5.43283],[-75.13428,5.43296],[-75.13461,5.43318],[-75.13483,5.43329],[-75.13517,5.43346],[-75.1354,5.43356],[-75.13565,5.4337],[-75.13591,5.43386],[-75.13623,5.43407],[-75.13652,5.43429],[-75.13665,5.43439],[-75.13671,5.43449],[-75.13672,5.43455],[-75.13666,5.43463],[-75.13659,5.43473],[-75.13643,5.43487],[-75.13628,5.43504],[-75.1362,5.43517],[-75.13617,5.43524],[-75.13602,5.4354],[-75.1359,5.4355],[-75.13577,5.4356],[-75.13569,5.43564],[-75.1355,5.43573],[-75.13533,5.43574],[-75.13519,5.4358],[-75.13485,5.43585],[-75.13433,5.43611],[-75.13423,5.43615],[-75.13411,5.43621],[-75.13394,5.4363],[-75.13378,5.43635],[-75.13365,5.43633],[-75.1333,5.43615],[-75.1332,5.43614],[-75.13309,5.43616],[-75.13299,5.43619],[-75.13188,5.43679],[-75.13168,5.43696],[-75.13152,5.43704],[-75.13139,5.43709],[-75.13125,5.43711],[-75.13113,5.4371],[-75.131,5.43714],[-75.13084,5.43712],[-75.13075,5.43709],[-75.13063,5.43707],[-75.13042,5.43706],[-75.13007,5.43702],[-75.12993,5.43699]]]}},{"type":"Feature","properties":{"id":"ad-5","ids":",ad-5,pa-4,","nombre_predio":"La Gaviota","estado":"Adquirido","area_sig_ha":62.88,"area_en_rab_ha":62.81},"geometry":{"type":"Polygon","coordinates":[[[-75.12003,5.44032],[-75.12006,5.44025],[-75.12001,5.44018],[-75.11994,5.44014],[-75.11983,5.4402],[-75.1197,5.44029],[-75.11961,5.44033],[-75.11951,5.44032],[-75.11944,5.44027],[-75.11937,5.44023],[-75.11927,5.44021],[-75.11918,5.44023],[-75.11862,5.44058],[-75.1184,5.44063],[-75.11815,5.44064],[-75.11785,5.44064],[-75.11766,5.44062],[-75.11746,5.44058],[-75.11723,5.4405],[-75.117,5.44039],[-75.11676,5.44025],[-75.1166,5.44015],[-75.11652,5.44013],[-75.11637,5.44012],[-75.11627,5.44013],[-75.1158,5.4402],[-75.11548,5.43951],[-75.11548,5.43936],[-75.11547,5.4392],[-75.11544,5.43903],[-75.11538,5.43887],[-75.11509,5.43841],[-75.115,5.4382],[-75.11485,5.43782],[-75.11447,5.43707],[-75.11436,5.43686],[-75.1139,5.43613],[-75.11347,5.43563],[-75.11322,5.43541],[-75.11304,5.43522],[-75.11299,5.43513],[-75.11298,5.43502],[-75.11298,5.43482],[-75.113,5.43436],[-75.11299,5.43428],[-75.11295,5.43419],[-75.11266,5.43397],[-75.11256,5.43391],[-75.11244,5.43383],[-75.11236,5.43375],[-75.11231,5.43367],[-75.11226,5.4335],[-75.11222,5.43341],[-75.11216,5.43334],[-75.11222,5.43332],[-75.1124,5.43324],[-75.11255,5.43312],[-75.11273,5.43301],[-75.11322,5.43296],[-75.11347,5.43297],[-75.1142,5.4331],[-75.11458,5.43321],[-75.11485,5.4333],[-75.11508,5.43335],[-75.1155,5.43338],[-75.11593,5.43338],[-75.11625,5.43332],[-75.11702,5.43316],[-75.11768,5.43298],[-75.11785,5.43297],[-75.1181,5.43299],[-75.1188,5.43311],[-75.11935,5.43319],[-75.11961,5.43317],[-75.11995,5.43313],[-75.12016,5.43308],[-75.12035,5.43307],[-75.12048,5.43312],[-75.12025,5.43335],[-75.11968,5.43403],[-75.11947,5.43431],[-75.11939,5.43445],[-75.11935,5.43464],[-75.11933,5.43481],[-75.11969,5.43542],[-75.11975,5.4355],[-75.11986,5.4356],[-75.11997,5.43563],[-75.12023,5.43569],[-75.12043,5.43579],[-75.12066,5.43593],[-75.12077,5.436],[-75.12107,5.4362],[-75.12128,5.43638],[-75.12157,5.43662],[-75.12189,5.43695],[-75.12204,5.43719],[-75.12217,5.43749],[-75.12243,5.43801],[-75.12256,5.43821],[-75.12267,5.43833],[-75.12279,5.43843],[-75.12302,5.43865],[-75.12301,5.43882],[-75.12299,5.43898],[-75.12291,5.43915],[-75.12279,5.43926],[-75.12259,5.43939],[-75.12226,5.43954],[-75.122,5.43969],[-75.12177,5.43991],[-75.12152,5.44009],[-75.12148,5.44016],[-75.12144,5.44029],[-75.12136,5.44029],[-75.12104,5.4404],[-75.12086,5.44053],[-75.12064,5.4407],[-75.12055,5.44073],[-75.12043,5.44069],[-75.12024,5.44056],[-75.12004,5.44036],[-75.12003,5.44032]]]}},{"type":"Feature","properties":{"id":"ad-6","ids":",ad-6,","nombre_predio":"El Rocio","estado":"Adquirido","area_sig_ha":15.44,"area_en_rab_ha":15.43},"geometry":{"type":"Polygon","coordinates":[[[-75.11083,5.44973],[-75.11122,5.44964],[-75.1113,5.44968],[-75.11139,5.44971],[-75.11181,5.4498],[-75.11191,5.44979],[-75.11205,5.44974],[-75.1123,5.44958],[-75.11267,5.44956],[-75.11305,5.44942],[-75.11321,5.44942],[-75.11339,5.44946],[-75.11349,5.44949],[-75.11382,5.44988],[-75.11398,5.45001],[-75.11409,5.45007],[-75.11424,5.45013],[-75.11435,5.45014],[-75.11449,5.45014],[-75.11464,5.45017],[-75.11472,5.45023],[-75.11472,5.45081],[-75.11468,5.45101],[-75.11456,5.45145],[-75.1145,5.45177],[-75.11449,5.45202],[-75.1145,5.45223],[-75.11456,5.4525],[-75.11465,5.45274],[-75.11481,5.453],[-75.11507,5.45329],[-75.11539,5.45368],[-75.11551,5.45387],[-75.11557,5.45402],[-75.11557,5.45423],[-75.11546,5.45416],[-75.11537,5.45412],[-75.11472,5.45403],[-75.11451,5.45396],[-75.11433,5.45387],[-75.11422,5.45378],[-75.11405,5.45358],[-75.11398,5.45351],[-75.11363,5.45343],[-75.11325,5.45322],[-75.11313,5.45313],[-75.11281,5.4528],[-75.11268,5.45271],[-75.11256,5.45264],[-75.11215,5.45251],[-75.11152,5.45219],[-75.11149,5.45212],[-75.11147,5.45205],[-75.11142,5.45199],[-75.1113,5.45193],[-75.11119,5.4519],[-75.11107,5.45188],[-75.11096,5.45187],[-75.11087,5.45181],[-75.11083,5.45174],[-75.1108,5.45164],[-75.11077,5.45147],[-75.11077,5.45127],[-75.11078,5.45094],[-75.11083,5.45052],[-75.11084,5.45019],[-75.11079,5.44994],[-75.11071,5.44979],[-75.11083,5.44973]]]}},{"type":"Feature","properties":{"id":"ad-7","ids":",ad-7,","nombre_predio":"La Divisa","estado":"Adquirido","area_sig_ha":36.49,"area_en_rab_ha":36.46},"geometry":{"type":"Polygon","coordinates":[[[-75.11018,5.45897],[-75.11011,5.45876],[-75.10995,5.45835],[-75.10973,5.45796],[-75.10949,5.45767],[-75.10921,5.45731],[-75.10904,5.45703],[-75.10892,5.45676],[-75.10888,5.45649],[-75.10887,5.45621],[-75.1088,5.45603],[-75.10871,5.45592],[-75.10851,5.45577],[-75.10837,5.45563],[-75.10828,5.45548],[-75.10813,5.45531],[-75.10783,5.45516],[-75.10746,5.455],[-75.10721,5.45479],[-75.10721,5.45446],[-75.10724,5.45422],[-75.10722,5.45408],[-75.10717,5.45398],[-75.10707,5.45389],[-75.10696,5.45385],[-75.10687,5.4538],[-75.1068,5.45372],[-75.10675,5.4536],[-75.10736,5.4536],[-75.1076,5.45359],[-75.10788,5.45357],[-75.10811,5.45353],[-75.10832,5.45346],[-75.1085,5.45337],[-75.10863,5.45333],[-75.10877,5.45331],[-75.1095,5.45324],[-75.10966,5.45323],[-75.10983,5.45328],[-75.11104,5.45382],[-75.11157,5.45396],[-75.11192,5.45407],[-75.11214,5.45416],[-75.11245,5.45431],[-75.11251,5.45439],[-75.11254,5.45445],[-75.11269,5.45457],[-75.11297,5.455],[-75.1135,5.45568],[-75.1137,5.45583],[-75.11388,5.45599],[-75.11394,5.45609],[-75.11394,5.45622],[-75.11382,5.45648],[-75.11378,5.45681],[-75.11377,5.4573],[-75.1137,5.4577],[-75.11366,5.45812],[-75.11365,5.45854],[-75.11371,5.45889],[-75.11377,5.45902],[-75.11395,5.45922],[-75.11406,5.45935],[-75.11389,5.45945],[-75.11369,5.45969],[-75.11358,5.45987],[-75.11347,5.46004],[-75.1134,5.46022],[-75.11335,5.46041],[-75.11333,5.46055],[-75.11327,5.46073],[-75.11316,5.46088],[-75.11305,5.46096],[-75.11284,5.46095],[-75.11245,5.46088],[-75.11234,5.46089],[-75.11222,5.46096],[-75.11205,5.4611],[-75.11196,5.46115],[-75.11184,5.46118],[-75.1119,5.46105],[-75.11192,5.46091],[-75.11202,5.46064],[-75.1121,5.46029],[-75.1121,5.46013],[-75.11202,5.46001],[-75.11192,5.45989],[-75.11173,5.45974],[-75.11156,5.45964],[-75.11141,5.45958],[-75.11122,5.45953],[-75.11107,5.45951],[-75.11099,5.45953],[-75.11088,5.45951],[-75.1107,5.45944],[-75.11053,5.45943],[-75.11035,5.45944],[-75.11024,5.45946],[-75.1101,5.45947],[-75.11017,5.45932],[-75.11019,5.45919],[-75.11018,5.45897]]]}},{"type":"Feature","properties":{"id":"ad-8","ids":",ad-8,","nombre_predio":"La Cumbre","estado":"Adquirido","area_sig_ha":32.64,"area_en_rab_ha":32.61},"geometry":{"type":"Polygon","coordinates":[[[-75.12012,5.44909],[-75.12004,5.44872],[-75.12001,5.44847],[-75.12,5.44791],[-75.1199,5.44633],[-75.11988,5.44577],[-75.11988,5.44515],[-75.11985,5.44471],[-75.11981,5.44436],[-75.11974,5.44401],[-75.11959,5.4435],[-75.11942,5.44304],[-75.11921,5.44253],[-75.1191,5.44232],[-75.11911,5.44232],[-75.11922,5.44222],[-75.11945,5.44193],[-75.11955,5.44187],[-75.12011,5.44172],[-75.12016,5.44161],[-75.12019,5.44152],[-75.12018,5.44139],[-75.12016,5.4413],[-75.12008,5.44117],[-75.11998,5.44102],[-75.11995,5.44091],[-75.11995,5.44073],[-75.11997,5.44055],[-75.12,5.44043],[-75.12004,5.44036],[-75.12024,5.44056],[-75.12043,5.44069],[-75.12055,5.44073],[-75.12064,5.4407],[-75.12086,5.44053],[-75.12104,5.4404],[-75.12136,5.44029],[-75.12144,5.44029],[-75.12251,5.44084],[-75.1229,5.4411],[-75.12304,5.44123],[-75.12359,5.44213],[-75.12363,5.44234],[-75.12365,5.44259],[-75.12367,5.44276],[-75.12366,5.44301],[-75.12354,5.44306],[-75.12345,5.4432],[-75.1234,5.44339],[-75.12337,5.44363],[-75.12332,5.44381],[-75.12319,5.44413],[-75.12297,5.44473],[-75.12289,5.44496],[-75.12274,5.44593],[-75.12273,5.44599],[-75.12261,5.44646],[-75.12255,5.44678],[-75.12252,5.44698],[-75.12248,5.4471],[-75.12246,5.44724],[-75.12236,5.44761],[-75.12226,5.44792],[-75.1221,5.44828],[-75.12168,5.44876],[-75.12133,5.44907],[-75.12125,5.44919],[-75.12116,5.44939],[-75.12111,5.44958],[-75.12106,5.44973],[-75.12099,5.44986],[-75.12082,5.45004],[-75.12066,5.45026],[-75.12052,5.45004],[-75.12037,5.44974],[-75.12021,5.44937],[-75.12012,5.44909]]]}},{"type":"Feature","properties":{"id":"ad-9","ids":",ad-9,pa-3,","nombre_predio":"El Cedro","estado":"Adquirido","area_sig_ha":6.08,"area_en_rab_ha":6.09},"geometry":{"type":"Polygon","coordinates":[[[-75.1175,5.45089],[-75.11797,5.4501],[-75.11842,5.44999],[-75.11883,5.44987],[-75.11925,5.44973],[-75.11961,5.44953],[-75.11997,5.44931],[-75.12015,5.44919],[-75.12021,5.44937],[-75.12037,5.44974],[-75.12052,5.45004],[-75.12066,5.45026],[-75.12048,5.45059],[-75.12029,5.45097],[-75.1201,5.45124],[-75.12001,5.45148],[-75.11988,5.45176],[-75.11982,5.45185],[-75.11969,5.45195],[-75.11962,5.45195],[-75.11953,5.45192],[-75.11942,5.45176],[-75.11915,5.45122],[-75.11908,5.45116],[-75.11898,5.45114],[-75.11888,5.45116],[-75.11862,5.4515],[-75.11853,5.45154],[-75.11792,5.45152],[-75.11737,5.45156],[-75.11727,5.45155],[-75.11719,5.45147],[-75.1175,5.45089]]]}},{"type":"Feature","properties":{"id":"ad-10","ids":",ad-10,pa-2,","nombre_predio":"Rincon Santo-El Retiro","estado":"Adquirido","area_sig_ha":8.33,"area_en_rab_ha":8.34},"geometry":{"type":"Polygon","coordinates":[[[-75.1154,5.45031],[-75.11563,5.45007],[-75.11626,5.44929],[-75.11639,5.44919],[-75.11652,5.44913],[-75.11682,5.44906],[-75.11695,5.44907],[-75.11707,5.44909],[-75.11811,5.44884],[-75.11837,5.44875],[-75.11922,5.44838],[-75.12,5.44817],[-75.12001,5.44847],[-75.12004,5.44872],[-75.12012,5.44909],[-75.12015,5.44919],[-75.11997,5.44931],[-75.11961,5.44953],[-75.11925,5.44973],[-75.11883,5.44987],[-75.11842,5.44999],[-75.11797,5.4501],[-75.1175,5.45089],[-75.11719,5.45147],[-75.11711,5.4514],[-75.11703,5.45131],[-75.11689,5.45125],[-75.11674,5.45123],[-75.11659,5.4512],[-75.11646,5.45116],[-75.1161,5.45101],[-75.11598,5.45092],[-75.11567,5.45053],[-75.11553,5.45046],[-75.11536,5.45042],[-75.1154,5.45031]]]}},{"type":"Feature","properties":{"id":"ad-11","ids":",ad-11,","nombre_predio":"El Silencio","estado":"Adquirido","area_sig_ha":6.41,"area_en_rab_ha":6.41},"geometry":{"type":"Polygon","coordinates":[[[-75.11407,5.44444],[-75.1151,5.44409],[-75.11556,5.44397],[-75.11573,5.44391],[-75.11605,5.44372],[-75.11666,5.44345],[-75.117,5.44326],[-75.11726,5.44317],[-75.11749,5.44305],[-75.11728,5.44338],[-75.11707,5.44363],[-75.11689,5.44378],[-75.11665,5.44403],[-75.11647,5.44425],[-75.1164,5.44442],[-75.116,5.44496],[-75.11582,5.44518],[-75.11574,5.44526],[-75.11562,5.44544],[-75.1155,5.44554],[-75.11523,5.44565],[-75.1151,5.44572],[-75.11499,5.44588],[-75.11487,5.44632],[-75.1149,5.44644],[-75.11502,5.44675],[-75.11489,5.44678],[-75.11477,5.44684],[-75.11454,5.44698],[-75.11434,5.44707],[-75.11423,5.44691],[-75.11409,5.44677],[-75.11399,5.4466],[-75.11393,5.44642],[-75.11391,5.44617],[-75.11394,5.4458],[-75.11397,5.44553],[-75.11395,5.44539],[-75.11387,5.44522],[-75.11346,5.44464],[-75.11407,5.44444]]]}},{"type":"Feature","properties":{"id":"ad-12","ids":",ad-12,ad-14,ad-15,ad-16,ad-17,","nombre_predio":"El Potrero (incl. El Laurel, El Silencio, El Clavel)","estado":"Adquirido","area_sig_ha":73.14,"area_en_rab_ha":73.1},"geometry":{"type":"Polygon","coordinates":[[[-75.11464,5.45017],[-75.11449,5.45014],[-75.11435,5.45014],[-75.11424,5.45013],[-75.11409,5.45007],[-75.11398,5.45001],[-75.11382,5.44988],[-75.11349,5.44949],[-75.11339,5.44946],[-75.11321,5.44942],[-75.11305,5.44942],[-75.11267,5.44956],[-75.1123,5.44958],[-75.11205,5.44974],[-75.11191,5.44979],[-75.11181,5.4498],[-75.11139,5.44971],[-75.1113,5.44968],[-75.11122,5.44964],[-75.11083,5.44973],[-75.11071,5.44979],[-75.11066,5.44982],[-75.1105,5.44983],[-75.11033,5.44982],[-75.11013,5.44978],[-75.10912,5.4495],[-75.10886,5.44949],[-75.10867,5.44952],[-75.10869,5.44891],[-75.10854,5.44846],[-75.10841,5.44818],[-75.10819,5.44792],[-75.10795,5.4477],[-75.10773,5.44767],[-75.10753,5.44771],[-75.10748,5.44768],[-75.10738,5.4476],[-75.10733,5.44761],[-75.10712,5.44773],[-75.10704,5.44749],[-75.10702,5.44734],[-75.10702,5.44717],[-75.10706,5.447],[-75.10713,5.44677],[-75.10728,5.44642],[-75.10738,5.44617],[-75.10748,5.44573],[-75.10757,5.44544],[-75.10762,5.44481],[-75.10777,5.44481],[-75.10797,5.44483],[-75.10837,5.44489],[-75.10913,5.44513],[-75.10939,5.44515],[-75.10963,5.44512],[-75.11022,5.44496],[-75.11037,5.44487],[-75.11052,5.44472],[-75.11072,5.44463],[-75.11103,5.44452],[-75.11127,5.44447],[-75.11184,5.44447],[-75.11213,5.44449],[-75.11239,5.44453],[-75.11261,5.44458],[-75.11273,5.44461],[-75.11281,5.44469],[-75.11289,5.44484],[-75.11346,5.44464],[-75.11387,5.44522],[-75.11395,5.44539],[-75.11397,5.44553],[-75.11394,5.4458],[-75.11391,5.44617],[-75.11393,5.44642],[-75.11399,5.4466],[-75.11409,5.44677],[-75.11423,5.44691],[-75.11434,5.44707],[-75.11454,5.44698],[-75.11477,5.44684],[-75.11489,5.44678],[-75.11502,5.44675],[-75.1149,5.44644],[-75.11487,5.44632],[-75.11499,5.44588],[-75.1151,5.44572],[-75.11523,5.44565],[-75.1155,5.44554],[-75.11562,5.44544],[-75.11574,5.44526],[-75.11582,5.44518],[-75.116,5.44496],[-75.1164,5.44442],[-75.11647,5.44425],[-75.11665,5.44403],[-75.11689,5.44378],[-75.11707,5.44363],[-75.11728,5.44338],[-75.11749,5.44305],[-75.11769,5.44291],[-75.11836,5.44247],[-75.11854,5.44243],[-75.11868,5.44239],[-75.119,5.44235],[-75.1191,5.44232],[-75.11921,5.44253],[-75.11942,5.44304],[-75.11959,5.4435],[-75.11974,5.44401],[-75.11981,5.44436],[-75.11985,5.44471],[-75.11988,5.44515],[-75.11988,5.44577],[-75.1199,5.44633],[-75.12,5.44791],[-75.12,5.44817],[-75.11961,5.44828],[-75.11922,5.44838],[-75.11837,5.44875],[-75.11811,5.44884],[-75.11707,5.44909],[-75.11695,5.44907],[-75.11682,5.44906],[-75.11652,5.44913],[-75.11639,5.44919],[-75.11626,5.44929],[-75.11589,5.44974],[-75.11563,5.45007],[-75.1154,5.45031],[-75.11536,5.45042],[-75.11529,5.4504],[-75.11516,5.45034],[-75.11506,5.45032],[-75.11492,5.45032],[-75.11481,5.45028],[-75.11472,5.45023],[-75.11464,5.45017]]]}},{"type":"Feature","properties":{"id":"ad-18","ids":",ad-18,","nombre_predio":"La Bella","estado":"Adquirido","area_sig_ha":10.37,"area_en_rab_ha":10.16},"geometry":{"type":"Polygon","coordinates":[[[-75.10267,5.44657],[-75.10159,5.44568],[-75.10115,5.44533],[-75.10077,5.44505],[-75.10068,5.44487],[-75.10059,5.4446],[-75.10054,5.44437],[-75.10051,5.44396],[-75.10051,5.44356],[-75.10097,5.4435],[-75.10117,5.44354],[-75.10137,5.44356],[-75.10148,5.44356],[-75.10168,5.44353],[-75.10173,5.44365],[-75.10185,5.44384],[-75.10208,5.4441],[-75.10224,5.44414],[-75.10235,5.44413],[-75.10258,5.44401],[-75.10271,5.44393],[-75.10286,5.44391],[-75.103,5.44392],[-75.1032,5.44402],[-75.10339,5.44421],[-75.10335,5.4445],[-75.10335,5.44463],[-75.10339,5.44473],[-75.10384,5.44474],[-75.10387,5.44467],[-75.10386,5.44453],[-75.1039,5.44446],[-75.10402,5.44441],[-75.10417,5.44439],[-75.10458,5.44456],[-75.1048,5.44463],[-75.10488,5.44469],[-75.10494,5.44487],[-75.10515,5.44528],[-75.10503,5.44555],[-75.10484,5.44575],[-75.10458,5.44573],[-75.1042,5.44578],[-75.10376,5.44616],[-75.10343,5.44654],[-75.10304,5.44685],[-75.10267,5.44657]]]}},{"type":"Feature","properties":{"id":"ad-21","ids":",ad-21,","nombre_predio":"El Bosque","estado":"Adquirido","area_sig_ha":38.86,"area_en_rab_ha":38.86},"geometry":{"type":"Polygon","coordinates":[[[-75.10675,5.4536],[-75.10674,5.45361],[-75.10661,5.45357],[-75.10649,5.45352],[-75.10643,5.45345],[-75.10641,5.45336],[-75.10645,5.45305],[-75.1064,5.45291],[-75.10632,5.45286],[-75.10615,5.45281],[-75.10606,5.45277],[-75.10587,5.4526],[-75.10576,5.45254],[-75.10564,5.45252],[-75.10585,5.45238],[-75.10613,5.45214],[-75.10639,5.45199],[-75.10665,5.45183],[-75.10684,5.4517],[-75.10699,5.45153],[-75.10711,5.45137],[-75.10721,5.45119],[-75.10734,5.45102],[-75.1075,5.45088],[-75.1076,5.45082],[-75.10774,5.4508],[-75.10794,5.4508],[-75.10806,5.45071],[-75.10816,5.45063],[-75.10822,5.45045],[-75.10825,5.4501],[-75.10829,5.44986],[-75.10835,5.44973],[-75.10844,5.44963],[-75.10868,5.44952],[-75.10886,5.44949],[-75.10912,5.4495],[-75.11013,5.44978],[-75.11033,5.44982],[-75.1105,5.44983],[-75.11066,5.44982],[-75.11071,5.44979],[-75.11079,5.44994],[-75.11084,5.45019],[-75.11083,5.45052],[-75.11078,5.45094],[-75.11077,5.45127],[-75.11077,5.45147],[-75.1108,5.45164],[-75.11083,5.45174],[-75.11087,5.45181],[-75.11096,5.45187],[-75.11107,5.45188],[-75.11119,5.4519],[-75.1113,5.45193],[-75.11142,5.45199],[-75.11147,5.45205],[-75.11149,5.45212],[-75.11152,5.45219],[-75.11215,5.45251],[-75.11256,5.45264],[-75.11268,5.45271],[-75.11281,5.4528],[-75.11313,5.45313],[-75.11325,5.45322],[-75.11363,5.45343],[-75.11398,5.45351],[-75.11405,5.45358],[-75.11422,5.45378],[-75.11433,5.45387],[-75.11451,5.45396],[-75.11472,5.45403],[-75.11537,5.45412],[-75.11546,5.45416],[-75.11557,5.45423],[-75.11557,5.45445],[-75.11564,5.45457],[-75.11582,5.45477],[-75.11595,5.45489],[-75.11607,5.45496],[-75.11622,5.455],[-75.11651,5.455],[-75.11663,5.45507],[-75.11678,5.4552],[-75.1169,5.45534],[-75.11696,5.45546],[-75.11704,5.4557],[-75.11708,5.45587],[-75.1171,5.45602],[-75.1171,5.45619],[-75.11709,5.45637],[-75.11702,5.45654],[-75.11695,5.45668],[-75.11692,5.45681],[-75.11682,5.45681],[-75.11676,5.45683],[-75.11668,5.45687],[-75.11652,5.45699],[-75.1163,5.45718],[-75.11611,5.45734],[-75.11593,5.45747],[-75.11577,5.45755],[-75.11563,5.45756],[-75.11557,5.45757],[-75.11549,5.45763],[-75.11544,5.45771],[-75.1154,5.45778],[-75.11514,5.45824],[-75.11489,5.45858],[-75.11468,5.45876],[-75.11439,5.45905],[-75.11432,5.45911],[-75.11424,5.4592],[-75.11406,5.45935],[-75.11395,5.45922],[-75.11377,5.45902],[-75.11371,5.45889],[-75.11365,5.45854],[-75.11366,5.45812],[-75.1137,5.4577],[-75.11377,5.4573],[-75.11378,5.45681],[-75.11382,5.45648],[-75.11394,5.45622],[-75.11394,5.45609],[-75.11388,5.45599],[-75.1137,5.45583],[-75.1135,5.45568],[-75.11297,5.455],[-75.11269,5.45457],[-75.11254,5.45445],[-75.11251,5.45439],[-75.11245,5.45431],[-75.11214,5.45416],[-75.11192,5.45407],[-75.11157,5.45396],[-75.11104,5.45382],[-75.10983,5.45328],[-75.10966,5.45323],[-75.1093,5.45325],[-75.10863,5.45333],[-75.10811,5.45353],[-75.10788,5.45357],[-75.1076,5.45359],[-75.10736,5.4536],[-75.10675,5.4536]]]}},{"type":"Feature","properties":{"id":"ad-22","ids":",ad-22,","nombre_predio":"La Argentina","estado":"Adquirido","area_sig_ha":62.69,"area_en_rab_ha":62.66},"geometry":{"type":"Polygon","coordinates":[[[-75.10542,5.44558],[-75.10532,5.44551],[-75.10521,5.4454],[-75.10494,5.44487],[-75.10488,5.44469],[-75.1048,5.44463],[-75.10458,5.44456],[-75.10417,5.44439],[-75.10402,5.44441],[-75.1039,5.44446],[-75.10386,5.44453],[-75.10387,5.44467],[-75.10384,5.44474],[-75.10339,5.44473],[-75.10335,5.44463],[-75.10335,5.4445],[-75.10345,5.44381],[-75.10349,5.44348],[-75.10352,5.44307],[-75.10352,5.4428],[-75.1035,5.44258],[-75.10348,5.44244],[-75.10344,5.44233],[-75.10358,5.44234],[-75.1037,5.44243],[-75.10393,5.44253],[-75.104,5.44257],[-75.10414,5.44262],[-75.10426,5.44261],[-75.10442,5.44254],[-75.10469,5.44237],[-75.10481,5.44228],[-75.1049,5.44224],[-75.10502,5.44224],[-75.10518,5.44227],[-75.10561,5.44244],[-75.10602,5.4425],[-75.10632,5.4425],[-75.10669,5.4424],[-75.10698,5.44226],[-75.10725,5.44209],[-75.10751,5.44179],[-75.10785,5.44149],[-75.10797,5.44147],[-75.10811,5.44149],[-75.10833,5.44156],[-75.10864,5.44165],[-75.10895,5.44178],[-75.10925,5.44198],[-75.10939,5.44205],[-75.10954,5.44211],[-75.10966,5.44206],[-75.10977,5.44192],[-75.10986,5.4417],[-75.10997,5.44153],[-75.11005,5.44144],[-75.11019,5.44139],[-75.11068,5.44121],[-75.11091,5.44111],[-75.11106,5.44103],[-75.11115,5.44095],[-75.11125,5.44083],[-75.11153,5.44054],[-75.11172,5.44039],[-75.11189,5.4403],[-75.11202,5.44025],[-75.11211,5.44024],[-75.11215,5.44026],[-75.11219,5.44027],[-75.11228,5.44034],[-75.11237,5.44053],[-75.11246,5.44067],[-75.11253,5.44077],[-75.11264,5.44084],[-75.1128,5.44094],[-75.11295,5.441],[-75.11308,5.44103],[-75.11319,5.44104],[-75.11329,5.44101],[-75.11338,5.44092],[-75.11368,5.4405],[-75.11378,5.44048],[-75.11392,5.44053],[-75.11403,5.44059],[-75.11413,5.44068],[-75.11423,5.44073],[-75.11439,5.44076],[-75.11455,5.44076],[-75.11482,5.44071],[-75.11495,5.44061],[-75.11524,5.44047],[-75.11538,5.44043],[-75.11554,5.44038],[-75.1157,5.44031],[-75.1158,5.4402],[-75.11581,5.44019],[-75.11627,5.44013],[-75.11637,5.44012],[-75.11652,5.44013],[-75.1166,5.44015],[-75.11676,5.44025],[-75.117,5.44039],[-75.11723,5.4405],[-75.11746,5.44058],[-75.11766,5.44062],[-75.11785,5.44064],[-75.11815,5.44064],[-75.1184,5.44063],[-75.11862,5.44058],[-75.11918,5.44023],[-75.11927,5.44021],[-75.11937,5.44023],[-75.11944,5.44027],[-75.11951,5.44032],[-75.11961,5.44033],[-75.1197,5.44029],[-75.11983,5.4402],[-75.11994,5.44014],[-75.12001,5.44018],[-75.12006,5.44025],[-75.12003,5.44032],[-75.12004,5.44036],[-75.12,5.44043],[-75.11997,5.44055],[-75.11995,5.44073],[-75.11995,5.44091],[-75.11998,5.44102],[-75.12008,5.44117],[-75.12016,5.4413],[-75.12018,5.44139],[-75.12019,5.44152],[-75.12016,5.44161],[-75.12011,5.44172],[-75.11955,5.44187],[-75.11945,5.44193],[-75.11922,5.44222],[-75.11911,5.44232],[-75.119,5.44235],[-75.11868,5.44239],[-75.11854,5.44243],[-75.11836,5.44247],[-75.11769,5.44291],[-75.11749,5.44305],[-75.11726,5.44317],[-75.117,5.44326],[-75.11666,5.44345],[-75.11605,5.44372],[-75.11573,5.44391],[-75.11556,5.44397],[-75.1151,5.44409],[-75.11289,5.44484],[-75.11281,5.44469],[-75.11273,5.44461],[-75.11239,5.44453],[-75.11213,5.44449],[-75.11184,5.44447],[-75.11127,5.44447],[-75.11103,5.44452],[-75.11072,5.44463],[-75.11052,5.44472],[-75.11037,5.44487],[-75.11022,5.44496],[-75.10963,5.44512],[-75.10939,5.44515],[-75.10913,5.44513],[-75.10837,5.44489],[-75.10797,5.44483],[-75.10761,5.44481],[-75.1074,5.44492],[-75.10723,5.44499],[-75.10683,5.44561],[-75.10587,5.44574],[-75.10552,5.44564],[-75.10542,5.44558]]]}},{"type":"Feature","properties":{"id":"ad-23","ids":",ad-23,","nombre_predio":"El Laurel","estado":"Adquirido","area_sig_ha":4.19,"area_en_rab_ha":4.14},"geometry":{"type":"Polygon","coordinates":[[[-75.10552,5.44564],[-75.10587,5.44574],[-75.10683,5.44561],[-75.10723,5.44499],[-75.1074,5.44492],[-75.10761,5.44481],[-75.10757,5.44544],[-75.10748,5.44573],[-75.10738,5.44617],[-75.10728,5.44642],[-75.10713,5.44677],[-75.10706,5.447],[-75.10702,5.44717],[-75.10702,5.44734],[-75.10704,5.44749],[-75.10712,5.44773],[-75.10695,5.44783],[-75.10662,5.44806],[-75.10641,5.44791],[-75.10609,5.44761],[-75.10598,5.44712],[-75.1059,5.44685],[-75.1058,5.44646],[-75.10561,5.44603],[-75.10551,5.44593],[-75.10552,5.44564]]]}}]}
