{"type":"FeatureCollection","features":[{"type":"Feature","id":0,"geometry":{"type":"LineString","coordinates":[[-75.13556,5.42527],[-75.13293,5.43043],[-75.12829,5.43833],[-75.12662,5.44097],[-75.12353,5.44456],[-75.12174,5.44791],[-75.11972,5.45258],[-75.11627,5.45917],[-75.11139,5.46659],[-75.09853,5.48479]]},"properties":{"tipo_falla":"Falla inferida con indicación de movimiento","longitud_km":7.7786}},{"type":"Feature","id":1,"geometry":{"type":"LineString","coordinates":[[-75.09471,5.48181],[-75.0871,5.49893]]},"properties":{"tipo_falla":"Falla inferida con indicación de movimiento","longitud_km":2.072}},{"type":"Feature","id":2,"geometry":{"type":"LineString","coordinates":[[-75.04882,5.36831],[-75.04536,5.37388],[-75.04238,5.38094],[-75.03977,5.39052],[-75.03788,5.39925],[-75.03574,5.40524]]},"properties":{"tipo_falla":"Falla de rumbo dextral","longitud_km":4.3612}},{"type":"Feature","id":3,"geometry":{"type":"LineString","coordinates":[[-75.03502,5.40595],[-75.03207,5.41285],[-75.02861,5.42418]]},"properties":{"tipo_falla":"Falla de rumbo dextral cubierta","longitud_km":2.14}}]}