{"type":"FeatureCollection","features":[{"type":"Feature","id":0,"geometry":{"type":"Polygon","coordinates":[[[-75.04326,5.35933],[-75.04362,5.35944],[-75.04583,5.36139],[-75.04771,5.36246],[-75.04788,5.36282],[-75.04795,5.36492],[-75.04767,5.36681],[-75.04803,5.36728],[-75.04805,5.36794],[-75.04783,5.37075],[-75.04748,5.3714],[-75.04751,5.37199],[-75.04705,5.37366],[-75.04588,5.3745],[-75.04456,5.37509],[-75.03759,5.37678],[-75.03493,5.37695],[-75.03447,5.37573],[-75.03478,5.37449],[-75.03539,5.37365],[-75.03603,5.37324],[-75.03636,5.37281],[-75.03747,5.3699],[-75.03823,5.36885],[-75.04133,5.36597],[-75.04308,5.36333],[-75.04342,5.36197],[-75.04326,5.35933]]]},"properties":{"unidad":"Escarpe faceteado","codigo":"Def","area_ha":155.6456}},{"type":"Feature","id":1,"geometry":{"type":"Polygon","coordinates":[[[-75.07196,5.47985],[-75.07163,5.47698],[-75.07114,5.47595],[-75.07114,5.47536],[-75.0718,5.47423],[-75.07296,5.4734],[-75.07331,5.47283],[-75.07305,5.47246],[-75.0725,5.47235],[-75.07164,5.471],[-75.0715,5.47053],[-75.07181,5.47013],[-75.07185,5.46966],[-75.07095,5.46809],[-75.07093,5.46776],[-75.07149,5.46662],[-75.07167,5.46499],[-75.07197,5.46448],[-75.07282,5.46381],[-75.07552,5.46313],[-75.07751,5.46242],[-75.07822,5.46245],[-75.0785,5.46299],[-75.07896,5.4631],[-75.07924,5.46281],[-75.07931,5.46209],[-75.07977,5.46172],[-75.08023,5.4616],[-75.0812,5.46185],[-75.08184,5.46176],[-75.08315,5.45995],[-75.08449,5.45886],[-75.08573,5.45688],[-75.08606,5.45872],[-75.08602,5.46115],[-75.08637,5.4618],[-75.08767,5.46331],[-75.08806,5.46434],[-75.088,5.46554],[-75.08762,5.46749],[-75.08759,5.47014],[-75.08776,5.47094],[-75.08842,5.47188],[-75.08852,5.47268],[-75.08845,5.47487],[-75.08799,5.47582],[-75.08755,5.47749],[-75.08778,5.48012],[-75.08725,5.48174],[-75.08646,5.48322],[-75.08595,5.48376],[-75.08494,5.48412],[-75.08189,5.48416],[-75.08153,5.48431],[-75.08127,5.48469],[-75.0812,5.48585],[-75.08154,5.48729],[-75.08199,5.48831],[-75.0821,5.48916],[-75.08196,5.49133],[-75.08139,5.49276],[-75.08157,5.49367],[-75.08207,5.49469],[-75.08174,5.49623],[-75.08172,5.49787],[-75.08066,5.49959],[-75.0782,5.50192],[-75.07808,5.50343],[-75.07695,5.50225],[-75.07667,5.50111],[-75.07441,5.49964],[-75.07448,5.49781],[-75.07312,5.49613],[-75.07389,5.49501],[-75.07444,5.49361],[-75.07501,5.49278],[-75.07472,5.49167],[-75.07445,5.48805],[-75.07389,5.48633],[-75.07445,5.48528],[-75.07472,5.48356],[-75.07416,5.48251],[-75.07373,5.48069],[-75.07196,5.47985]]]},"properties":{"unidad":"Lomeríos muy disectados","codigo":"Dlmd","area_ha":575.349}},{"type":"Feature","id":2,"geometry":{"type":"Polygon","coordinates":[[[-75.09588,5.50078],[-75.09605,5.49925],[-75.0971,5.49692],[-75.09733,5.49573],[-75.09839,5.49332],[-75.10042,5.48992],[-75.10169,5.48717],[-75.1026,5.48622],[-75.10366,5.48435],[-75.10506,5.48272],[-75.10586,5.47944],[-75.10598,5.47572],[-75.10741,5.47331],[-75.10804,5.47285],[-75.10777,5.47248],[-75.1078,5.47197],[-75.1082,5.47166],[-75.10858,5.47062],[-75.10973,5.46924],[-75.11125,5.46637],[-75.11248,5.465],[-75.11449,5.46201],[-75.11581,5.46071],[-75.11637,5.45986],[-75.11728,5.45934],[-75.1183,5.45846],[-75.11912,5.45658],[-75.11938,5.45543],[-75.11939,5.45418],[-75.11895,5.45194],[-75.12108,5.44957],[-75.12226,5.44687],[-75.12276,5.44439],[-75.12341,5.44373],[-75.12448,5.44356],[-75.12557,5.44243],[-75.12774,5.4409],[-75.129,5.43965],[-75.1294,5.4389],[-75.12977,5.43718],[-75.13042,5.43639],[-75.13135,5.43578],[-75.1325,5.43461],[-75.1341,5.4314],[-75.13531,5.43031],[-75.13646,5.42967],[-75.13858,5.42906],[-75.13985,5.42849],[-75.14045,5.42737],[-75.1418,5.42786],[-75.14512,5.42781],[-75.14638,5.42694],[-75.14713,5.42697],[-75.14805,5.42825],[-75.14658,5.43039],[-75.14585,5.43106],[-75.14501,5.43251],[-75.14438,5.43308],[-75.14359,5.43305],[-75.14304,5.43364],[-75.14194,5.43416],[-75.14068,5.43552],[-75.13917,5.43862],[-75.13805,5.43999],[-75.13769,5.44188],[-75.13677,5.44393],[-75.13545,5.44478],[-75.13473,5.44556],[-75.13243,5.44593],[-75.13194,5.44697],[-75.1304,5.4477],[-75.12922,5.44952],[-75.12878,5.45091],[-75.12745,5.45255],[-75.12753,5.4544],[-75.1267,5.45641],[-75.12502,5.45797],[-75.12351,5.45845],[-75.12135,5.46032],[-75.12019,5.46087],[-75.11973,5.46473],[-75.11943,5.46529],[-75.11945,5.46584],[-75.11889,5.46783],[-75.11972,5.46967],[-75.11861,5.47222],[-75.11834,5.47417],[-75.11805,5.47472],[-75.11811,5.4763],[-75.11777,5.47694],[-75.11747,5.47823],[-75.11607,5.47892],[-75.11529,5.48057],[-75.11416,5.48222],[-75.11372,5.48316],[-75.11061,5.4848],[-75.11026,5.4859],[-75.11032,5.48729],[-75.10876,5.48932],[-75.10749,5.49256],[-75.10666,5.49333],[-75.10672,5.49471],[-75.10607,5.49501],[-75.1041,5.49713],[-75.10418,5.49917],[-75.10194,5.49944],[-75.10123,5.49981],[-75.10028,5.50084],[-75.09944,5.50111],[-75.09834,5.50195],[-75.09659,5.50254],[-75.09488,5.50247],[-75.09588,5.50078]]]},"properties":{"unidad":"Ladera de contrapendiente de sierra homoclinal","codigo":"Sshlc","area_ha":809.3824}},{"type":"Feature","id":3,"geometry":{"type":"Polygon","coordinates":[[[-75.02241,5.38052],[-75.02191,5.37873],[-75.02189,5.37719],[-75.02245,5.37666],[-75.02347,5.37658],[-75.02408,5.3768],[-75.02765,5.37675],[-75.02854,5.37726],[-75.03108,5.3782],[-75.03158,5.3786],[-75.0323,5.3807],[-75.03195,5.38133],[-75.03137,5.38157],[-75.03053,5.38133],[-75.02963,5.38075],[-75.02704,5.38041],[-75.02643,5.38062],[-75.02528,5.38199],[-75.02442,5.3822],[-75.02306,5.38151],[-75.02241,5.38052]]]},"properties":{"unidad":"Manto de piroclastos","codigo":"Vmp","area_ha":48.359}},{"type":"Feature","id":4,"geometry":{"type":"Polygon","coordinates":[[[-75.09559,5.38437],[-75.09985,5.38769],[-75.10129,5.38849],[-75.10213,5.38927],[-75.1028,5.39208],[-75.10392,5.39274],[-75.10365,5.3932],[-75.10295,5.39346],[-75.10198,5.3932],[-75.10105,5.39257],[-75.09884,5.39054],[-75.09771,5.38902],[-75.09521,5.38664],[-75.09489,5.38579],[-75.09497,5.38491],[-75.09559,5.38437]]]},"properties":{"unidad":"Manto de piroclastos","codigo":"Vmp","area_ha":33.0263}},{"type":"Feature","id":5,"geometry":{"type":"Polygon","coordinates":[[[-75.06086,5.41241],[-75.06074,5.41031],[-75.06138,5.40989],[-75.06207,5.40977],[-75.06238,5.40994],[-75.06273,5.41122],[-75.06293,5.41151],[-75.06355,5.41177],[-75.06393,5.41236],[-75.0651,5.41214],[-75.06522,5.41133],[-75.06593,5.4113],[-75.06669,5.41065],[-75.06742,5.41059],[-75.0676,5.41099],[-75.06747,5.41257],[-75.06723,5.41311],[-75.06546,5.41383],[-75.06592,5.41489],[-75.06607,5.41612],[-75.06593,5.41709],[-75.06519,5.41885],[-75.0634,5.42051],[-75.06268,5.42085],[-75.06123,5.42078],[-75.06064,5.42048],[-75.06032,5.41992],[-75.06022,5.41888],[-75.06062,5.41846],[-75.06248,5.41766],[-75.0626,5.41731],[-75.06248,5.41698],[-75.06196,5.41654],[-75.06182,5.41602],[-75.06195,5.41545],[-75.06111,5.4144],[-75.06148,5.41338],[-75.06086,5.41241]]]},"properties":{"unidad":"Manto de piroclastos","codigo":"Vmp","area_ha":54.9306}},{"type":"Feature","id":6,"geometry":{"type":"Polygon","coordinates":[[[-75.07011,5.41194],[-75.07096,5.41181],[-75.07159,5.41193],[-75.07214,5.4128],[-75.07257,5.41426],[-75.07268,5.41553],[-75.07244,5.41688],[-75.07106,5.41907],[-75.07037,5.42165],[-75.06973,5.42252],[-75.06965,5.42353],[-75.06891,5.42435],[-75.06804,5.42443],[-75.06759,5.42412],[-75.06732,5.4233],[-75.0659,5.42216],[-75.06576,5.42145],[-75.06589,5.42052],[-75.06629,5.41925],[-75.067,5.41842],[-75.06795,5.41773],[-75.06845,5.41707],[-75.06854,5.41575],[-75.06818,5.41417],[-75.06852,5.41315],[-75.06885,5.41262],[-75.07011,5.41194]]]},"properties":{"unidad":"Manto de piroclastos","codigo":"Vmp","area_ha":58.9865}},{"type":"Feature","id":7,"geometry":{"type":"Polygon","coordinates":[[[-75.10362,5.42393],[-75.10258,5.4235],[-75.10187,5.42259],[-75.10182,5.42189],[-75.10199,5.42157],[-75.10308,5.42125],[-75.10416,5.42065],[-75.10595,5.42052],[-75.10738,5.42018],[-75.10794,5.42056],[-75.10839,5.42131],[-75.10891,5.42154],[-75.10899,5.4225],[-75.1082,5.42271],[-75.10851,5.4234],[-75.10849,5.42384],[-75.10819,5.42409],[-75.10773,5.42416],[-75.10728,5.42384],[-75.10682,5.42382],[-75.10633,5.42398],[-75.10584,5.42478],[-75.10536,5.42507],[-75.10489,5.4251],[-75.10448,5.42453],[-75.10362,5.42393]]]},"properties":{"unidad":"Manto de piroclastos","codigo":"Vmp","area_ha":27.786}},{"type":"Feature","id":8,"geometry":{"type":"Polygon","coordinates":[[[-75.02131,5.42584],[-75.02102,5.42475],[-75.02026,5.42371],[-75.02083,5.42358],[-75.02207,5.42274],[-75.02219,5.42248],[-75.02201,5.422],[-75.02093,5.42045],[-75.02056,5.42019],[-75.01858,5.42142],[-75.01878,5.42193],[-75.01966,5.42281],[-75.01982,5.42324],[-75.01908,5.42342],[-75.01807,5.42282],[-75.01782,5.42247],[-75.01705,5.42003],[-75.01712,5.41914],[-75.01692,5.41795],[-75.01678,5.41775],[-75.01648,5.41775],[-75.01597,5.41745],[-75.0158,5.417],[-75.01596,5.41625],[-75.01586,5.41586],[-75.01565,5.41555],[-75.01478,5.41507],[-75.01434,5.4141],[-75.01435,5.41369],[-75.01511,5.41252],[-75.01521,5.4097],[-75.01581,5.40743],[-75.01681,5.40485],[-75.01642,5.4036],[-75.01657,5.40332],[-75.01705,5.4034],[-75.01719,5.40319],[-75.01704,5.40282],[-75.01713,5.40225],[-75.01809,5.40223],[-75.01844,5.40185],[-75.01842,5.40147],[-75.01766,5.40064],[-75.01784,5.40028],[-75.01879,5.40026],[-75.01904,5.4001],[-75.01886,5.39963],[-75.01838,5.39949],[-75.01822,5.399],[-75.01884,5.39843],[-75.01903,5.3968],[-75.01922,5.39648],[-75.02112,5.39569],[-75.02247,5.39569],[-75.02455,5.39509],[-75.02529,5.39512],[-75.0256,5.39523],[-75.02573,5.39556],[-75.02581,5.39728],[-75.02602,5.39756],[-75.02683,5.39776],[-75.02694,5.39819],[-75.02619,5.4007],[-75.02542,5.40228],[-75.02483,5.40468],[-75.02523,5.40421],[-75.02615,5.40141],[-75.0267,5.40064],[-75.02765,5.39992],[-75.02831,5.39965],[-75.03087,5.39964],[-75.03145,5.3999],[-75.03127,5.4006],[-75.03031,5.40119],[-75.0283,5.40176],[-75.02783,5.40209],[-75.02741,5.40343],[-75.0265,5.40478],[-75.02538,5.40765],[-75.02535,5.40949],[-75.02575,5.41072],[-75.02615,5.41116],[-75.02717,5.41169],[-75.02832,5.41148],[-75.02903,5.41049],[-75.02959,5.4093],[-75.02989,5.40915],[-75.03072,5.4092],[-75.03119,5.40865],[-75.03156,5.40784],[-75.03265,5.40745],[-75.03266,5.40693],[-75.03232,5.40654],[-75.03304,5.4059],[-75.03273,5.40507],[-75.03354,5.40475],[-75.03379,5.40432],[-75.03417,5.40421],[-75.03434,5.40435],[-75.0343,5.40528],[-75.03457,5.40595],[-75.03405,5.40674],[-75.03335,5.40925],[-75.03331,5.41133],[-75.03363,5.41296],[-75.03364,5.41465],[-75.03255,5.41786],[-75.03259,5.4202],[-75.03132,5.42221],[-75.03041,5.42518],[-75.02942,5.42415],[-75.02801,5.42416],[-75.02667,5.42556],[-75.02558,5.42627],[-75.0228,5.42578],[-75.02131,5.42584]]]},"properties":{"unidad":"Manto de piroclastos","codigo":"Vmp","area_ha":463.2719}},{"type":"Feature","id":9,"geometry":{"type":"Polygon","coordinates":[[[-75.04445,5.42478],[-75.04465,5.42384],[-75.04532,5.42362],[-75.04608,5.42283],[-75.04663,5.42251],[-75.04752,5.42273],[-75.04808,5.4231],[-75.04881,5.42306],[-75.05001,5.42391],[-75.05075,5.4238],[-75.05131,5.4245],[-75.05125,5.42857],[-75.0508,5.42956],[-75.04907,5.42988],[-75.04813,5.42982],[-75.04733,5.42946],[-75.04694,5.42883],[-75.04669,5.42778],[-75.04568,5.42589],[-75.04483,5.42553],[-75.04445,5.42478]]]},"properties":{"unidad":"Manto de piroclastos","codigo":"Vmp","area_ha":42.5808}},{"type":"Feature","id":10,"geometry":{"type":"Polygon","coordinates":[[[-75.12927,5.42951],[-75.12661,5.42915],[-75.12534,5.42789],[-75.12296,5.42724],[-75.1223,5.42781],[-75.12157,5.42791],[-75.12047,5.42756],[-75.11915,5.42795],[-75.11857,5.42781],[-75.11823,5.42703],[-75.11689,5.42654],[-75.11662,5.42621],[-75.11648,5.42553],[-75.11615,5.4254],[-75.11443,5.4254],[-75.11396,5.42511],[-75.11326,5.42443],[-75.11304,5.42358],[-75.11319,5.42331],[-75.11374,5.4233],[-75.11457,5.42372],[-75.11516,5.42378],[-75.11693,5.42335],[-75.11785,5.42352],[-75.1192,5.42412],[-75.11981,5.42417],[-75.12207,5.42367],[-75.12302,5.42362],[-75.12469,5.42394],[-75.12554,5.4251],[-75.12583,5.42524],[-75.1267,5.42508],[-75.12731,5.42559],[-75.12745,5.42596],[-75.12872,5.42615],[-75.12941,5.4265],[-75.12986,5.42638],[-75.12996,5.42616],[-75.12981,5.42478],[-75.13025,5.42457],[-75.13064,5.42503],[-75.13103,5.42742],[-75.13138,5.42822],[-75.13128,5.42908],[-75.13095,5.42995],[-75.13055,5.43041],[-75.13016,5.43043],[-75.12927,5.42951]]]},"properties":{"unidad":"Manto de piroclastos","codigo":"Vmp","area_ha":73.0877}},{"type":"Feature","id":11,"geometry":{"type":"Polygon","coordinates":[[[-75.0401,5.43059],[-75.04006,5.42961],[-75.04046,5.42855],[-75.04111,5.42838],[-75.04151,5.4286],[-75.04236,5.42822],[-75.04331,5.42818],[-75.04404,5.42865],[-75.04452,5.42869],[-75.04539,5.42819],[-75.04605,5.42844],[-75.04678,5.43079],[-75.04724,5.43169],[-75.04736,5.43288],[-75.04699,5.43365],[-75.04649,5.4331],[-75.04612,5.43194],[-75.04498,5.43137],[-75.04502,5.43056],[-75.04329,5.42949],[-75.04136,5.42917],[-75.04084,5.43028],[-75.0401,5.43059]]]},"properties":{"unidad":"Manto de piroclastos","codigo":"Vmp","area_ha":16.5109}},{"type":"Feature","id":12,"geometry":{"type":"Polygon","coordinates":[[[-75.05802,5.45366],[-75.05777,5.45334],[-75.05744,5.45161],[-75.05751,5.44998],[-75.05637,5.44892],[-75.0564,5.4483],[-75.05556,5.44666],[-75.05466,5.44604],[-75.05378,5.44417],[-75.05244,5.44331],[-75.05088,5.44162],[-75.05056,5.44027],[-75.04972,5.43917],[-75.04919,5.43676],[-75.04947,5.43659],[-75.0501,5.43652],[-75.05061,5.43705],[-75.05082,5.43841],[-75.05115,5.43857],[-75.05149,5.43833],[-75.05262,5.43841],[-75.05297,5.43907],[-75.05276,5.44051],[-75.05333,5.4416],[-75.05355,5.44292],[-75.05394,5.4432],[-75.05572,5.44315],[-75.05614,5.44357],[-75.05611,5.44461],[-75.05629,5.44479],[-75.05731,5.44458],[-75.0577,5.44466],[-75.05841,5.44531],[-75.05864,5.44573],[-75.05797,5.44726],[-75.05831,5.4481],[-75.05915,5.44842],[-75.05943,5.44891],[-75.05906,5.4502],[-75.05918,5.45081],[-75.05988,5.45083],[-75.06082,5.44979],[-75.06134,5.44966],[-75.06171,5.44996],[-75.0617,5.45199],[-75.06145,5.45284],[-75.06082,5.45347],[-75.05941,5.45403],[-75.05802,5.45366]]]},"properties":{"unidad":"Manto de piroclastos","codigo":"Vmp","area_ha":58.2392}},{"type":"Feature","id":13,"geometry":{"type":"Polygon","coordinates":[[[-75.0792,5.50481],[-75.08026,5.50371],[-75.08081,5.50355],[-75.08182,5.50368],[-75.08362,5.50519],[-75.08506,5.50568],[-75.08538,5.50617],[-75.08539,5.50667],[-75.08474,5.50711],[-75.08139,5.50555],[-75.0792,5.50481]]]},"properties":{"unidad":"Manto de piroclastos","codigo":"Vmp","area_ha":11.1942}},{"type":"Feature","id":14,"geometry":{"type":"Polygon","coordinates":[[[-75.04326,5.35933],[-75.04342,5.36197],[-75.04291,5.36369],[-75.04133,5.36597],[-75.03877,5.3683],[-75.03779,5.3694],[-75.0372,5.37048],[-75.03636,5.37281],[-75.03603,5.37324],[-75.03539,5.37365],[-75.03478,5.37449],[-75.0345,5.37594],[-75.03486,5.37684],[-75.03568,5.37805],[-75.03622,5.37947],[-75.03777,5.38083],[-75.0392,5.38281],[-75.0406,5.38419],[-75.04165,5.38494],[-75.04308,5.38557],[-75.04663,5.38574],[-75.04733,5.38599],[-75.04823,5.3866],[-75.04916,5.38778],[-75.04981,5.38882],[-75.04998,5.38941],[-75.0462,5.39089],[-75.04452,5.39099],[-75.04279,5.39046],[-75.04103,5.39032],[-75.03965,5.39079],[-75.03728,5.39401],[-75.03709,5.39573],[-75.03716,5.39686],[-75.03751,5.39797],[-75.03742,5.3994],[-75.03629,5.40105],[-75.03523,5.40496],[-75.03457,5.40595],[-75.0343,5.40528],[-75.03434,5.40435],[-75.03417,5.40421],[-75.03379,5.40432],[-75.03354,5.40475],[-75.03284,5.40492],[-75.03273,5.40537],[-75.03304,5.4059],[-75.03232,5.40654],[-75.03266,5.40693],[-75.03265,5.40745],[-75.03156,5.40784],[-75.03119,5.40865],[-75.03072,5.4092],[-75.02989,5.40915],[-75.02959,5.4093],[-75.02872,5.41101],[-75.02832,5.41148],[-75.02775,5.41169],[-75.02669,5.41149],[-75.02575,5.41072],[-75.02535,5.40949],[-75.02538,5.40765],[-75.0265,5.40478],[-75.02741,5.40343],[-75.02783,5.40209],[-75.0283,5.40176],[-75.03031,5.40119],[-75.03127,5.4006],[-75.03145,5.3999],[-75.03087,5.39964],[-75.02831,5.39965],[-75.02765,5.39992],[-75.0267,5.40064],[-75.02615,5.40141],[-75.02523,5.40421],[-75.02483,5.40468],[-75.02542,5.40228],[-75.02619,5.4007],[-75.02694,5.39819],[-75.02683,5.39776],[-75.02602,5.39756],[-75.02581,5.39728],[-75.02585,5.39617],[-75.0256,5.39523],[-75.02455,5.39509],[-75.0234,5.39553],[-75.02112,5.39569],[-75.01922,5.39648],[-75.01892,5.39734],[-75.01884,5.39843],[-75.01822,5.399],[-75.01838,5.39949],[-75.01886,5.39963],[-75.01904,5.4001],[-75.01879,5.40026],[-75.01784,5.40028],[-75.01766,5.40064],[-75.01842,5.40147],[-75.01844,5.40185],[-75.01809,5.40223],[-75.01713,5.40225],[-75.01704,5.40282],[-75.01719,5.40319],[-75.01705,5.4034],[-75.01657,5.40332],[-75.01642,5.4036],[-75.01681,5.40485],[-75.01581,5.40743],[-75.01521,5.4097],[-75.01511,5.41252],[-75.01435,5.41369],[-75.01434,5.4141],[-75.01478,5.41507],[-75.01565,5.41555],[-75.01586,5.41586],[-75.01596,5.41625],[-75.0158,5.417],[-75.01597,5.41745],[-75.01648,5.41775],[-75.01678,5.41775],[-75.01692,5.41795],[-75.01712,5.41914],[-75.01705,5.42003],[-75.01782,5.42247],[-75.01832,5.42306],[-75.01908,5.42342],[-75.01982,5.42324],[-75.01994,5.42354],[-75.02086,5.42443],[-75.02131,5.42584],[-75.02002,5.4264],[-75.01909,5.42608],[-75.01757,5.4261],[-75.01487,5.42381],[-75.01389,5.42138],[-75.01277,5.42001],[-75.01251,5.41944],[-75.01135,5.41856],[-75.01175,5.4155],[-75.01104,5.41588],[-75.00944,5.41584],[-75.00904,5.4154],[-75.01084,5.41278],[-75.01111,5.41111],[-75.01168,5.41002],[-75.01135,5.40909],[-75.0114,5.40787],[-75.01027,5.40639],[-75.00993,5.40568],[-75.00997,5.40305],[-75.01138,5.40175],[-75.01172,5.39994],[-75.01165,5.39817],[-75.01083,5.39778],[-75.00941,5.39663],[-75.00804,5.39668],[-75.00577,5.3943],[-75.00528,5.3934],[-75.00687,5.39132],[-75.00633,5.38924],[-75.00702,5.38823],[-75.00894,5.38749],[-75.00998,5.38753],[-75.01138,5.38638],[-75.01224,5.38611],[-75.01219,5.38488],[-75.01351,5.38417],[-75.0155,5.38554],[-75.01783,5.38386],[-75.01857,5.38307],[-75.01888,5.38111],[-75.01957,5.3793],[-75.02138,5.37714],[-75.02166,5.37222],[-75.02225,5.37111],[-75.02223,5.36916],[-75.02191,5.36856],[-75.02197,5.36701],[-75.02389,5.36473],[-75.02416,5.36333],[-75.02481,5.36239],[-75.02643,5.36089],[-75.02765,5.36056],[-75.02814,5.36261],[-75.02866,5.36309],[-75.03081,5.36307],[-75.03169,5.36276],[-75.03525,5.3628],[-75.03786,5.36212],[-75.0406,5.35974],[-75.04326,5.35933]],[[-75.02241,5.38052],[-75.02306,5.38151],[-75.02442,5.3822],[-75.02528,5.38199],[-75.02643,5.38062],[-75.02704,5.38041],[-75.02963,5.38075],[-75.03053,5.38133],[-75.03137,5.38157],[-75.03195,5.38133],[-75.0323,5.3807],[-75.03158,5.3786],[-75.03108,5.3782],[-75.02854,5.37726],[-75.02765,5.37675],[-75.02408,5.3768],[-75.02347,5.37658],[-75.02245,5.37666],[-75.02189,5.37719],[-75.02191,5.37873],[-75.02241,5.38052]]]},"properties":{"unidad":"Sierra residual","codigo":"Dsr","area_ha":1256.3572}},{"type":"Feature","id":15,"geometry":{"type":"Polygon","coordinates":[[[-75.08437,5.50546],[-75.0835,5.50279],[-75.08391,5.4998],[-75.0839,5.49813],[-75.08186,5.4943],[-75.08141,5.49313],[-75.08145,5.4924],[-75.08203,5.491],[-75.0821,5.48916],[-75.08199,5.48831],[-75.08148,5.48708],[-75.08116,5.48527],[-75.08134,5.48455],[-75.0818,5.48419],[-75.08494,5.48412],[-75.08595,5.48376],[-75.08646,5.48322],[-75.08725,5.48174],[-75.08778,5.48012],[-75.08755,5.47749],[-75.08799,5.47582],[-75.08845,5.47487],[-75.08852,5.47268],[-75.08842,5.47188],[-75.08776,5.47094],[-75.08759,5.47014],[-75.08762,5.46749],[-75.088,5.46554],[-75.08806,5.46434],[-75.08767,5.46331],[-75.08637,5.4618],[-75.08596,5.46093],[-75.08606,5.45872],[-75.08572,5.45624],[-75.08613,5.45372],[-75.08559,5.45316],[-75.08426,5.45229],[-75.08389,5.45143],[-75.08411,5.45083],[-75.08519,5.44986],[-75.08691,5.44766],[-75.08733,5.44663],[-75.08755,5.44504],[-75.08676,5.44432],[-75.08624,5.44298],[-75.08571,5.44225],[-75.0837,5.4406],[-75.08285,5.44027],[-75.08205,5.43908],[-75.08196,5.43859],[-75.0821,5.43812],[-75.08328,5.43689],[-75.08363,5.43614],[-75.08342,5.435],[-75.08273,5.43348],[-75.08274,5.43265],[-75.08352,5.43162],[-75.0851,5.43067],[-75.08538,5.42978],[-75.08538,5.42907],[-75.08458,5.42794],[-75.08329,5.42722],[-75.08217,5.42636],[-75.08107,5.42514],[-75.08097,5.42413],[-75.08167,5.42303],[-75.08192,5.42227],[-75.08183,5.42079],[-75.08152,5.42023],[-75.08047,5.41968],[-75.07992,5.41879],[-75.07969,5.41673],[-75.0784,5.41478],[-75.07912,5.41484],[-75.08028,5.41522],[-75.08064,5.41558],[-75.08073,5.4163],[-75.08119,5.41646],[-75.08224,5.41596],[-75.08335,5.41455],[-75.08426,5.41393],[-75.08539,5.41415],[-75.08601,5.41522],[-75.08673,5.41558],[-75.08727,5.4154],[-75.0879,5.41475],[-75.09082,5.41492],[-75.09155,5.41467],[-75.09211,5.41399],[-75.09287,5.41393],[-75.09417,5.41427],[-75.0961,5.4156],[-75.09759,5.41583],[-75.09873,5.41626],[-75.09968,5.41631],[-75.10193,5.41606],[-75.10474,5.41464],[-75.10588,5.41451],[-75.10647,5.415],[-75.10704,5.41647],[-75.1076,5.41703],[-75.10833,5.41712],[-75.11053,5.41637],[-75.11145,5.41642],[-75.11194,5.41676],[-75.11307,5.4181],[-75.11392,5.41871],[-75.11497,5.41915],[-75.11651,5.41926],[-75.11771,5.41984],[-75.11883,5.42121],[-75.1196,5.42177],[-75.12319,5.42235],[-75.1248,5.42313],[-75.1258,5.42337],[-75.12749,5.42312],[-75.12966,5.42226],[-75.13042,5.42236],[-75.13177,5.42291],[-75.13352,5.423],[-75.13448,5.42476],[-75.13677,5.42591],[-75.13747,5.42667],[-75.14045,5.42737],[-75.13985,5.42849],[-75.13593,5.42991],[-75.13436,5.4311],[-75.13393,5.43167],[-75.1325,5.43461],[-75.13135,5.43578],[-75.13042,5.43639],[-75.12977,5.43718],[-75.1294,5.4389],[-75.129,5.43965],[-75.12774,5.4409],[-75.12557,5.44243],[-75.12448,5.44356],[-75.12341,5.44373],[-75.12276,5.44439],[-75.12226,5.44687],[-75.12108,5.44957],[-75.11895,5.45194],[-75.11939,5.45418],[-75.11938,5.45543],[-75.11912,5.45658],[-75.1183,5.45846],[-75.11728,5.45934],[-75.11637,5.45986],[-75.11581,5.46071],[-75.11449,5.46201],[-75.11248,5.465],[-75.11125,5.46637],[-75.10973,5.46924],[-75.10858,5.47062],[-75.1082,5.47166],[-75.1078,5.47197],[-75.10777,5.47248],[-75.10804,5.47285],[-75.10741,5.47331],[-75.10598,5.47572],[-75.10586,5.47944],[-75.10506,5.48272],[-75.10366,5.48435],[-75.1026,5.48622],[-75.10169,5.48717],[-75.10042,5.48992],[-75.09839,5.49332],[-75.09733,5.49573],[-75.0971,5.49692],[-75.09605,5.49925],[-75.09588,5.50078],[-75.09488,5.50247],[-75.09323,5.5024],[-75.09251,5.50278],[-75.09088,5.50317],[-75.09056,5.50417],[-75.08917,5.50501],[-75.08534,5.50679],[-75.08538,5.50617],[-75.08506,5.50568],[-75.08437,5.50546]],[[-75.12661,5.42915],[-75.12927,5.42951],[-75.13016,5.43043],[-75.13055,5.43041],[-75.13095,5.42995],[-75.13128,5.42908],[-75.13138,5.42822],[-75.13103,5.42742],[-75.13064,5.42503],[-75.13025,5.42457],[-75.12981,5.42478],[-75.12996,5.42616],[-75.12986,5.42638],[-75.12941,5.4265],[-75.12872,5.42615],[-75.12745,5.42596],[-75.12731,5.42559],[-75.1267,5.42508],[-75.12583,5.42524],[-75.12554,5.4251],[-75.12469,5.42394],[-75.12302,5.42362],[-75.12207,5.42367],[-75.11981,5.42417],[-75.1192,5.42412],[-75.11785,5.42352],[-75.11693,5.42335],[-75.11516,5.42378],[-75.11457,5.42372],[-75.11374,5.4233],[-75.11319,5.42331],[-75.11304,5.42358],[-75.11326,5.42443],[-75.11396,5.42511],[-75.11443,5.4254],[-75.11615,5.4254],[-75.11648,5.42553],[-75.11662,5.42621],[-75.11689,5.42654],[-75.11823,5.42703],[-75.11857,5.42781],[-75.11915,5.42795],[-75.12047,5.42756],[-75.12157,5.42791],[-75.1223,5.42781],[-75.12296,5.42724],[-75.12534,5.42789],[-75.12661,5.42915]],[[-75.10362,5.42393],[-75.10448,5.42453],[-75.10489,5.4251],[-75.10536,5.42507],[-75.10584,5.42478],[-75.10633,5.42398],[-75.10682,5.42382],[-75.10728,5.42384],[-75.10773,5.42416],[-75.10819,5.42409],[-75.10849,5.42384],[-75.10851,5.4234],[-75.1082,5.42271],[-75.10899,5.4225],[-75.10891,5.42154],[-75.10839,5.42131],[-75.10794,5.42056],[-75.10738,5.42018],[-75.10595,5.42052],[-75.10416,5.42065],[-75.10308,5.42125],[-75.10199,5.42157],[-75.10182,5.42189],[-75.10187,5.42259],[-75.10258,5.4235],[-75.10362,5.42393]]]},"properties":{"unidad":"Espolón","codigo":"Ses","area_ha":3188.4892}},{"type":"Feature","id":16,"geometry":{"type":"MultiPolygon","coordinates":[[[[-75.03041,5.42518],[-75.03062,5.42478],[-75.03049,5.42526],[-75.03041,5.42518]]],[[[-75.06667,5.47444],[-75.06598,5.47411],[-75.06415,5.47418],[-75.0636,5.47359],[-75.0615,5.47292],[-75.05888,5.47251],[-75.05688,5.47162],[-75.05459,5.47193],[-75.05276,5.47082],[-75.05279,5.47018],[-75.05362,5.46862],[-75.05359,5.46255],[-75.05472,5.45888],[-75.05615,5.4572],[-75.05733,5.45724],[-75.05907,5.45503],[-75.05802,5.45366],[-75.05941,5.45403],[-75.06082,5.45347],[-75.06145,5.45284],[-75.0617,5.45199],[-75.06171,5.44996],[-75.06134,5.44966],[-75.06082,5.44979],[-75.05988,5.45083],[-75.05918,5.45081],[-75.05906,5.4502],[-75.05943,5.44891],[-75.05915,5.44842],[-75.05831,5.4481],[-75.05797,5.44726],[-75.05864,5.44573],[-75.05841,5.44531],[-75.0577,5.44466],[-75.05731,5.44458],[-75.05629,5.44479],[-75.05611,5.44461],[-75.05614,5.44357],[-75.05572,5.44315],[-75.05394,5.4432],[-75.05355,5.44292],[-75.05333,5.4416],[-75.05276,5.44051],[-75.05297,5.43907],[-75.05262,5.43841],[-75.05149,5.43833],[-75.05115,5.43857],[-75.05082,5.43841],[-75.05061,5.43705],[-75.0501,5.43652],[-75.04919,5.43676],[-75.04806,5.43561],[-75.04778,5.43444],[-75.04699,5.43365],[-75.04736,5.43288],[-75.04724,5.43169],[-75.04678,5.43079],[-75.04605,5.42844],[-75.04539,5.42819],[-75.04452,5.42869],[-75.04404,5.42865],[-75.04331,5.42818],[-75.04236,5.42822],[-75.04151,5.4286],[-75.04111,5.42838],[-75.04046,5.42855],[-75.04006,5.42961],[-75.0401,5.43059],[-75.03877,5.43053],[-75.03511,5.42879],[-75.03423,5.42753],[-75.03531,5.42624],[-75.03557,5.42549],[-75.03735,5.42386],[-75.038,5.42298],[-75.03824,5.42188],[-75.0381,5.42045],[-75.03924,5.41998],[-75.03953,5.41969],[-75.03919,5.41828],[-75.03947,5.41743],[-75.03973,5.41727],[-75.04024,5.41774],[-75.04094,5.41791],[-75.04132,5.41773],[-75.04179,5.417],[-75.04177,5.41686],[-75.04102,5.41675],[-75.04094,5.41573],[-75.04171,5.41477],[-75.04186,5.41304],[-75.04307,5.41171],[-75.04221,5.40994],[-75.04214,5.4094],[-75.04239,5.40896],[-75.04326,5.40843],[-75.04351,5.40807],[-75.04332,5.40739],[-75.04253,5.40647],[-75.04259,5.40528],[-75.04331,5.4041],[-75.0435,5.4027],[-75.04495,5.40188],[-75.04549,5.40033],[-75.04547,5.39937],[-75.04467,5.39753],[-75.04463,5.39667],[-75.04495,5.39611],[-75.04572,5.39552],[-75.04587,5.39426],[-75.04614,5.39375],[-75.04829,5.39248],[-75.04818,5.39403],[-75.0488,5.39475],[-75.05029,5.39569],[-75.052,5.3962],[-75.05362,5.39734],[-75.05464,5.39773],[-75.0558,5.39761],[-75.05725,5.39653],[-75.06061,5.39654],[-75.06261,5.39567],[-75.06452,5.39639],[-75.06559,5.39653],[-75.06656,5.39648],[-75.06761,5.39611],[-75.06973,5.39594],[-75.07083,5.3965],[-75.0724,5.39668],[-75.07363,5.39747],[-75.0743,5.39841],[-75.07505,5.39898],[-75.07569,5.40056],[-75.0764,5.40078],[-75.07678,5.40124],[-75.07738,5.40131],[-75.07835,5.40226],[-75.07852,5.40312],[-75.07848,5.40463],[-75.07914,5.40567],[-75.07924,5.40666],[-75.07875,5.40874],[-75.07796,5.41055],[-75.07789,5.41156],[-75.07837,5.41313],[-75.07828,5.4146],[-75.07969,5.41673],[-75.07988,5.4187],[-75.08047,5.41968],[-75.08161,5.42032],[-75.08188,5.42099],[-75.08188,5.42247],[-75.08101,5.42404],[-75.08098,5.4249],[-75.08126,5.42543],[-75.082,5.42621],[-75.08329,5.42722],[-75.08458,5.42794],[-75.08538,5.42907],[-75.08538,5.42978],[-75.0851,5.43067],[-75.08352,5.43162],[-75.08274,5.43265],[-75.08273,5.43348],[-75.08342,5.435],[-75.08363,5.43614],[-75.08328,5.43689],[-75.0821,5.43812],[-75.08196,5.43859],[-75.08214,5.43931],[-75.08255,5.43997],[-75.08296,5.44036],[-75.0837,5.4406],[-75.08552,5.44205],[-75.08624,5.44298],[-75.08676,5.44432],[-75.08754,5.44497],[-75.08733,5.44663],[-75.08691,5.44766],[-75.08578,5.44918],[-75.08411,5.45083],[-75.0839,5.45125],[-75.08418,5.4522],[-75.08559,5.45316],[-75.08613,5.45372],[-75.0858,5.45533],[-75.08573,5.45688],[-75.08449,5.45886],[-75.08315,5.45995],[-75.08184,5.46176],[-75.0812,5.46185],[-75.08023,5.4616],[-75.07977,5.46172],[-75.07931,5.46209],[-75.07924,5.46281],[-75.07896,5.4631],[-75.0785,5.46299],[-75.07822,5.46245],[-75.07751,5.46242],[-75.07552,5.46313],[-75.07282,5.46381],[-75.07197,5.46448],[-75.07167,5.46499],[-75.07149,5.46662],[-75.07093,5.46776],[-75.07095,5.46809],[-75.07185,5.46966],[-75.07181,5.47013],[-75.0715,5.47053],[-75.07164,5.471],[-75.0725,5.47235],[-75.07305,5.47246],[-75.07331,5.47283],[-75.07296,5.4734],[-75.0718,5.47423],[-75.07114,5.47536],[-75.07114,5.47595],[-75.07163,5.47698],[-75.07196,5.47985],[-75.07032,5.47904],[-75.06969,5.4777],[-75.06812,5.4762],[-75.06667,5.47444]],[[-75.05131,5.4245],[-75.05075,5.4238],[-75.05001,5.42391],[-75.04881,5.42306],[-75.04808,5.4231],[-75.04752,5.42273],[-75.04663,5.42251],[-75.04608,5.42283],[-75.04532,5.42362],[-75.04465,5.42384],[-75.04445,5.42478],[-75.04483,5.42553],[-75.04568,5.42589],[-75.04669,5.42778],[-75.04694,5.42883],[-75.04733,5.42946],[-75.04813,5.42982],[-75.04907,5.42988],[-75.0508,5.42956],[-75.05125,5.42857],[-75.05131,5.4245]],[[-75.0659,5.42216],[-75.06732,5.4233],[-75.06759,5.42412],[-75.06804,5.42443],[-75.06891,5.42435],[-75.06965,5.42353],[-75.06973,5.42252],[-75.07037,5.42165],[-75.07106,5.41907],[-75.07244,5.41688],[-75.07268,5.41553],[-75.07257,5.41426],[-75.07214,5.4128],[-75.07159,5.41193],[-75.07096,5.41181],[-75.06947,5.4122],[-75.06885,5.41262],[-75.06852,5.41315],[-75.06818,5.41417],[-75.06854,5.41575],[-75.06845,5.41707],[-75.06795,5.41773],[-75.067,5.41842],[-75.06629,5.41925],[-75.06589,5.42052],[-75.06576,5.42145],[-75.0659,5.42216]],[[-75.06723,5.41311],[-75.0676,5.41099],[-75.06742,5.41059],[-75.06669,5.41065],[-75.06593,5.4113],[-75.06522,5.41133],[-75.0651,5.41214],[-75.06393,5.41236],[-75.06355,5.41177],[-75.06293,5.41151],[-75.06273,5.41122],[-75.06238,5.40994],[-75.06207,5.40977],[-75.06138,5.40989],[-75.06074,5.41031],[-75.06086,5.41241],[-75.06148,5.41338],[-75.06111,5.4144],[-75.06195,5.41545],[-75.06182,5.41602],[-75.06196,5.41654],[-75.06248,5.41698],[-75.0626,5.41731],[-75.06248,5.41766],[-75.06062,5.41846],[-75.06022,5.41888],[-75.06032,5.41992],[-75.06064,5.42048],[-75.06123,5.42078],[-75.06268,5.42085],[-75.0634,5.42051],[-75.06519,5.41885],[-75.06593,5.41709],[-75.06607,5.41612],[-75.06592,5.41489],[-75.06546,5.41383],[-75.06723,5.41311]]]]},"properties":{"unidad":"Sierra homoclinal","codigo":"Ssh","area_ha":2879.1045}},{"type":"Feature","id":17,"geometry":{"type":"Polygon","coordinates":[[[-75.0784,5.41478],[-75.07827,5.41449],[-75.07837,5.41313],[-75.07792,5.41176],[-75.0779,5.4109],[-75.07893,5.40819],[-75.07924,5.40648],[-75.07914,5.40567],[-75.07848,5.40463],[-75.07844,5.40254],[-75.07822,5.40204],[-75.07772,5.40176],[-75.07738,5.40131],[-75.07678,5.40124],[-75.0764,5.40078],[-75.07569,5.40056],[-75.07505,5.39898],[-75.0743,5.39841],[-75.0735,5.39735],[-75.0724,5.39668],[-75.07083,5.3965],[-75.06973,5.39594],[-75.06761,5.39611],[-75.06656,5.39648],[-75.06559,5.39653],[-75.06452,5.39639],[-75.06261,5.39567],[-75.06061,5.39654],[-75.05725,5.39653],[-75.05595,5.39752],[-75.05498,5.39778],[-75.05377,5.39743],[-75.052,5.3962],[-75.04984,5.39546],[-75.0488,5.39475],[-75.04815,5.3939],[-75.04829,5.39248],[-75.04948,5.391],[-75.04986,5.39022],[-75.04998,5.38952],[-75.04964,5.38851],[-75.0483,5.38668],[-75.04676,5.38576],[-75.04331,5.38563],[-75.04114,5.38462],[-75.03948,5.38312],[-75.03777,5.38083],[-75.03633,5.3796],[-75.03589,5.37886],[-75.03568,5.37805],[-75.03493,5.37695],[-75.03759,5.37678],[-75.04456,5.37509],[-75.04588,5.3745],[-75.04705,5.37366],[-75.04847,5.37405],[-75.04915,5.37478],[-75.052,5.3747],[-75.05305,5.37506],[-75.05456,5.37616],[-75.05702,5.37673],[-75.05799,5.37641],[-75.05935,5.37635],[-75.06062,5.37675],[-75.06214,5.37775],[-75.06447,5.37777],[-75.06598,5.37745],[-75.07072,5.37812],[-75.07187,5.37895],[-75.07398,5.38001],[-75.07554,5.38026],[-75.0773,5.3794],[-75.07888,5.37831],[-75.08043,5.3783],[-75.08461,5.3798],[-75.08836,5.38254],[-75.09034,5.38295],[-75.09263,5.38369],[-75.09524,5.38411],[-75.09559,5.38437],[-75.09497,5.38491],[-75.09489,5.38579],[-75.09521,5.38664],[-75.09771,5.38902],[-75.09884,5.39054],[-75.10105,5.39257],[-75.10198,5.3932],[-75.10295,5.39346],[-75.10365,5.3932],[-75.10392,5.39276],[-75.10493,5.39364],[-75.1057,5.39552],[-75.10597,5.39583],[-75.10612,5.39678],[-75.10735,5.39757],[-75.1091,5.39967],[-75.10941,5.40012],[-75.11024,5.40254],[-75.11182,5.4043],[-75.11489,5.4061],[-75.11724,5.40633],[-75.12542,5.40794],[-75.12722,5.40775],[-75.12755,5.40879],[-75.12841,5.4092],[-75.13002,5.41093],[-75.13189,5.4123],[-75.13221,5.4156],[-75.13305,5.41889],[-75.13364,5.42001],[-75.13352,5.423],[-75.13177,5.42291],[-75.13042,5.42236],[-75.12966,5.42226],[-75.12749,5.42312],[-75.1258,5.42337],[-75.1248,5.42313],[-75.12319,5.42235],[-75.11984,5.42186],[-75.11903,5.4214],[-75.11809,5.42016],[-75.11728,5.41958],[-75.11626,5.4192],[-75.11475,5.4191],[-75.11366,5.41855],[-75.11145,5.41642],[-75.11053,5.41637],[-75.10833,5.41712],[-75.1076,5.41703],[-75.10704,5.41647],[-75.10647,5.415],[-75.10576,5.41449],[-75.10474,5.41464],[-75.10193,5.41606],[-75.09968,5.41631],[-75.09873,5.41626],[-75.09759,5.41583],[-75.0961,5.4156],[-75.09417,5.41427],[-75.09287,5.41393],[-75.09211,5.41399],[-75.09155,5.41467],[-75.09082,5.41492],[-75.0879,5.41475],[-75.08727,5.4154],[-75.08673,5.41558],[-75.08601,5.41522],[-75.08539,5.41415],[-75.08426,5.41393],[-75.08335,5.41455],[-75.08224,5.41596],[-75.08119,5.41646],[-75.08073,5.4163],[-75.08064,5.41558],[-75.08028,5.41522],[-75.07912,5.41484],[-75.0784,5.41478]]]},"properties":{"unidad":"Espolón faceteado","codigo":"Sefc","area_ha":2328.5033}},{"type":"Feature","id":18,"geometry":{"type":"MultiPolygon","coordinates":[[[[-75.04788,5.36282],[-75.04771,5.36246],[-75.04824,5.36299],[-75.04795,5.36492],[-75.04788,5.36282]]],[[[-75.04783,5.37075],[-75.04803,5.36728],[-75.04882,5.36831],[-75.04783,5.37075]]],[[[-75.04705,5.37366],[-75.04751,5.37199],[-75.04755,5.37314],[-75.04847,5.37405],[-75.04705,5.37366]]],[[[-75.05702,5.37673],[-75.05456,5.37616],[-75.05305,5.37506],[-75.052,5.3747],[-75.05281,5.37445],[-75.05333,5.37501],[-75.05501,5.37527],[-75.05552,5.37583],[-75.05733,5.37643],[-75.05799,5.37641],[-75.05702,5.37673]]],[[[-75.05935,5.37635],[-75.06007,5.37633],[-75.06108,5.37702],[-75.06062,5.37675],[-75.05935,5.37635]]],[[[-75.09524,5.38411],[-75.09263,5.38369],[-75.09034,5.38295],[-75.08836,5.38254],[-75.08461,5.3798],[-75.08043,5.3783],[-75.07888,5.37831],[-75.0773,5.3794],[-75.07554,5.38026],[-75.07398,5.38001],[-75.07187,5.37895],[-75.07072,5.37812],[-75.06598,5.37745],[-75.06447,5.37777],[-75.0625,5.37765],[-75.06416,5.37722],[-75.06874,5.37769],[-75.07076,5.37716],[-75.07273,5.37816],[-75.07313,5.37942],[-75.07592,5.37986],[-75.07694,5.37916],[-75.07948,5.37796],[-75.08189,5.37876],[-75.08543,5.37953],[-75.08813,5.3822],[-75.09001,5.38249],[-75.09251,5.38333],[-75.09333,5.38377],[-75.09441,5.3832],[-75.09638,5.38473],[-75.09945,5.38666],[-75.10129,5.38849],[-75.09985,5.38769],[-75.09524,5.38411]]],[[[-75.10392,5.39276],[-75.10449,5.39308],[-75.10573,5.3943],[-75.10597,5.39583],[-75.1057,5.39552],[-75.10493,5.39364],[-75.10392,5.39276]]],[[[-75.10941,5.40012],[-75.1091,5.39967],[-75.11058,5.40104],[-75.11222,5.40445],[-75.11606,5.40611],[-75.11724,5.40633],[-75.11489,5.4061],[-75.11182,5.4043],[-75.11024,5.40254],[-75.10941,5.40012]]],[[[-75.12542,5.40794],[-75.12129,5.4072],[-75.12053,5.40694],[-75.12321,5.40698],[-75.12581,5.40781],[-75.12542,5.40794]]]]},"properties":{"unidad":"Espolón festoneado","codigo":"Sefes","area_ha":33.5959}},{"type":"Feature","id":19,"geometry":{"type":"Polygon","coordinates":[[[-75.0792,5.50481],[-75.07808,5.50343],[-75.07815,5.50204],[-75.07892,5.50112],[-75.08032,5.49995],[-75.08139,5.49862],[-75.08172,5.49787],[-75.08174,5.49623],[-75.08207,5.49469],[-75.0839,5.49813],[-75.08391,5.4998],[-75.0835,5.50279],[-75.08437,5.50546],[-75.08362,5.50519],[-75.08224,5.50391],[-75.08135,5.50356],[-75.08026,5.50371],[-75.0792,5.50481]]]},"properties":{"unidad":"Espolón festoneado","codigo":"Sefes","area_ha":37.8612}},{"type":"Feature","id":20,"geometry":{"type":"Polygon","coordinates":[[[-75.03049,5.42526],[-75.03132,5.42221],[-75.03259,5.4202],[-75.03255,5.41786],[-75.03364,5.41465],[-75.03363,5.41296],[-75.03331,5.41133],[-75.03335,5.40925],[-75.03405,5.40674],[-75.03523,5.40496],[-75.03629,5.40105],[-75.03742,5.3994],[-75.03751,5.39797],[-75.03716,5.39686],[-75.03709,5.39573],[-75.03728,5.39401],[-75.03965,5.39079],[-75.04103,5.39032],[-75.04279,5.39046],[-75.04452,5.39099],[-75.0462,5.39089],[-75.04998,5.38941],[-75.04981,5.39036],[-75.04897,5.39173],[-75.04803,5.39271],[-75.04677,5.39325],[-75.04614,5.39375],[-75.04587,5.39426],[-75.04572,5.39552],[-75.04495,5.39611],[-75.04463,5.39667],[-75.04467,5.39753],[-75.04547,5.39937],[-75.04545,5.40063],[-75.04495,5.40188],[-75.0435,5.4027],[-75.04331,5.4041],[-75.04259,5.40528],[-75.04253,5.40647],[-75.04332,5.40739],[-75.04351,5.40807],[-75.04326,5.40843],[-75.04239,5.40896],[-75.04214,5.4094],[-75.04221,5.40994],[-75.04307,5.41171],[-75.04186,5.41304],[-75.04171,5.41477],[-75.04094,5.41573],[-75.04102,5.41675],[-75.04177,5.41686],[-75.04168,5.41725],[-75.04132,5.41773],[-75.04094,5.41791],[-75.04024,5.41774],[-75.03973,5.41727],[-75.03947,5.41743],[-75.03919,5.41828],[-75.03953,5.41969],[-75.03924,5.41998],[-75.0381,5.42045],[-75.03824,5.42188],[-75.038,5.42298],[-75.03735,5.42386],[-75.03557,5.42549],[-75.03531,5.42624],[-75.03423,5.42753],[-75.03328,5.42692],[-75.0323,5.42586],[-75.03162,5.42554],[-75.03075,5.42555],[-75.03049,5.42526]]]},"properties":{"unidad":"Escarpe de linea de falla","codigo":"Slfe","area_ha":352.1848}},{"type":"Feature","id":21,"geometry":{"type":"Polygon","coordinates":[[[-75.02026,5.42371],[-75.01994,5.42354],[-75.01966,5.42281],[-75.01878,5.42193],[-75.01858,5.42142],[-75.02056,5.42019],[-75.02093,5.42045],[-75.02201,5.422],[-75.02219,5.42255],[-75.02083,5.42358],[-75.02026,5.42371]]]},"properties":{"unidad":"Cono de deslizamiento indiferenciado","codigo":"Ddi","area_ha":9.0776}}]}