{"type":"FeatureCollection","features":[{"type":"Feature","id":0,"geometry":{"type":"Polygon","coordinates":[[[-75.08202,5.46238],[-75.07757,5.43388],[-75.07765,5.43334],[-75.0782,5.43287],[-75.12416,5.42881],[-75.13686,5.41896],[-75.13735,5.41877],[-75.13786,5.41889],[-75.15156,5.42661],[-75.15193,5.42699],[-75.15198,5.42768],[-75.14709,5.44267],[-75.14669,5.44305],[-75.13672,5.44762],[-75.13164,5.45287],[-75.12776,5.46541],[-75.11599,5.48416],[-75.11559,5.4845],[-75.11472,5.48443],[-75.08975,5.46768],[-75.08228,5.46288],[-75.08202,5.46238]]]},"properties":{"imagen":"JL1KF01B_PMSL2_20230723231511_200178618_103_0033_001_L1","area_ha":3244.492}}]}