{"type":"FeatureCollection","features":[{"type":"Feature","id":0,"geometry":{"type":"Polygon","coordinates":[[[-75.0036,5.64362],[-74.99943,5.63825],[-75.00057,5.63529],[-75.0036,5.63138],[-75.00502,5.62585],[-75.01165,5.62415],[-75.01307,5.61862],[-75.02027,5.61054],[-75.0214,5.60196],[-75.02557,5.59658],[-75.02443,5.58529],[-75.02027,5.57991],[-75.0214,5.57696],[-75.02453,5.57292],[-75.02027,5.56741],[-75.0214,5.55612],[-75.02443,5.55221],[-75.02571,5.54255],[-75.03248,5.54082],[-75.0339,5.53529],[-75.0411,5.52721],[-75.04167,5.525],[-75.04045,5.52027],[-75.01446,5.5214],[-75.01054,5.52443],[-75.00093,5.5257],[-74.98807,5.53946],[-74.98693,5.54388],[-74.97443,5.55735],[-74.97557,5.56471],[-74.97911,5.56928],[-74.95638,5.5911],[-74.95196,5.59223],[-74.94804,5.59527],[-74.94362,5.5964],[-74.93825,5.60057],[-74.93368,5.59882],[-74.92557,5.58971],[-74.9241,5.58399],[-74.91029,5.58277],[-74.90638,5.57973],[-74.89257,5.57851],[-74.89167,5.575],[-74.89167,5.5625],[-74.89202,5.56008],[-74.89548,5.55659],[-74.89583,5.55417],[-74.89804,5.5536],[-74.9032,5.5496],[-74.90473,5.54362],[-74.90777,5.53971],[-74.9089,5.53112],[-74.91193,5.52721],[-74.91307,5.52279],[-74.9161,5.51888],[-74.91723,5.50612],[-74.92027,5.50221],[-74.9214,5.49779],[-74.92453,5.49375],[-74.9214,5.48971],[-74.92027,5.48649],[-74.93818,5.46756],[-74.94498,5.46582],[-74.9464,5.46029],[-74.94943,5.45638],[-74.95057,5.44925],[-74.9463,5.44375],[-74.94943,5.43971],[-74.95057,5.43529],[-74.9536,5.43138],[-74.95473,5.42696],[-74.95777,5.42304],[-74.95902,5.41355],[-74.96325,5.41193],[-74.96862,5.4161],[-74.98825,5.41723],[-74.99375,5.41297],[-74.99779,5.4161],[-75.00221,5.41723],[-75.00625,5.42036],[-75.01029,5.41723],[-75.0125,5.41667],[-75.01215,5.40174],[-75.00452,5.39409],[-75.00417,5.3875],[-75.01492,5.38715],[-75.02048,5.38162],[-75.02119,5.36841],[-75.02671,5.36286],[-75.03088,5.36215],[-75.03508,5.36631],[-75.0375,5.36667],[-75.03992,5.36631],[-75.04341,5.36285],[-75.04583,5.3625],[-75.04645,5.36466],[-75.04938,5.36867],[-75.05062,5.37299],[-75.05502,5.37849],[-75.08133,5.37978],[-75.08534,5.38272],[-75.08966,5.38395],[-75.09497,5.38783],[-75.09645,5.39799],[-75.10033,5.40331],[-75.11049,5.40478],[-75.11451,5.40772],[-75.12836,5.40907],[-75.12978,5.41883],[-75.1378,5.42806],[-75.14167,5.42917],[-75.14409,5.42881],[-75.15381,5.41912],[-75.15452,5.41424],[-75.16421,5.40452],[-75.17326,5.40381],[-75.17674,5.40035],[-75.18159,5.39965],[-75.19131,5.38996],[-75.19202,5.38508],[-75.19548,5.38159],[-75.19619,5.37674],[-75.19965,5.37326],[-75.20035,5.36841],[-75.20381,5.36492],[-75.20417,5.35417],[-75.20748,5.35332],[-75.20833,5.35],[-75.20968,5.3502],[-75.21,5.35083],[-75.21,5.35167],[-75.21226,5.35186],[-75.21841,5.35798],[-75.22,5.35821],[-75.22,5.35917],[-75.22417,5.36042],[-75.225,5.36083],[-75.22542,5.36083],[-75.22597,5.36138],[-75.22791,5.36833],[-75.22916,5.36958],[-75.23043,5.37],[-75.23505,5.37464],[-75.23704,5.37481],[-75.23792,5.3775],[-75.23833,5.37792],[-75.23959,5.37833],[-75.24333,5.37708],[-75.25,5.37375],[-75.25125,5.3725],[-75.2525,5.36875],[-75.2525,5.3675],[-75.25333,5.3675],[-75.25584,5.36625],[-75.25625,5.36583],[-75.25708,5.36417],[-75.2575,5.36375],[-75.25917,5.36292],[-75.2598,5.36229],[-75.26076,5.36215],[-75.2625,5.36042],[-75.26417,5.35958],[-75.26927,5.35447],[-75.275,5.35417],[-75.27832,5.35502],[-75.27917,5.35833],[-75.2786,5.36471],[-75.27557,5.36862],[-75.27443,5.37304],[-75.2714,5.37696],[-75.27027,5.38138],[-75.26307,5.38946],[-75.26193,5.40221],[-75.2589,5.40612],[-75.25748,5.41165],[-75.25085,5.41335],[-75.24903,5.42044],[-75.24388,5.42443],[-75.23946,5.42557],[-75.23138,5.43277],[-75.22585,5.43418],[-75.22443,5.43971],[-75.2214,5.44362],[-75.21998,5.44915],[-75.21446,5.45057],[-75.20638,5.45777],[-75.19672,5.45904],[-75.19527,5.46471],[-75.19223,5.46862],[-75.1911,5.47721],[-75.18807,5.48112],[-75.18693,5.49388],[-75.17557,5.50612],[-75.17403,5.5121],[-75.16888,5.5161],[-75.16446,5.51723],[-75.15638,5.52443],[-75.15,5.525],[-75.14915,5.52832],[-75.14583,5.52917],[-75.14583,5.53333],[-75.14619,5.53992],[-75.15381,5.54758],[-75.15417,5.55417],[-75.15327,5.55767],[-75.13946,5.5589],[-75.13554,5.56193],[-75.125,5.5625],[-75.12465,5.56492],[-75.12119,5.56841],[-75.12083,5.57083],[-75.12027,5.57304],[-75.11723,5.57696],[-75.1161,5.58554],[-75.11307,5.58946],[-75.11193,5.5926],[-75.12142,5.60325],[-75.12853,5.60507],[-75.12973,5.62304],[-75.13693,5.63112],[-75.1375,5.63333],[-75.13693,5.63554],[-75.1339,5.63946],[-75.13277,5.64388],[-75.12973,5.64779],[-75.12826,5.65354],[-75.10612,5.65473],[-75.09804,5.66193],[-75.09362,5.66307],[-75.08971,5.6661],[-75.07917,5.66667],[-75.07832,5.66335],[-75.075,5.6625],[-75.07083,5.6625],[-75.07048,5.65591],[-75.05869,5.64409],[-75.05833,5.64167],[-75.05591,5.64202],[-75.04619,5.65171],[-75.04583,5.65417],[-75.04233,5.65507],[-75.04167,5.6625],[-75.04053,5.66693],[-75.03554,5.66307],[-75.02179,5.66184],[-75.01723,5.65638],[-75.01582,5.65085],[-75.01029,5.64943],[-75.00638,5.6464],[-75.00417,5.64583],[-75.0036,5.64362]]]},"properties":{"nombre":"Selva de Florencia","estado_kba":"confirmed","criterios":"A1e / B2 / A1a / B1 / A1b","cualificacion":"Global","area_ha":69333.8568}}]}