{"type":"FeatureCollection","features":[{"type":"Feature","id":0,"geometry":{"type":"Point","coordinates":[-75.105159,5.444685]},"properties":{"nombre":"BJ1","zona":"conservacion"}},{"type":"Feature","id":1,"geometry":{"type":"Point","coordinates":[-75.117716,5.443859]},"properties":{"nombre":"BJ2","zona":"conservacion"}},{"type":"Feature","id":2,"geometry":{"type":"Point","coordinates":[-75.111368,5.458886]},"properties":{"nombre":"BJ3","zona":"conservacion"}},{"type":"Feature","id":3,"geometry":{"type":"Point","coordinates":[-75.103428,5.446355]},"properties":{"nombre":"BA1","zona":"conservacion"}},{"type":"Feature","id":4,"geometry":{"type":"Point","coordinates":[-75.11865,5.442347]},"properties":{"nombre":"BA2","zona":"conservacion"}},{"type":"Feature","id":5,"geometry":{"type":"Point","coordinates":[-75.10842,5.459262]},"properties":{"nombre":"BA3","zona":"entorno"}},{"type":"Feature","id":6,"geometry":{"type":"Point","coordinates":[-75.117028,5.447006]},"properties":{"nombre":"BP1","zona":"conservacion"}},{"type":"Feature","id":7,"geometry":{"type":"Point","coordinates":[-75.112755,5.451483]},"properties":{"nombre":"BP2","zona":"restauracion"}},{"type":"Feature","id":8,"geometry":{"type":"Point","coordinates":[-75.107533,5.444105]},"properties":{"nombre":"BP3","zona":"conservacion"}},{"type":"Feature","id":9,"geometry":{"type":"Point","coordinates":[-75.112861,5.457024]},"properties":{"nombre":"M1","zona":"conservacion"}},{"type":"Feature","id":10,"geometry":{"type":"Point","coordinates":[-75.130252,5.435463]},"properties":{"nombre":"M2","zona":"conservacion"}},{"type":"Feature","id":11,"geometry":{"type":"Point","coordinates":[-75.112053,5.444484]},"properties":{"nombre":"M3","zona":"conservacion"}},{"type":"Feature","id":12,"geometry":{"type":"Point","coordinates":[-75.1147,5.444034]},"properties":{"nombre":null,"zona":"amortiguacion"}}]}