{"type":"FeatureCollection","features":[{"type":"Feature","id":0,"geometry":{"type":"MultiPolygon","coordinates":[[[[-75.106414,5.447911],[-75.106156,5.447675],[-75.106308,5.447751],[-75.106367,5.447751],[-75.106487,5.447871],[-75.106547,5.447871],[-75.106606,5.447931],[-75.106916,5.447936],[-75.106636,5.448078],[-75.106414,5.447911]]],[[[-75.108397,5.448166],[-75.108349,5.448107],[-75.108397,5.448107],[-75.108397,5.448166]]],[[[-75.109656,5.449599],[-75.108582,5.449601],[-75.108523,5.449661],[-75.108407,5.449661],[-75.108557,5.449562],[-75.108668,5.449525],[-75.108689,5.448913],[-75.108541,5.448463],[-75.108398,5.448167],[-75.108516,5.448167],[-75.108517,5.448226],[-75.108696,5.448225],[-75.108696,5.448285],[-75.108815,5.448285],[-75.108935,5.448405],[-75.108995,5.448404],[-75.109054,5.448464],[-75.109173,5.448464],[-75.109173,5.448524],[-75.109233,5.448524],[-75.109293,5.448644],[-75.109353,5.448703],[-75.109353,5.448763],[-75.109413,5.448763],[-75.109472,5.448823],[-75.109532,5.448823],[-75.109532,5.448883],[-75.109652,5.448883],[-75.109652,5.448941],[-75.109772,5.449061],[-75.109831,5.449181],[-75.109891,5.44918],[-75.109891,5.44924],[-75.109951,5.44924],[-75.109951,5.44942],[-75.110011,5.44942],[-75.110011,5.44948],[-75.110071,5.44954],[-75.110071,5.449718],[-75.109895,5.449719],[-75.109656,5.449599]]],[[[-75.101955,5.44979],[-75.101954,5.449553],[-75.101895,5.449554],[-75.101894,5.449254],[-75.101834,5.449194],[-75.101834,5.448955],[-75.101774,5.448896],[-75.101773,5.448297],[-75.101653,5.448179],[-75.101651,5.446564],[-75.101591,5.446444],[-75.101591,5.446384],[-75.101531,5.446324],[-75.101531,5.446204],[-75.101471,5.446144],[-75.101471,5.446026],[-75.101411,5.446026],[-75.101399,5.446002],[-75.101622,5.446009],[-75.101923,5.445954],[-75.101863,5.445904],[-75.102727,5.445903],[-75.102847,5.445783],[-75.102965,5.445783],[-75.103025,5.445723],[-75.103025,5.445663],[-75.103085,5.445663],[-75.103085,5.445604],[-75.103145,5.445604],[-75.103144,5.445484],[-75.103204,5.445424],[-75.103204,5.445364],[-75.103264,5.445364],[-75.103323,5.445304],[-75.104039,5.445303],[-75.104159,5.445422],[-75.104219,5.445422],[-75.104278,5.445542],[-75.104398,5.445602],[-75.104457,5.44566],[-75.104514,5.445661],[-75.104574,5.445729],[-75.104199,5.445781],[-75.103763,5.446164],[-75.103425,5.44654],[-75.102779,5.447047],[-75.102365,5.44719],[-75.102152,5.44751],[-75.10185,5.447794],[-75.101884,5.448194],[-75.101856,5.448595],[-75.102554,5.448926],[-75.102579,5.449598],[-75.10245,5.449571],[-75.102321,5.449592],[-75.102176,5.449653],[-75.101955,5.44979]]]]},"properties":{"cobertura":"Bosque denso alto de tierra firme","bioma":"Orobioma andino cordillera central","clima":"Pluvial","paisaje":"Montana","suelo":"Asociacion SANTA ISABEL - Pensilvania","ecosistema":"Bosque Pluvial del Orobioma andino cordillera central","area_ha":6.5918}},{"type":"Feature","id":1,"geometry":{"type":"Polygon","coordinates":[[[-75.110071,5.449718],[-75.110071,5.44954],[-75.110011,5.44948],[-75.110011,5.44942],[-75.109951,5.44942],[-75.109951,5.44924],[-75.109891,5.44924],[-75.109891,5.44918],[-75.109831,5.449181],[-75.109772,5.449061],[-75.109652,5.448941],[-75.109652,5.448883],[-75.109532,5.448883],[-75.109532,5.448823],[-75.109472,5.448823],[-75.109413,5.448763],[-75.109353,5.448763],[-75.109353,5.448703],[-75.109293,5.448644],[-75.109233,5.448524],[-75.109173,5.448524],[-75.109173,5.448464],[-75.109054,5.448464],[-75.108995,5.448404],[-75.108935,5.448405],[-75.108815,5.448285],[-75.108696,5.448285],[-75.108696,5.448225],[-75.108517,5.448226],[-75.108516,5.448167],[-75.108398,5.448167],[-75.108397,5.448107],[-75.108349,5.448107],[-75.108191,5.447918],[-75.107951,5.447695],[-75.107733,5.447672],[-75.107247,5.447768],[-75.106916,5.447936],[-75.106606,5.447931],[-75.106547,5.447871],[-75.106487,5.447871],[-75.106367,5.447751],[-75.106308,5.447751],[-75.106156,5.447675],[-75.106088,5.447614],[-75.1058,5.446459],[-75.105611,5.446032],[-75.105456,5.445881],[-75.105269,5.44577],[-75.104574,5.445729],[-75.104514,5.445661],[-75.104935,5.445659],[-75.105412,5.4456],[-75.106666,5.445598],[-75.106785,5.445716],[-75.107084,5.445716],[-75.107382,5.445955],[-75.107442,5.445955],[-75.107442,5.446015],[-75.107502,5.446015],[-75.107562,5.446134],[-75.107681,5.446254],[-75.107681,5.446314],[-75.10792,5.446432],[-75.108756,5.44643],[-75.109054,5.446311],[-75.109531,5.446311],[-75.109651,5.44625],[-75.10977,5.44625],[-75.109873,5.446181],[-75.109873,5.44661],[-75.109933,5.44661],[-75.109933,5.44667],[-75.109993,5.446729],[-75.109993,5.446789],[-75.110053,5.446849],[-75.110053,5.446909],[-75.110172,5.446968],[-75.110292,5.446968],[-75.110411,5.447028],[-75.110471,5.447088],[-75.11059,5.447087],[-75.110591,5.447147],[-75.11065,5.447147],[-75.11065,5.447207],[-75.11071,5.447207],[-75.11071,5.447267],[-75.110889,5.447327],[-75.111009,5.447445],[-75.111069,5.447445],[-75.111069,5.447505],[-75.111129,5.447505],[-75.111129,5.447565],[-75.111188,5.447624],[-75.111248,5.447684],[-75.111307,5.447684],[-75.111308,5.447744],[-75.111427,5.447863],[-75.111487,5.447863],[-75.111487,5.447923],[-75.111547,5.447923],[-75.111547,5.448043],[-75.111607,5.448103],[-75.111666,5.448221],[-75.111669,5.449715],[-75.110071,5.449718]]]},"properties":{"cobertura":"Vegetacion secundaria o en transicion","bioma":"Orobioma andino cordillera central","clima":"Pluvial","paisaje":"Montana","suelo":"Asociacion SANTA ISABEL - Pensilvania","ecosistema":"Bosque secundario Pluvial del Orobioma andino cordillera central","area_ha":15.2905}},{"type":"Feature","id":2,"geometry":{"type":"Polygon","coordinates":[[[-75.112011,5.460659],[-75.112238,5.460659],[-75.112357,5.460599],[-75.112775,5.460598],[-75.112894,5.460538],[-75.113073,5.460538],[-75.113073,5.460478],[-75.113252,5.460478],[-75.113358,5.460372],[-75.113328,5.46055],[-75.113266,5.460731],[-75.113163,5.460884],[-75.113048,5.46096],[-75.112838,5.460953],[-75.112451,5.460877],[-75.112337,5.460893],[-75.112051,5.461096],[-75.111842,5.461181],[-75.112011,5.460659]]]},"properties":{"cobertura":"Arbustal denso","bioma":"Orobioma andino cordillera central","clima":"Pluvial","paisaje":"Montana","suelo":"Asociacion SANTA ISABEL - Pensilvania","ecosistema":"Arbustal Pluvial del Orobioma andino cordillera central","area_ha":0.6088}},{"type":"Feature","id":3,"geometry":{"type":"MultiPolygon","coordinates":[[[[-75.115468,5.439198],[-75.115446,5.439082],[-75.115487,5.439124],[-75.115487,5.439302],[-75.115606,5.439362],[-75.115607,5.439793],[-75.115476,5.439507],[-75.115468,5.439198]]],[[[-75.107972,5.441468],[-75.10797,5.441468],[-75.107973,5.441468],[-75.107972,5.441468]]],[[[-75.108151,5.441588],[-75.1081,5.441486],[-75.108645,5.441648],[-75.108919,5.441766],[-75.108748,5.441766],[-75.108151,5.441588]]],[[[-75.115015,5.442353],[-75.114835,5.442234],[-75.114657,5.442174],[-75.114179,5.442175],[-75.11406,5.442115],[-75.114,5.442116],[-75.113702,5.441997],[-75.113522,5.441998],[-75.113403,5.441938],[-75.113284,5.441938],[-75.113224,5.441878],[-75.112985,5.441819],[-75.112985,5.441759],[-75.112686,5.44176],[-75.112149,5.441461],[-75.112089,5.441461],[-75.11191,5.441283],[-75.111908,5.44029],[-75.112017,5.440248],[-75.11219,5.440266],[-75.112283,5.440338],[-75.112369,5.440527],[-75.112534,5.44077],[-75.112803,5.44094],[-75.113085,5.441033],[-75.113189,5.441038],[-75.113287,5.441011],[-75.113385,5.440917],[-75.11368,5.440498],[-75.113778,5.440485],[-75.113981,5.440562],[-75.113938,5.440562],[-75.113938,5.44062],[-75.11358,5.440861],[-75.113521,5.440921],[-75.113401,5.440981],[-75.113342,5.441041],[-75.113342,5.441101],[-75.115908,5.441096],[-75.115908,5.441156],[-75.115968,5.441276],[-75.115968,5.441335],[-75.116028,5.441514],[-75.116029,5.441993],[-75.115969,5.442052],[-75.11591,5.442232],[-75.11585,5.442232],[-75.115851,5.442292],[-75.115791,5.442292],[-75.115731,5.442352],[-75.115015,5.442353]]],[[[-75.113729,5.458144],[-75.113729,5.458084],[-75.113669,5.458084],[-75.113669,5.457965],[-75.113549,5.457845],[-75.113549,5.457786],[-75.11349,5.457726],[-75.113488,5.457009],[-75.113608,5.456889],[-75.113607,5.456469],[-75.113547,5.45641],[-75.113249,5.456291],[-75.112831,5.456292],[-75.112771,5.456232],[-75.112532,5.456233],[-75.112532,5.456173],[-75.112413,5.456113],[-75.112174,5.456054],[-75.111994,5.455874],[-75.111993,5.455157],[-75.112112,5.455157],[-75.112232,5.455036],[-75.112292,5.455036],[-75.112291,5.454977],[-75.11241,5.454917],[-75.11241,5.454858],[-75.11247,5.454857],[-75.11247,5.454798],[-75.11253,5.454678],[-75.112589,5.454618],[-75.112589,5.454558],[-75.112649,5.454378],[-75.112648,5.45402],[-75.112528,5.45402],[-75.112409,5.4539],[-75.11229,5.453841],[-75.11223,5.453781],[-75.111991,5.453781],[-75.111931,5.453662],[-75.110618,5.453664],[-75.110499,5.453604],[-75.110499,5.453544],[-75.110379,5.453486],[-75.110319,5.453366],[-75.110259,5.453366],[-75.110199,5.453306],[-75.110199,5.453246],[-75.11008,5.453187],[-75.108767,5.453189],[-75.108529,5.453309],[-75.107992,5.45331],[-75.107932,5.45325],[-75.107872,5.45325],[-75.107872,5.45319],[-75.107693,5.453071],[-75.106917,5.453072],[-75.106738,5.453132],[-75.106678,5.453192],[-75.106619,5.453193],[-75.10656,5.453253],[-75.1065,5.453253],[-75.10642,5.453293],[-75.106448,5.453046],[-75.106401,5.452911],[-75.106322,5.452862],[-75.106056,5.452767],[-75.105871,5.452596],[-75.105759,5.452543],[-75.105642,5.45252],[-75.105851,5.452381],[-75.10613,5.452144],[-75.106837,5.451697],[-75.107109,5.451374],[-75.107211,5.451186],[-75.107335,5.451024],[-75.107496,5.450879],[-75.107598,5.450819],[-75.10794,5.450802],[-75.108157,5.45063],[-75.108216,5.450446],[-75.108294,5.449856],[-75.10835,5.449727],[-75.108407,5.449661],[-75.108523,5.449661],[-75.108582,5.449601],[-75.109656,5.449599],[-75.109895,5.449719],[-75.111669,5.449715],[-75.111666,5.448221],[-75.111607,5.448103],[-75.111547,5.448043],[-75.111547,5.447923],[-75.111487,5.447923],[-75.111487,5.447863],[-75.111427,5.447863],[-75.111308,5.447744],[-75.111307,5.447684],[-75.111248,5.447684],[-75.111188,5.447624],[-75.111129,5.447565],[-75.111129,5.447505],[-75.111069,5.447505],[-75.111069,5.447445],[-75.111009,5.447445],[-75.110889,5.447327],[-75.11071,5.447267],[-75.11071,5.447207],[-75.11065,5.447207],[-75.11065,5.447147],[-75.110591,5.447147],[-75.11059,5.447087],[-75.110471,5.447088],[-75.110411,5.447028],[-75.110292,5.446968],[-75.110172,5.446968],[-75.110053,5.446909],[-75.110053,5.446849],[-75.109993,5.446789],[-75.109993,5.446729],[-75.109933,5.44667],[-75.109933,5.44661],[-75.109873,5.44661],[-75.109873,5.446181],[-75.10977,5.44625],[-75.109651,5.44625],[-75.109531,5.446311],[-75.109054,5.446311],[-75.108756,5.44643],[-75.10792,5.446432],[-75.107681,5.446314],[-75.107681,5.446254],[-75.107562,5.446134],[-75.107502,5.446015],[-75.107442,5.446015],[-75.107442,5.445955],[-75.107382,5.445955],[-75.107084,5.445716],[-75.106785,5.445716],[-75.106666,5.445598],[-75.105412,5.4456],[-75.104935,5.445659],[-75.104457,5.44566],[-75.104398,5.445602],[-75.104278,5.445542],[-75.104219,5.445422],[-75.104159,5.445422],[-75.104039,5.445303],[-75.103323,5.445304],[-75.103264,5.445364],[-75.103204,5.445364],[-75.103204,5.445424],[-75.103144,5.445484],[-75.103145,5.445604],[-75.103085,5.445604],[-75.103085,5.445663],[-75.103025,5.445663],[-75.103025,5.445723],[-75.102965,5.445783],[-75.102847,5.445783],[-75.102727,5.445903],[-75.101863,5.445904],[-75.101151,5.445325],[-75.100769,5.445049],[-75.100677,5.444867],[-75.100589,5.444604],[-75.100547,5.444382],[-75.100636,5.444411],[-75.102188,5.444409],[-75.102307,5.444348],[-75.102366,5.444288],[-75.102426,5.444288],[-75.102426,5.444228],[-75.102486,5.44417],[-75.102486,5.44411],[-75.102545,5.44411],[-75.102602,5.443995],[-75.102664,5.44399],[-75.102789,5.443919],[-75.102857,5.443906],[-75.103001,5.443921],[-75.103197,5.44402],[-75.10339,5.444209],[-75.103459,5.443749],[-75.103798,5.443748],[-75.103858,5.443688],[-75.104096,5.443568],[-75.104215,5.443568],[-75.104215,5.443508],[-75.104513,5.443507],[-75.104633,5.443448],[-75.104693,5.443388],[-75.104752,5.443388],[-75.104811,5.443328],[-75.104991,5.443328],[-75.10505,5.443208],[-75.10511,5.443208],[-75.10511,5.443148],[-75.105169,5.443148],[-75.105229,5.443088],[-75.105289,5.442968],[-75.105288,5.44249],[-75.105228,5.44243],[-75.105168,5.44243],[-75.104929,5.442311],[-75.104873,5.442255],[-75.104902,5.442242],[-75.105018,5.442239],[-75.105179,5.44227],[-75.105613,5.442438],[-75.106019,5.442497],[-75.106322,5.442501],[-75.106691,5.442401],[-75.106899,5.442305],[-75.1069,5.442785],[-75.106959,5.442845],[-75.106959,5.442905],[-75.107736,5.443203],[-75.107795,5.443203],[-75.107915,5.443263],[-75.107975,5.443263],[-75.108094,5.443322],[-75.108452,5.443322],[-75.108691,5.4435],[-75.10887,5.4435],[-75.10893,5.44356],[-75.109049,5.443559],[-75.109228,5.443619],[-75.109288,5.443679],[-75.109408,5.443678],[-75.109408,5.443738],[-75.109587,5.443738],[-75.109706,5.443918],[-75.109766,5.443918],[-75.109766,5.443977],[-75.109826,5.443977],[-75.110125,5.444156],[-75.110244,5.444156],[-75.110244,5.44438],[-75.110287,5.444337],[-75.110287,5.443978],[-75.110227,5.443918],[-75.110227,5.443739],[-75.110167,5.443679],[-75.110167,5.44356],[-75.110107,5.44356],[-75.110047,5.4435],[-75.110047,5.44344],[-75.109988,5.44338],[-75.109987,5.44332],[-75.109927,5.443261],[-75.109927,5.443022],[-75.109987,5.443022],[-75.109987,5.442962],[-75.111001,5.44296],[-75.111061,5.44302],[-75.111121,5.44302],[-75.11118,5.44308],[-75.111359,5.44308],[-75.11136,5.443138],[-75.111479,5.443138],[-75.111479,5.443198],[-75.111538,5.443198],[-75.111598,5.443258],[-75.113389,5.443255],[-75.113448,5.443195],[-75.113687,5.443194],[-75.113747,5.443134],[-75.113866,5.443075],[-75.113985,5.442955],[-75.11482,5.442954],[-75.11488,5.443014],[-75.11506,5.443013],[-75.115119,5.443073],[-75.115119,5.443132],[-75.115298,5.443132],[-75.115418,5.443251],[-75.115418,5.443491],[-75.115359,5.443551],[-75.115359,5.443611],[-75.11512,5.44385],[-75.115061,5.44385],[-75.114882,5.44403],[-75.114762,5.44403],[-75.114703,5.44409],[-75.114643,5.44409],[-75.114584,5.44415],[-75.114464,5.44415],[-75.114405,5.44427],[-75.114345,5.44427],[-75.114226,5.44433],[-75.114047,5.444331],[-75.113928,5.444391],[-75.113689,5.44457],[-75.11363,5.44457],[-75.113332,5.44487],[-75.113272,5.44487],[-75.113272,5.44493],[-75.113153,5.44493],[-75.113153,5.44499],[-75.113034,5.44505],[-75.112974,5.44505],[-75.112915,5.44511],[-75.112855,5.44511],[-75.112736,5.44523],[-75.112557,5.445289],[-75.112497,5.445289],[-75.112497,5.445349],[-75.112378,5.445409],[-75.112318,5.445469],[-75.112258,5.445469],[-75.11202,5.44571],[-75.111961,5.445829],[-75.111901,5.445889],[-75.111901,5.445949],[-75.111842,5.446008],[-75.111783,5.446128],[-75.111783,5.446487],[-75.111843,5.446547],[-75.111844,5.446906],[-75.111903,5.446905],[-75.111903,5.447085],[-75.111963,5.447085],[-75.111963,5.447205],[-75.112023,5.447324],[-75.112083,5.447384],[-75.112083,5.447503],[-75.112143,5.447563],[-75.112262,5.447622],[-75.112262,5.447682],[-75.112322,5.447682],[-75.112382,5.447742],[-75.112442,5.447742],[-75.112501,5.447802],[-75.112502,5.447862],[-75.112621,5.447862],[-75.11268,5.447921],[-75.11274,5.447921],[-75.11286,5.448041],[-75.11292,5.448041],[-75.113158,5.448219],[-75.113218,5.448219],[-75.113278,5.448278],[-75.113397,5.448338],[-75.113517,5.448338],[-75.113637,5.448458],[-75.113696,5.448457],[-75.113756,5.448517],[-75.113815,5.448517],[-75.113875,5.448577],[-75.113935,5.448577],[-75.113935,5.448637],[-75.113995,5.448637],[-75.114054,5.448696],[-75.114114,5.448696],[-75.114114,5.448756],[-75.114174,5.448816],[-75.113696,5.448817],[-75.113458,5.448936],[-75.113398,5.448996],[-75.113399,5.449056],[-75.113339,5.449056],[-75.113339,5.449116],[-75.11328,5.449116],[-75.11322,5.449176],[-75.11322,5.449236],[-75.112922,5.449536],[-75.112863,5.449595],[-75.112803,5.449595],[-75.112803,5.449655],[-75.112743,5.449655],[-75.112685,5.449774],[-75.112939,5.449773],[-75.112939,5.449893],[-75.113058,5.450011],[-75.113059,5.450551],[-75.113119,5.450669],[-75.11312,5.451148],[-75.11318,5.451208],[-75.113299,5.451208],[-75.113538,5.451267],[-75.113658,5.451267],[-75.113956,5.451385],[-75.114016,5.451445],[-75.114076,5.451445],[-75.114315,5.451624],[-75.114317,5.452701],[-75.114377,5.45282],[-75.114615,5.453059],[-75.114735,5.453119],[-75.114735,5.453179],[-75.114854,5.453238],[-75.115154,5.453536],[-75.115154,5.453956],[-75.11408,5.453957],[-75.114021,5.454077],[-75.114021,5.454137],[-75.113961,5.454197],[-75.113962,5.454555],[-75.114022,5.454735],[-75.114081,5.454735],[-75.114679,5.455332],[-75.114799,5.455332],[-75.115157,5.455511],[-75.115276,5.45551],[-75.115336,5.45557],[-75.115455,5.45563],[-75.115515,5.455689],[-75.115516,5.455748],[-75.115575,5.455748],[-75.115754,5.455928],[-75.115756,5.456586],[-75.115875,5.456765],[-75.115876,5.456945],[-75.115816,5.456945],[-75.115696,5.457065],[-75.115577,5.457065],[-75.115518,5.457124],[-75.115219,5.457124],[-75.11516,5.457184],[-75.11516,5.457244],[-75.115041,5.457304],[-75.114981,5.457604],[-75.114922,5.457664],[-75.114862,5.457784],[-75.114862,5.457903],[-75.114743,5.457963],[-75.114744,5.458023],[-75.114624,5.458083],[-75.114504,5.458083],[-75.114445,5.458143],[-75.113729,5.458144]]]]},"properties":{"cobertura":"Pastos limpios","bioma":"Orobioma andino cordillera central","clima":"Pluvial","paisaje":"Montana","suelo":"Asociacion SANTA ISABEL - Pensilvania","ecosistema":"Pastos limpios","area_ha":95.4652}},{"type":"Feature","id":4,"geometry":{"type":"Polygon","coordinates":[[[-75.131526,5.435168],[-75.131558,5.435121],[-75.13155,5.434788],[-75.131588,5.43468],[-75.131656,5.434573],[-75.131754,5.434485],[-75.131954,5.434386],[-75.132061,5.43444],[-75.132837,5.434438],[-75.132957,5.434498],[-75.132957,5.434558],[-75.133077,5.434558],[-75.133315,5.434737],[-75.133375,5.434737],[-75.133435,5.434796],[-75.133435,5.434856],[-75.133554,5.434855],[-75.133554,5.434915],[-75.133614,5.434975],[-75.133614,5.435035],[-75.133674,5.435095],[-75.133734,5.435095],[-75.133735,5.435692],[-75.133795,5.435692],[-75.133795,5.435812],[-75.133854,5.435872],[-75.133855,5.436112],[-75.133914,5.436112],[-75.133915,5.436171],[-75.133974,5.436171],[-75.133974,5.436282],[-75.133782,5.436347],[-75.133652,5.43633],[-75.133537,5.436285],[-75.133297,5.43615],[-75.133196,5.436145],[-75.132991,5.436193],[-75.131883,5.436793],[-75.131675,5.436957],[-75.13152,5.437039],[-75.13135,5.437095],[-75.13135,5.437072],[-75.131231,5.436952],[-75.131231,5.436894],[-75.131171,5.436894],[-75.131111,5.436834],[-75.131111,5.436774],[-75.131051,5.436774],[-75.131051,5.436535],[-75.13111,5.436475],[-75.13111,5.436415],[-75.13123,5.436295],[-75.131229,5.436176],[-75.131289,5.436176],[-75.131289,5.435996],[-75.131348,5.435936],[-75.131348,5.435816],[-75.131407,5.435757],[-75.131407,5.435577],[-75.131467,5.435577],[-75.131466,5.435278],[-75.131526,5.435218],[-75.131526,5.435168]]]},"properties":{"cobertura":"Mosaico de pastos con espacios naturales","bioma":"Orobioma andino cordillera central","clima":"Pluvial","paisaje":"Montana","suelo":"Asociacion SANTA ISABEL - Pensilvania","ecosistema":"Mosaico de pastos con espacios naturales","area_ha":5.8015}},{"type":"Feature","id":5,"geometry":{"type":"Polygon","coordinates":[[[-75.136331,5.434142],[-75.136645,5.434394],[-75.136708,5.43449],[-75.136719,5.434555],[-75.13659,5.434725],[-75.136426,5.434867],[-75.136277,5.435045],[-75.136167,5.435239],[-75.13602,5.435401],[-75.135823,5.435555],[-75.135823,5.43545],[-75.135883,5.43539],[-75.135942,5.43527],[-75.135942,5.435211],[-75.136001,5.435151],[-75.136061,5.435151],[-75.136061,5.435031],[-75.13618,5.435031],[-75.136231,5.43498],[-75.135905,5.434781],[-75.135833,5.434758],[-75.136084,5.434601],[-75.136119,5.434278],[-75.13619,5.43417],[-75.136331,5.434142]]]},"properties":{"cobertura":"Pastos enmalezados","bioma":"Orobioma andino cordillera central","clima":"Pluvial","paisaje":"Montana","suelo":"Asociacion SANTA ISABEL - Pensilvania","ecosistema":"Pastos enmalezados","area_ha":0.6031}},{"type":"Feature","id":6,"geometry":{"type":"MultiPolygon","coordinates":[[[[-75.129681,5.438152],[-75.12968,5.437434],[-75.129739,5.437434],[-75.129739,5.437374],[-75.129799,5.437374],[-75.129799,5.437255],[-75.129858,5.437254],[-75.129857,5.436297],[-75.129916,5.436237],[-75.129976,5.436237],[-75.129976,5.436178],[-75.130036,5.436178],[-75.130095,5.436118],[-75.130095,5.436058],[-75.130274,5.436058],[-75.130274,5.435998],[-75.130393,5.435998],[-75.130513,5.435878],[-75.130572,5.435878],[-75.130572,5.435818],[-75.130632,5.435818],[-75.130631,5.435459],[-75.130571,5.4354],[-75.130571,5.43528],[-75.130452,5.43528],[-75.130392,5.43522],[-75.130332,5.43522],[-75.130272,5.435161],[-75.130213,5.435161],[-75.130153,5.435101],[-75.130094,5.435101],[-75.130034,5.435041],[-75.129942,5.435041],[-75.129939,5.434997],[-75.130019,5.434943],[-75.130113,5.434934],[-75.130447,5.43504],[-75.130567,5.435116],[-75.130781,5.435355],[-75.130896,5.435233],[-75.130963,5.435221],[-75.131175,5.435265],[-75.13139,5.435278],[-75.131526,5.435168],[-75.131526,5.435218],[-75.131466,5.435278],[-75.131467,5.435577],[-75.131407,5.435577],[-75.131407,5.435757],[-75.131348,5.435816],[-75.131348,5.435936],[-75.131289,5.435996],[-75.131289,5.436176],[-75.131229,5.436176],[-75.13123,5.436295],[-75.13111,5.436415],[-75.13111,5.436475],[-75.131051,5.436535],[-75.131051,5.436774],[-75.131111,5.436774],[-75.131111,5.436834],[-75.131171,5.436894],[-75.131231,5.436894],[-75.131231,5.436952],[-75.13135,5.437072],[-75.13135,5.437095],[-75.131129,5.437104],[-75.130997,5.437136],[-75.130842,5.437125],[-75.130634,5.437071],[-75.130319,5.437055],[-75.129925,5.436994],[-75.129912,5.437682],[-75.129859,5.438023],[-75.129774,5.438272],[-75.129741,5.438272],[-75.129681,5.438152]]],[[[-75.125094,5.442814],[-75.125093,5.442346],[-75.125153,5.442346],[-75.125152,5.441987],[-75.125212,5.441987],[-75.125211,5.441868],[-75.125271,5.441808],[-75.125336,5.441808],[-75.125374,5.442241],[-75.125368,5.442444],[-75.125332,5.442651],[-75.125255,5.442768],[-75.125115,5.442816],[-75.125094,5.442814]]]]},"properties":{"cobertura":"Pastos limpios","bioma":"Orobioma andino cordillera central","clima":"Pluvial","paisaje":"Montana","suelo":"Asociacion SANTA ISABEL - Pensilvania","ecosistema":"Pastos limpios","area_ha":3.052}},{"type":"Feature","id":7,"geometry":{"type":"MultiPolygon","coordinates":[[[[-75.103459,5.443749],[-75.103524,5.443071],[-75.103502,5.442584],[-75.103438,5.442328],[-75.103575,5.442344],[-75.103703,5.442427],[-75.104142,5.442619],[-75.104256,5.442609],[-75.104421,5.442542],[-75.104873,5.442255],[-75.104929,5.442311],[-75.105168,5.44243],[-75.105228,5.44243],[-75.105288,5.44249],[-75.105289,5.442968],[-75.105229,5.443088],[-75.105169,5.443148],[-75.10511,5.443148],[-75.10511,5.443208],[-75.10505,5.443208],[-75.104991,5.443328],[-75.104811,5.443328],[-75.104752,5.443388],[-75.104693,5.443388],[-75.104633,5.443448],[-75.104513,5.443507],[-75.104215,5.443508],[-75.104215,5.443568],[-75.104096,5.443568],[-75.103858,5.443688],[-75.103798,5.443748],[-75.103459,5.443749]]],[[[-75.102709,5.443933],[-75.102789,5.443919],[-75.102664,5.44399],[-75.102611,5.44399],[-75.102709,5.443933]]],[[[-75.100544,5.444366],[-75.100513,5.443961],[-75.100512,5.44356],[-75.100967,5.443502],[-75.101482,5.443564],[-75.101675,5.443534],[-75.10185,5.443841],[-75.102077,5.444101],[-75.102239,5.444143],[-75.102351,5.444133],[-75.102602,5.443995],[-75.102545,5.44411],[-75.102486,5.44411],[-75.102486,5.44417],[-75.102426,5.444228],[-75.102426,5.444288],[-75.102366,5.444288],[-75.102307,5.444348],[-75.102188,5.444409],[-75.100636,5.444411],[-75.100544,5.444366]]],[[[-75.099255,5.45035],[-75.098591,5.450253],[-75.098398,5.450257],[-75.098273,5.450318],[-75.098322,5.449735],[-75.098531,5.448612],[-75.098556,5.448263],[-75.09856,5.44726],[-75.098662,5.446438],[-75.098554,5.446036],[-75.098905,5.446293],[-75.09906,5.446186],[-75.099316,5.446054],[-75.099615,5.445952],[-75.100026,5.445869],[-75.100312,5.445888],[-75.100694,5.44595],[-75.101399,5.446002],[-75.101411,5.446026],[-75.101471,5.446026],[-75.101471,5.446144],[-75.101531,5.446204],[-75.101531,5.446324],[-75.101591,5.446384],[-75.101591,5.446444],[-75.101651,5.446564],[-75.101653,5.448179],[-75.101773,5.448297],[-75.101774,5.448896],[-75.101834,5.448955],[-75.101834,5.449194],[-75.101894,5.449254],[-75.101895,5.449554],[-75.101954,5.449553],[-75.101955,5.44979],[-75.101685,5.449939],[-75.101432,5.449987],[-75.101279,5.449987],[-75.100869,5.449879],[-75.100636,5.449897],[-75.100487,5.449948],[-75.100213,5.450457],[-75.100112,5.45059],[-75.099997,5.450644],[-75.099875,5.450645],[-75.099682,5.450509],[-75.099509,5.450431],[-75.099255,5.45035]]]]},"properties":{"cobertura":"Mosaico de pastos con espacios naturales","bioma":"Orobioma andino cordillera central","clima":"Pluvial","paisaje":"Montana","suelo":"Asociacion SANTA ISABEL - Pensilvania","ecosistema":"Mosaico de pastos con espacios naturales","area_ha":20.4743}},{"type":"Feature","id":8,"geometry":{"type":"Polygon","coordinates":[[[-75.115248,5.448814],[-75.115368,5.448754],[-75.115368,5.448694],[-75.115427,5.448694],[-75.115427,5.448574],[-75.115546,5.448454],[-75.115545,5.448096],[-75.115605,5.447976],[-75.115605,5.447856],[-75.115664,5.447796],[-75.115664,5.447557],[-75.115724,5.447557],[-75.115724,5.447437],[-75.115842,5.447318],[-75.115842,5.447258],[-75.115902,5.447198],[-75.115961,5.447078],[-75.116021,5.447078],[-75.116021,5.447018],[-75.116081,5.446958],[-75.116081,5.446898],[-75.11614,5.446898],[-75.11614,5.446838],[-75.116199,5.446838],[-75.116199,5.446778],[-75.116259,5.446718],[-75.116259,5.4466],[-75.116378,5.44648],[-75.116378,5.44642],[-75.116438,5.44642],[-75.116497,5.44636],[-75.116497,5.44624],[-75.116556,5.44618],[-75.116556,5.44612],[-75.116676,5.446],[-75.116675,5.445941],[-75.116735,5.445881],[-75.116795,5.445881],[-75.116855,5.445821],[-75.117033,5.445641],[-75.117033,5.445521],[-75.117093,5.445521],[-75.117152,5.445461],[-75.117152,5.445401],[-75.117212,5.445401],[-75.117211,5.445043],[-75.11727,5.444923],[-75.11727,5.444743],[-75.11733,5.444623],[-75.117329,5.444505],[-75.117389,5.444445],[-75.117389,5.444385],[-75.117449,5.444385],[-75.117449,5.444325],[-75.117568,5.444325],[-75.117747,5.444145],[-75.117866,5.444144],[-75.118104,5.443964],[-75.118284,5.443964],[-75.118284,5.443904],[-75.118403,5.443904],[-75.118462,5.443844],[-75.118462,5.443785],[-75.118582,5.443725],[-75.118582,5.443665],[-75.118641,5.443605],[-75.118641,5.443545],[-75.1187,5.443485],[-75.1187,5.443415],[-75.119358,5.443724],[-75.119656,5.443723],[-75.119656,5.443663],[-75.119775,5.443663],[-75.119775,5.443603],[-75.119834,5.443603],[-75.119894,5.443543],[-75.120132,5.443423],[-75.120908,5.443421],[-75.120968,5.443481],[-75.121028,5.443481],[-75.121028,5.443541],[-75.121326,5.44354],[-75.121326,5.4436],[-75.121386,5.4436],[-75.121386,5.44372],[-75.121446,5.44372],[-75.121506,5.443839],[-75.121506,5.443899],[-75.121566,5.443898],[-75.121625,5.443958],[-75.121626,5.444556],[-75.121567,5.444556],[-75.121567,5.444616],[-75.121507,5.444616],[-75.121269,5.444856],[-75.12121,5.444856],[-75.120852,5.445216],[-75.120792,5.445216],[-75.120733,5.445275],[-75.120494,5.445395],[-75.120435,5.445455],[-75.120196,5.445456],[-75.120136,5.445516],[-75.119599,5.445517],[-75.119539,5.445457],[-75.119479,5.445457],[-75.11942,5.445397],[-75.119301,5.445398],[-75.119181,5.445338],[-75.119121,5.445278],[-75.118942,5.445278],[-75.118942,5.445219],[-75.118882,5.44516],[-75.118763,5.44516],[-75.118703,5.4451],[-75.118644,5.4451],[-75.118584,5.445041],[-75.118464,5.445041],[-75.118404,5.444981],[-75.118046,5.444982],[-75.117868,5.445162],[-75.117868,5.44528],[-75.117808,5.44534],[-75.11781,5.446178],[-75.11775,5.446238],[-75.11775,5.446298],[-75.117572,5.446597],[-75.117573,5.447195],[-75.117632,5.447255],[-75.117633,5.447434],[-75.117693,5.447433],[-75.117693,5.447613],[-75.117753,5.447613],[-75.117812,5.447673],[-75.117813,5.447733],[-75.117872,5.447733],[-75.117992,5.447852],[-75.118111,5.447912],[-75.118112,5.448689],[-75.117993,5.448809],[-75.117993,5.448988],[-75.117934,5.449048],[-75.117935,5.449108],[-75.117875,5.449168],[-75.117875,5.449348],[-75.117816,5.449408],[-75.117816,5.449468],[-75.117637,5.449646],[-75.117219,5.449647],[-75.1171,5.449587],[-75.11704,5.449529],[-75.11692,5.449529],[-75.11692,5.449469],[-75.116801,5.449469],[-75.116801,5.449409],[-75.116681,5.44941],[-75.116622,5.44935],[-75.116562,5.44935],[-75.116502,5.44929],[-75.116383,5.44923],[-75.116263,5.449231],[-75.116203,5.449171],[-75.116084,5.449111],[-75.116025,5.449111],[-75.115905,5.449052],[-75.115786,5.449052],[-75.115666,5.448932],[-75.115547,5.448872],[-75.115428,5.448873],[-75.115427,5.448814],[-75.115248,5.448814]]]},"properties":{"cobertura":"Pastos limpios","bioma":"Orobioma andino cordillera central","clima":"Pluvial","paisaje":"Montana","suelo":"Asociacion SANTA ISABEL - Pensilvania","ecosistema":"Pastos limpios","area_ha":16.9018}},{"type":"Feature","id":9,"geometry":{"type":"Polygon","coordinates":[[[-75.114174,5.448816],[-75.114114,5.448756],[-75.114114,5.448696],[-75.114054,5.448696],[-75.113995,5.448637],[-75.113935,5.448637],[-75.113935,5.448577],[-75.113875,5.448577],[-75.113815,5.448517],[-75.113756,5.448517],[-75.113696,5.448457],[-75.113637,5.448458],[-75.113517,5.448338],[-75.113397,5.448338],[-75.113278,5.448278],[-75.113218,5.448219],[-75.113158,5.448219],[-75.11292,5.448041],[-75.11286,5.448041],[-75.11274,5.447921],[-75.11268,5.447921],[-75.112621,5.447862],[-75.112502,5.447862],[-75.112501,5.447802],[-75.112442,5.447742],[-75.112382,5.447742],[-75.112322,5.447682],[-75.112262,5.447682],[-75.112262,5.447622],[-75.112143,5.447563],[-75.112083,5.447503],[-75.112083,5.447384],[-75.112023,5.447324],[-75.111963,5.447205],[-75.111963,5.447085],[-75.111903,5.447085],[-75.111903,5.446905],[-75.111844,5.446906],[-75.111843,5.446547],[-75.111783,5.446487],[-75.111783,5.446128],[-75.111842,5.446008],[-75.111901,5.445949],[-75.111901,5.445889],[-75.111961,5.445829],[-75.11202,5.44571],[-75.112258,5.445469],[-75.112318,5.445469],[-75.112378,5.445409],[-75.112497,5.445349],[-75.112497,5.445289],[-75.112557,5.445289],[-75.112736,5.44523],[-75.112855,5.44511],[-75.112915,5.44511],[-75.112974,5.44505],[-75.113034,5.44505],[-75.113153,5.44499],[-75.113153,5.44493],[-75.113272,5.44493],[-75.113272,5.44487],[-75.113332,5.44487],[-75.11363,5.44457],[-75.113689,5.44457],[-75.113928,5.444391],[-75.114047,5.444331],[-75.114226,5.44433],[-75.114345,5.44427],[-75.114405,5.44427],[-75.114464,5.44415],[-75.114584,5.44415],[-75.114643,5.44409],[-75.114703,5.44409],[-75.114762,5.44403],[-75.114882,5.44403],[-75.115061,5.44385],[-75.11512,5.44385],[-75.115359,5.443611],[-75.115359,5.443551],[-75.115418,5.443491],[-75.115418,5.443251],[-75.115298,5.443132],[-75.115119,5.443132],[-75.115119,5.443073],[-75.11506,5.443013],[-75.11488,5.443014],[-75.11482,5.442954],[-75.113985,5.442955],[-75.113866,5.443075],[-75.113747,5.443134],[-75.113687,5.443194],[-75.113448,5.443195],[-75.113389,5.443255],[-75.111598,5.443258],[-75.111538,5.443198],[-75.111479,5.443198],[-75.111479,5.443138],[-75.11136,5.443138],[-75.111359,5.44308],[-75.11118,5.44308],[-75.111121,5.44302],[-75.111061,5.44302],[-75.111001,5.44296],[-75.109987,5.442962],[-75.109987,5.443022],[-75.109927,5.443022],[-75.109927,5.443261],[-75.109987,5.44332],[-75.109988,5.44338],[-75.110047,5.44344],[-75.110047,5.4435],[-75.110107,5.44356],[-75.110167,5.44356],[-75.110167,5.443679],[-75.110227,5.443739],[-75.110227,5.443918],[-75.110287,5.443978],[-75.110287,5.444337],[-75.110244,5.44438],[-75.110244,5.444156],[-75.110125,5.444156],[-75.109826,5.443977],[-75.109766,5.443977],[-75.109766,5.443918],[-75.109706,5.443918],[-75.109587,5.443738],[-75.109408,5.443738],[-75.109408,5.443678],[-75.109288,5.443679],[-75.109228,5.443619],[-75.109049,5.443559],[-75.10893,5.44356],[-75.10887,5.4435],[-75.108691,5.4435],[-75.108452,5.443322],[-75.108094,5.443322],[-75.107975,5.443263],[-75.107915,5.443263],[-75.107795,5.443203],[-75.107736,5.443203],[-75.106959,5.442905],[-75.106959,5.442845],[-75.1069,5.442785],[-75.106899,5.442305],[-75.107248,5.442093],[-75.10751,5.441788],[-75.107851,5.441486],[-75.107967,5.441467],[-75.1081,5.441486],[-75.108151,5.441588],[-75.108748,5.441766],[-75.108919,5.441766],[-75.109252,5.441981],[-75.109539,5.442112],[-75.109655,5.442057],[-75.109767,5.441922],[-75.109857,5.441704],[-75.109969,5.441526],[-75.110053,5.441445],[-75.110683,5.441212],[-75.11106,5.441026],[-75.111531,5.440539],[-75.111722,5.440393],[-75.111908,5.44029],[-75.11191,5.441283],[-75.112089,5.441461],[-75.112149,5.441461],[-75.112686,5.44176],[-75.112985,5.441759],[-75.112985,5.441819],[-75.113224,5.441878],[-75.113284,5.441938],[-75.113403,5.441938],[-75.113522,5.441998],[-75.113702,5.441997],[-75.114,5.442116],[-75.11406,5.442115],[-75.114179,5.442175],[-75.114657,5.442174],[-75.114835,5.442234],[-75.115015,5.442353],[-75.115731,5.442352],[-75.115791,5.442292],[-75.115851,5.442292],[-75.11585,5.442232],[-75.11591,5.442232],[-75.115969,5.442052],[-75.116029,5.441993],[-75.116028,5.441514],[-75.115968,5.441335],[-75.115968,5.441276],[-75.115908,5.441156],[-75.115908,5.441096],[-75.113342,5.441101],[-75.113342,5.441041],[-75.113401,5.440981],[-75.113521,5.440921],[-75.11358,5.440861],[-75.113938,5.44062],[-75.113938,5.440562],[-75.114028,5.440586],[-75.114132,5.440682],[-75.114228,5.440732],[-75.114388,5.440764],[-75.114715,5.440731],[-75.114819,5.44071],[-75.114954,5.440608],[-75.115239,5.440474],[-75.115701,5.440306],[-75.115803,5.440203],[-75.115607,5.439793],[-75.115606,5.439362],[-75.115487,5.439302],[-75.115487,5.439124],[-75.115446,5.439082],[-75.11538,5.438869],[-75.115089,5.43841],[-75.114846,5.437822],[-75.114359,5.436861],[-75.113897,5.436133],[-75.113471,5.435634],[-75.113216,5.43541],[-75.113037,5.435215],[-75.11299,5.435132],[-75.112975,5.434822],[-75.112996,5.434358],[-75.112988,5.434277],[-75.112948,5.434191],[-75.112441,5.433828],[-75.112362,5.433752],[-75.112312,5.433666],[-75.112262,5.433497],[-75.112163,5.43334],[-75.112397,5.433237],[-75.112726,5.43301],[-75.113222,5.432961],[-75.113475,5.432972],[-75.114204,5.433103],[-75.115081,5.433351],[-75.115928,5.43338],[-75.116714,5.433225],[-75.116714,5.433381],[-75.116654,5.433382],[-75.116657,5.434817],[-75.116597,5.434877],[-75.116537,5.435057],[-75.116478,5.435057],[-75.116478,5.435117],[-75.116419,5.435177],[-75.116419,5.435235],[-75.116299,5.435295],[-75.11618,5.435416],[-75.11618,5.435475],[-75.116121,5.435595],[-75.116061,5.435655],[-75.116063,5.436553],[-75.116123,5.436671],[-75.116123,5.436791],[-75.116182,5.436851],[-75.116183,5.436971],[-75.116242,5.43703],[-75.116302,5.43715],[-75.116303,5.43721],[-75.116362,5.43727],[-75.116363,5.437448],[-75.116422,5.437448],[-75.116423,5.437508],[-75.116483,5.437568],[-75.116484,5.438465],[-75.116543,5.438465],[-75.116543,5.438585],[-75.116723,5.438764],[-75.116723,5.438883],[-75.116783,5.438883],[-75.116843,5.438943],[-75.116843,5.439003],[-75.117799,5.439958],[-75.117799,5.440018],[-75.117859,5.440078],[-75.117859,5.440138],[-75.117919,5.440198],[-75.117979,5.440376],[-75.118098,5.440436],[-75.118158,5.440555],[-75.118218,5.440555],[-75.118278,5.440615],[-75.118278,5.440675],[-75.118337,5.440735],[-75.11792,5.440736],[-75.117861,5.440796],[-75.117861,5.440856],[-75.117801,5.440856],[-75.117741,5.440974],[-75.117741,5.441034],[-75.117682,5.441034],[-75.117682,5.441094],[-75.117622,5.441154],[-75.117623,5.441514],[-75.117683,5.441633],[-75.117684,5.44247],[-75.118163,5.443247],[-75.118342,5.443246],[-75.1187,5.443415],[-75.1187,5.443485],[-75.118641,5.443545],[-75.118641,5.443605],[-75.118582,5.443665],[-75.118582,5.443725],[-75.118462,5.443785],[-75.118462,5.443844],[-75.118403,5.443904],[-75.118284,5.443904],[-75.118284,5.443964],[-75.118104,5.443964],[-75.117866,5.444144],[-75.117747,5.444145],[-75.117568,5.444325],[-75.117449,5.444325],[-75.117449,5.444385],[-75.117389,5.444385],[-75.117389,5.444445],[-75.117329,5.444505],[-75.11733,5.444623],[-75.11727,5.444743],[-75.11727,5.444923],[-75.117211,5.445043],[-75.117212,5.445401],[-75.117152,5.445401],[-75.117152,5.445461],[-75.117093,5.445521],[-75.117033,5.445521],[-75.117033,5.445641],[-75.116855,5.445821],[-75.116795,5.445881],[-75.116735,5.445881],[-75.116675,5.445941],[-75.116676,5.446],[-75.116556,5.44612],[-75.116556,5.44618],[-75.116497,5.44624],[-75.116497,5.44636],[-75.116438,5.44642],[-75.116378,5.44642],[-75.116378,5.44648],[-75.116259,5.4466],[-75.116259,5.446718],[-75.116199,5.446778],[-75.116199,5.446838],[-75.11614,5.446838],[-75.11614,5.446898],[-75.116081,5.446898],[-75.116081,5.446958],[-75.116021,5.447018],[-75.116021,5.447078],[-75.115961,5.447078],[-75.115902,5.447198],[-75.115842,5.447258],[-75.115842,5.447318],[-75.115724,5.447437],[-75.115724,5.447557],[-75.115664,5.447557],[-75.115664,5.447796],[-75.115605,5.447856],[-75.115605,5.447976],[-75.115545,5.448096],[-75.115546,5.448454],[-75.115427,5.448574],[-75.115427,5.448694],[-75.115368,5.448694],[-75.115368,5.448754],[-75.115248,5.448814],[-75.114174,5.448816]]]},"properties":{"cobertura":"Mosaico de pastos con espacios naturales","bioma":"Orobioma andino cordillera central","clima":"Pluvial","paisaje":"Montana","suelo":"Asociacion SANTA ISABEL - Pensilvania","ecosistema":"Mosaico de pastos con espacios naturales","area_ha":71.5099}},{"type":"Feature","id":10,"geometry":{"type":"Polygon","coordinates":[[[-75.118337,5.440735],[-75.118278,5.440675],[-75.118278,5.440615],[-75.118218,5.440555],[-75.118158,5.440555],[-75.118098,5.440436],[-75.117979,5.440376],[-75.117919,5.440198],[-75.117859,5.440138],[-75.117859,5.440078],[-75.117799,5.440018],[-75.117799,5.439958],[-75.116843,5.439003],[-75.116843,5.438943],[-75.116783,5.438883],[-75.116723,5.438883],[-75.116723,5.438764],[-75.116543,5.438585],[-75.116543,5.438465],[-75.116484,5.438465],[-75.116483,5.437568],[-75.116423,5.437508],[-75.116422,5.437448],[-75.116363,5.437448],[-75.116362,5.43727],[-75.116303,5.43721],[-75.116302,5.43715],[-75.116242,5.43703],[-75.116183,5.436971],[-75.116182,5.436851],[-75.116123,5.436791],[-75.116123,5.436671],[-75.116063,5.436553],[-75.116061,5.435655],[-75.116121,5.435595],[-75.11618,5.435475],[-75.11618,5.435416],[-75.116299,5.435295],[-75.116419,5.435235],[-75.116419,5.435177],[-75.116478,5.435117],[-75.116478,5.435057],[-75.116537,5.435057],[-75.116597,5.434877],[-75.116657,5.434817],[-75.116654,5.433382],[-75.116714,5.433381],[-75.116714,5.433225],[-75.117679,5.432978],[-75.117853,5.432968],[-75.118293,5.43302],[-75.118265,5.433021],[-75.118146,5.433139],[-75.118146,5.433199],[-75.118086,5.433319],[-75.118087,5.433499],[-75.118146,5.433559],[-75.118146,5.433618],[-75.118206,5.433618],[-75.118266,5.433678],[-75.118325,5.433678],[-75.118385,5.433797],[-75.118684,5.433796],[-75.118803,5.433677],[-75.118863,5.433677],[-75.118922,5.433617],[-75.118982,5.433617],[-75.119101,5.433497],[-75.119161,5.433497],[-75.119161,5.433437],[-75.11928,5.433377],[-75.11934,5.433317],[-75.119458,5.433257],[-75.119518,5.433257],[-75.119669,5.433166],[-75.119949,5.433129],[-75.120156,5.433077],[-75.120351,5.433074],[-75.120485,5.433116],[-75.120253,5.433353],[-75.11994,5.43372],[-75.119473,5.434309],[-75.119392,5.434446],[-75.119329,5.434807],[-75.119693,5.435417],[-75.119856,5.435597],[-75.120233,5.435687],[-75.120428,5.435794],[-75.121071,5.4362],[-75.121574,5.436616],[-75.121885,5.436953],[-75.122036,5.437188],[-75.122203,5.437558],[-75.121972,5.437558],[-75.121793,5.437499],[-75.121674,5.437499],[-75.121495,5.437439],[-75.121435,5.43738],[-75.121375,5.43738],[-75.121256,5.437321],[-75.121196,5.437261],[-75.121137,5.437262],[-75.121017,5.437142],[-75.121017,5.437082],[-75.120957,5.437082],[-75.120957,5.437022],[-75.120897,5.436962],[-75.120837,5.436963],[-75.120837,5.436903],[-75.120778,5.436843],[-75.120778,5.436783],[-75.120658,5.436663],[-75.120658,5.436485],[-75.120538,5.436186],[-75.120538,5.436126],[-75.120359,5.436006],[-75.120119,5.435768],[-75.12006,5.435768],[-75.12006,5.435708],[-75.119344,5.43571],[-75.119224,5.43577],[-75.119165,5.43577],[-75.119105,5.43583],[-75.119045,5.43583],[-75.119046,5.436248],[-75.119166,5.436368],[-75.119166,5.436487],[-75.119226,5.436607],[-75.119227,5.437085],[-75.119167,5.437145],[-75.119047,5.437205],[-75.118749,5.437206],[-75.118511,5.437266],[-75.118272,5.437266],[-75.118153,5.437327],[-75.117974,5.437327],[-75.117914,5.437386],[-75.117855,5.437386],[-75.117856,5.438104],[-75.117916,5.438163],[-75.117916,5.438223],[-75.117975,5.438223],[-75.118095,5.438283],[-75.118632,5.438282],[-75.118751,5.438342],[-75.11893,5.438341],[-75.11899,5.438401],[-75.119229,5.438401],[-75.119229,5.438461],[-75.119349,5.43858],[-75.119349,5.43864],[-75.119408,5.4387],[-75.119408,5.43876],[-75.119528,5.438878],[-75.119529,5.439238],[-75.119469,5.439238],[-75.119469,5.439298],[-75.119409,5.439358],[-75.119171,5.439478],[-75.118992,5.439478],[-75.118994,5.440494],[-75.118934,5.440554],[-75.118875,5.440554],[-75.118755,5.440674],[-75.118695,5.440674],[-75.118636,5.440734],[-75.118337,5.440735]]]},"properties":{"cobertura":"Pastos limpios","bioma":"Orobioma andino cordillera central","clima":"Pluvial","paisaje":"Montana","suelo":"Asociacion SANTA ISABEL - Pensilvania","ecosistema":"Pastos limpios","area_ha":23.9319}},{"type":"Feature","id":11,"geometry":{"type":"Polygon","coordinates":[[[-75.131954,5.434386],[-75.132168,5.434343],[-75.132656,5.434325],[-75.132742,5.434282],[-75.132822,5.4342],[-75.133035,5.433614],[-75.133342,5.433154],[-75.133418,5.433076],[-75.133572,5.433001],[-75.133637,5.432995],[-75.133922,5.433056],[-75.133979,5.433016],[-75.134072,5.432826],[-75.134827,5.433293],[-75.135398,5.433556],[-75.135653,5.433696],[-75.136331,5.434142],[-75.13619,5.43417],[-75.136119,5.434278],[-75.136084,5.434601],[-75.135833,5.434758],[-75.135905,5.434781],[-75.136231,5.43498],[-75.13618,5.435031],[-75.136061,5.435031],[-75.136061,5.435151],[-75.136001,5.435151],[-75.135942,5.435211],[-75.135942,5.43527],[-75.135883,5.43539],[-75.135823,5.43545],[-75.135823,5.435555],[-75.135503,5.435729],[-75.135334,5.435738],[-75.135185,5.435797],[-75.13485,5.435849],[-75.133974,5.436282],[-75.133974,5.436171],[-75.133915,5.436171],[-75.133914,5.436112],[-75.133855,5.436112],[-75.133854,5.435872],[-75.133795,5.435812],[-75.133795,5.435692],[-75.133735,5.435692],[-75.133734,5.435095],[-75.133674,5.435095],[-75.133614,5.435035],[-75.133614,5.434975],[-75.133554,5.434915],[-75.133554,5.434855],[-75.133435,5.434856],[-75.133435,5.434796],[-75.133375,5.434737],[-75.133315,5.434737],[-75.133077,5.434558],[-75.132957,5.434558],[-75.132957,5.434498],[-75.132837,5.434438],[-75.132061,5.43444],[-75.131954,5.434386]]]},"properties":{"cobertura":"Bosque denso alto de tierra firme","bioma":"Orobioma andino cordillera central","clima":"Pluvial","paisaje":"Montana","suelo":"Asociacion SANTA ISABEL - Pensilvania","ecosistema":"Bosque Pluvial del Orobioma andino cordillera central","area_ha":8.8216}},{"type":"Feature","id":12,"geometry":{"type":"MultiPolygon","coordinates":[[[[-75.118385,5.433797],[-75.118325,5.433678],[-75.118266,5.433678],[-75.118206,5.433618],[-75.118146,5.433618],[-75.118146,5.433559],[-75.118087,5.433499],[-75.118086,5.433319],[-75.118146,5.433199],[-75.118146,5.433139],[-75.118265,5.433021],[-75.119355,5.433191],[-75.119669,5.433166],[-75.119518,5.433257],[-75.119458,5.433257],[-75.11934,5.433317],[-75.11928,5.433377],[-75.119161,5.433437],[-75.119161,5.433497],[-75.119101,5.433497],[-75.118982,5.433617],[-75.118922,5.433617],[-75.118863,5.433677],[-75.118803,5.433677],[-75.118684,5.433796],[-75.118385,5.433797]]],[[[-75.112011,5.460659],[-75.112102,5.460293],[-75.112104,5.460133],[-75.111925,5.459892],[-75.111563,5.459638],[-75.111224,5.459525],[-75.110991,5.459528],[-75.110701,5.459435],[-75.110354,5.459436],[-75.110099,5.459474],[-75.110173,5.459322],[-75.110191,5.459186],[-75.110177,5.458974],[-75.10995,5.45835],[-75.109729,5.457965],[-75.109212,5.457312],[-75.109038,5.457026],[-75.108916,5.456763],[-75.108868,5.456208],[-75.108802,5.45603],[-75.108708,5.455922],[-75.10837,5.455626],[-75.108281,5.455476],[-75.108127,5.455313],[-75.107463,5.454996],[-75.107213,5.454787],[-75.107237,5.454221],[-75.107221,5.454076],[-75.107166,5.453977],[-75.107067,5.453894],[-75.106871,5.453801],[-75.106801,5.453718],[-75.10675,5.453605],[-75.106491,5.453524],[-75.106432,5.453448],[-75.10642,5.453293],[-75.1065,5.453253],[-75.10656,5.453253],[-75.106619,5.453193],[-75.106678,5.453192],[-75.106738,5.453132],[-75.106917,5.453072],[-75.107693,5.453071],[-75.107872,5.45319],[-75.107872,5.45325],[-75.107932,5.45325],[-75.107992,5.45331],[-75.108529,5.453309],[-75.108767,5.453189],[-75.11008,5.453187],[-75.110199,5.453246],[-75.110199,5.453306],[-75.110259,5.453366],[-75.110319,5.453366],[-75.110379,5.453486],[-75.110499,5.453544],[-75.110499,5.453604],[-75.110618,5.453664],[-75.111931,5.453662],[-75.111991,5.453781],[-75.11223,5.453781],[-75.11229,5.453841],[-75.112409,5.4539],[-75.112528,5.45402],[-75.112648,5.45402],[-75.112649,5.454378],[-75.112589,5.454558],[-75.112589,5.454618],[-75.11253,5.454678],[-75.11247,5.454798],[-75.11247,5.454857],[-75.11241,5.454858],[-75.11241,5.454917],[-75.112291,5.454977],[-75.112292,5.455036],[-75.112232,5.455036],[-75.112112,5.455157],[-75.111993,5.455157],[-75.111994,5.455874],[-75.112174,5.456054],[-75.112413,5.456113],[-75.112532,5.456173],[-75.112532,5.456233],[-75.112771,5.456232],[-75.112831,5.456292],[-75.113249,5.456291],[-75.113547,5.45641],[-75.113607,5.456469],[-75.113608,5.456889],[-75.113488,5.457009],[-75.11349,5.457726],[-75.113549,5.457786],[-75.113549,5.457845],[-75.113669,5.457965],[-75.113669,5.458084],[-75.113729,5.458084],[-75.113729,5.458144],[-75.114445,5.458143],[-75.114504,5.458083],[-75.114624,5.458083],[-75.114744,5.458023],[-75.114743,5.457963],[-75.114862,5.457903],[-75.114862,5.457784],[-75.114922,5.457664],[-75.114981,5.457604],[-75.115041,5.457304],[-75.11516,5.457244],[-75.11516,5.457184],[-75.115219,5.457124],[-75.115518,5.457124],[-75.115577,5.457065],[-75.115696,5.457065],[-75.115816,5.456945],[-75.115876,5.456945],[-75.115875,5.456765],[-75.115756,5.456586],[-75.115754,5.455928],[-75.115575,5.455748],[-75.115516,5.455748],[-75.115515,5.455689],[-75.115455,5.45563],[-75.115336,5.45557],[-75.115276,5.45551],[-75.115157,5.455511],[-75.114799,5.455332],[-75.114679,5.455332],[-75.114081,5.454735],[-75.114022,5.454735],[-75.113962,5.454555],[-75.113961,5.454197],[-75.114021,5.454137],[-75.114021,5.454077],[-75.11408,5.453957],[-75.115154,5.453956],[-75.115154,5.453536],[-75.114854,5.453238],[-75.114735,5.453179],[-75.114735,5.453119],[-75.114615,5.453059],[-75.114377,5.45282],[-75.114317,5.452701],[-75.114315,5.451624],[-75.114076,5.451445],[-75.114016,5.451445],[-75.113956,5.451385],[-75.113658,5.451267],[-75.113538,5.451267],[-75.113299,5.451208],[-75.11318,5.451208],[-75.11312,5.451148],[-75.113119,5.450669],[-75.113059,5.450551],[-75.113058,5.450011],[-75.112939,5.449893],[-75.112939,5.449773],[-75.112685,5.449774],[-75.112743,5.449655],[-75.112803,5.449655],[-75.112803,5.449595],[-75.112863,5.449595],[-75.112922,5.449536],[-75.11322,5.449236],[-75.11322,5.449176],[-75.11328,5.449116],[-75.113339,5.449116],[-75.113339,5.449056],[-75.113399,5.449056],[-75.113398,5.448996],[-75.113458,5.448936],[-75.113696,5.448817],[-75.115427,5.448814],[-75.115428,5.448873],[-75.115547,5.448872],[-75.115666,5.448932],[-75.115786,5.449052],[-75.115905,5.449052],[-75.116025,5.449111],[-75.116084,5.449111],[-75.116203,5.449171],[-75.116263,5.449231],[-75.116383,5.44923],[-75.116502,5.44929],[-75.116562,5.44935],[-75.116622,5.44935],[-75.116681,5.44941],[-75.116801,5.449409],[-75.116801,5.449469],[-75.11692,5.449469],[-75.11692,5.449529],[-75.11704,5.449529],[-75.1171,5.449587],[-75.117219,5.449647],[-75.117637,5.449646],[-75.117816,5.449468],[-75.117816,5.449408],[-75.117875,5.449348],[-75.117875,5.449168],[-75.117935,5.449108],[-75.117934,5.449048],[-75.117993,5.448988],[-75.117993,5.448809],[-75.118112,5.448689],[-75.118111,5.447912],[-75.117992,5.447852],[-75.117872,5.447733],[-75.117813,5.447733],[-75.117812,5.447673],[-75.117753,5.447613],[-75.117693,5.447613],[-75.117693,5.447433],[-75.117633,5.447434],[-75.117632,5.447255],[-75.117573,5.447195],[-75.117572,5.446597],[-75.11775,5.446298],[-75.11775,5.446238],[-75.11781,5.446178],[-75.117808,5.44534],[-75.117868,5.44528],[-75.117868,5.445162],[-75.118046,5.444982],[-75.118404,5.444981],[-75.118464,5.445041],[-75.118584,5.445041],[-75.118644,5.4451],[-75.118703,5.4451],[-75.118763,5.44516],[-75.118882,5.44516],[-75.118942,5.445219],[-75.118942,5.445278],[-75.119121,5.445278],[-75.119181,5.445338],[-75.119301,5.445398],[-75.11942,5.445397],[-75.119479,5.445457],[-75.119539,5.445457],[-75.119599,5.445517],[-75.120136,5.445516],[-75.120196,5.445456],[-75.120435,5.445455],[-75.120494,5.445395],[-75.120733,5.445275],[-75.120792,5.445216],[-75.120852,5.445216],[-75.12121,5.444856],[-75.121269,5.444856],[-75.121507,5.444616],[-75.121567,5.444616],[-75.121567,5.444556],[-75.121626,5.444556],[-75.121625,5.443958],[-75.121566,5.443898],[-75.121506,5.443899],[-75.121506,5.443839],[-75.121446,5.44372],[-75.121386,5.44372],[-75.121386,5.4436],[-75.121326,5.4436],[-75.121326,5.44354],[-75.121028,5.443541],[-75.121028,5.443481],[-75.120968,5.443481],[-75.120908,5.443421],[-75.120132,5.443423],[-75.119894,5.443543],[-75.119834,5.443603],[-75.119775,5.443603],[-75.119775,5.443663],[-75.119656,5.443663],[-75.119656,5.443723],[-75.119358,5.443724],[-75.118342,5.443246],[-75.118163,5.443247],[-75.117684,5.44247],[-75.117683,5.441633],[-75.117623,5.441514],[-75.117622,5.441154],[-75.117682,5.441094],[-75.117682,5.441034],[-75.117741,5.441034],[-75.117741,5.440974],[-75.117801,5.440856],[-75.117861,5.440856],[-75.117861,5.440796],[-75.11792,5.440736],[-75.118636,5.440734],[-75.118695,5.440674],[-75.118755,5.440674],[-75.118875,5.440554],[-75.118934,5.440554],[-75.118994,5.440494],[-75.118992,5.439478],[-75.119171,5.439478],[-75.119409,5.439358],[-75.119469,5.439298],[-75.119469,5.439238],[-75.119529,5.439238],[-75.119528,5.438878],[-75.119408,5.43876],[-75.119408,5.4387],[-75.119349,5.43864],[-75.119349,5.43858],[-75.119229,5.438461],[-75.119229,5.438401],[-75.11899,5.438401],[-75.11893,5.438341],[-75.118751,5.438342],[-75.118632,5.438282],[-75.118095,5.438283],[-75.117975,5.438223],[-75.117916,5.438223],[-75.117916,5.438163],[-75.117856,5.438104],[-75.117855,5.437386],[-75.117914,5.437386],[-75.117974,5.437327],[-75.118153,5.437327],[-75.118272,5.437266],[-75.118511,5.437266],[-75.118749,5.437206],[-75.119047,5.437205],[-75.119167,5.437145],[-75.119227,5.437085],[-75.119226,5.436607],[-75.119166,5.436487],[-75.119166,5.436368],[-75.119046,5.436248],[-75.119045,5.43583],[-75.119105,5.43583],[-75.119165,5.43577],[-75.119224,5.43577],[-75.119344,5.43571],[-75.12006,5.435708],[-75.12006,5.435768],[-75.120119,5.435768],[-75.120359,5.436006],[-75.120538,5.436126],[-75.120538,5.436186],[-75.120658,5.436485],[-75.120658,5.436663],[-75.120778,5.436783],[-75.120778,5.436843],[-75.120837,5.436903],[-75.120837,5.436963],[-75.120897,5.436962],[-75.120957,5.437022],[-75.120957,5.437082],[-75.121017,5.437082],[-75.121017,5.437142],[-75.121137,5.437262],[-75.121196,5.437261],[-75.121256,5.437321],[-75.121375,5.43738],[-75.121435,5.43738],[-75.121495,5.437439],[-75.121674,5.437499],[-75.121793,5.437499],[-75.121972,5.437558],[-75.122203,5.437558],[-75.12243,5.438008],[-75.122564,5.438209],[-75.123023,5.438653],[-75.123061,5.438496],[-75.123151,5.438374],[-75.123275,5.438338],[-75.123421,5.438356],[-75.123647,5.438419],[-75.123746,5.438413],[-75.123911,5.438346],[-75.124063,5.438164],[-75.124051,5.437921],[-75.124108,5.437793],[-75.12427,5.437704],[-75.124384,5.437471],[-75.124441,5.437432],[-75.124676,5.437363],[-75.124813,5.437093],[-75.12488,5.437009],[-75.124962,5.436967],[-75.12529,5.436947],[-75.125366,5.437012],[-75.125516,5.43723],[-75.125835,5.437269],[-75.125907,5.437321],[-75.125967,5.437388],[-75.126018,5.437495],[-75.12607,5.437885],[-75.126149,5.438026],[-75.126645,5.437878],[-75.126754,5.437811],[-75.126824,5.437719],[-75.126843,5.437641],[-75.126824,5.437421],[-75.126879,5.437373],[-75.127203,5.43732],[-75.127414,5.437366],[-75.127547,5.437245],[-75.12761,5.436991],[-75.127678,5.436941],[-75.127825,5.436943],[-75.127951,5.43704],[-75.128034,5.437042],[-75.128226,5.437007],[-75.128434,5.436865],[-75.128585,5.436706],[-75.128887,5.43626],[-75.129208,5.43597],[-75.129297,5.435731],[-75.129421,5.435662],[-75.129646,5.435621],[-75.129755,5.435581],[-75.129858,5.435512],[-75.129942,5.435403],[-75.129957,5.435328],[-75.129942,5.435041],[-75.130034,5.435041],[-75.130094,5.435101],[-75.130153,5.435101],[-75.130213,5.435161],[-75.130272,5.435161],[-75.130332,5.43522],[-75.130392,5.43522],[-75.130452,5.43528],[-75.130571,5.43528],[-75.130571,5.4354],[-75.130631,5.435459],[-75.130632,5.435818],[-75.130572,5.435818],[-75.130572,5.435878],[-75.130513,5.435878],[-75.130393,5.435998],[-75.130274,5.435998],[-75.130274,5.436058],[-75.130095,5.436058],[-75.130095,5.436118],[-75.130036,5.436178],[-75.129976,5.436178],[-75.129976,5.436237],[-75.129916,5.436237],[-75.129857,5.436297],[-75.129858,5.437254],[-75.129799,5.437255],[-75.129799,5.437374],[-75.129739,5.437374],[-75.129739,5.437434],[-75.12968,5.437434],[-75.129681,5.438152],[-75.129741,5.438272],[-75.129774,5.438272],[-75.129629,5.438497],[-75.12952,5.438571],[-75.129393,5.43861],[-75.129141,5.438648],[-75.129042,5.438699],[-75.12887,5.438902],[-75.128822,5.439002],[-75.128826,5.439223],[-75.128804,5.439322],[-75.128652,5.439709],[-75.128619,5.439991],[-75.12856,5.440198],[-75.128495,5.44036],[-75.12839,5.440537],[-75.128295,5.440618],[-75.128023,5.440609],[-75.127613,5.440691],[-75.127464,5.440655],[-75.127215,5.440473],[-75.127111,5.440455],[-75.126979,5.44047],[-75.126543,5.440663],[-75.126367,5.44072],[-75.126205,5.440717],[-75.125888,5.440652],[-75.125742,5.440679],[-75.125589,5.440769],[-75.125449,5.440925],[-75.12539,5.441168],[-75.125336,5.441808],[-75.125271,5.441808],[-75.125211,5.441868],[-75.125212,5.441987],[-75.125152,5.441987],[-75.125153,5.442346],[-75.125093,5.442346],[-75.125094,5.442814],[-75.124854,5.442793],[-75.124774,5.442847],[-75.124738,5.442925],[-75.124665,5.4435],[-75.124607,5.443652],[-75.124541,5.44374],[-75.124416,5.443788],[-75.124251,5.443767],[-75.12415,5.443725],[-75.124083,5.443663],[-75.124027,5.443573],[-75.123885,5.44312],[-75.123824,5.443056],[-75.123659,5.443006],[-75.123539,5.443064],[-75.123452,5.443196],[-75.123317,5.443807],[-75.122891,5.444963],[-75.122729,5.445986],[-75.122611,5.446464],[-75.122522,5.446977],[-75.122435,5.447354],[-75.122262,5.44792],[-75.122096,5.448283],[-75.121682,5.448755],[-75.121327,5.44907],[-75.121161,5.449388],[-75.121057,5.449726],[-75.120987,5.449859],[-75.120647,5.450275],[-75.120289,5.45097],[-75.120098,5.451239],[-75.120015,5.451476],[-75.11988,5.451756],[-75.119817,5.451847],[-75.119685,5.451948],[-75.11979,5.452388],[-75.11983,5.453323],[-75.119893,5.453567],[-75.119995,5.453797],[-75.120208,5.454177],[-75.120179,5.454439],[-75.120097,5.454439],[-75.120116,5.454625],[-75.12009,5.454904],[-75.120026,5.455171],[-75.119857,5.455675],[-75.119601,5.456242],[-75.119207,5.457372],[-75.118942,5.457838],[-75.118594,5.458273],[-75.118364,5.458617],[-75.118279,5.45862],[-75.118165,5.458585],[-75.118071,5.458535],[-75.118001,5.458456],[-75.117971,5.458374],[-75.118003,5.458157],[-75.117947,5.457969],[-75.117762,5.457837],[-75.117443,5.457706],[-75.117233,5.457556],[-75.11713,5.457438],[-75.117064,5.457302],[-75.116938,5.456941],[-75.116921,5.456807],[-75.116759,5.456825],[-75.11652,5.456986],[-75.116113,5.457339],[-75.115931,5.457466],[-75.115771,5.457548],[-75.115568,5.457574],[-75.115494,5.45763],[-75.115139,5.458244],[-75.11489,5.458583],[-75.114683,5.45876],[-75.114239,5.459205],[-75.11406,5.45935],[-75.11389,5.459449],[-75.113685,5.459685],[-75.113475,5.460044],[-75.113358,5.460372],[-75.113252,5.460478],[-75.113073,5.460478],[-75.113073,5.460538],[-75.112894,5.460538],[-75.112775,5.460598],[-75.112357,5.460599],[-75.112238,5.460659],[-75.112011,5.460659]]]]},"properties":{"cobertura":"Bosque fragmentado con pastos y cultivos","bioma":"Orobioma andino cordillera central","clima":"Pluvial","paisaje":"Montana","suelo":"Asociacion SANTA ISABEL - Pensilvania","ecosistema":"Bosque Pluvial del Orobioma andino cordillera central","area_ha":192.6541}}]}