{"type":"FeatureCollection","features":[{"type":"Feature","id":0,"geometry":{"type":"Polygon","coordinates":[[[-75.08031,5.50491],[-75.0818,5.5039],[-75.08228,5.50385],[-75.0832,5.50448],[-75.08362,5.50505],[-75.08465,5.50563],[-75.08584,5.50584],[-75.08618,5.50634],[-75.08474,5.50711],[-75.08407,5.50675],[-75.08347,5.50616],[-75.08242,5.50609],[-75.08153,5.50562],[-75.08112,5.50508],[-75.08031,5.50491]]]},"properties":{"nombre":"Depositos piroclasticos y glaciofluviales","codigo":"Qto","simbolo":"Q-p","area_ha":9.2747}},{"type":"Feature","id":1,"geometry":{"type":"MultiPolygon","coordinates":[[[[-75.02254,5.42579],[-75.02261,5.42577],[-75.02265,5.42579],[-75.02254,5.42579]]],[[[-75.02308,5.42583],[-75.0231,5.42583],[-75.02311,5.42584],[-75.02308,5.42583]]],[[[-75.02636,5.42575],[-75.02638,5.42575],[-75.02624,5.42584],[-75.02636,5.42575]]],[[[-75.02002,5.4264],[-75.01909,5.42608],[-75.01757,5.4261],[-75.01487,5.42381],[-75.01389,5.42138],[-75.01277,5.42001],[-75.01251,5.41944],[-75.01135,5.41856],[-75.01175,5.4155],[-75.01118,5.41581],[-75.0114,5.41436],[-75.01132,5.41151],[-75.0123,5.41185],[-75.01269,5.41218],[-75.01359,5.41343],[-75.01409,5.41368],[-75.01449,5.41361],[-75.01542,5.41384],[-75.0154,5.4143],[-75.01568,5.41463],[-75.01578,5.41513],[-75.01668,5.41555],[-75.01691,5.41606],[-75.01702,5.41764],[-75.01768,5.41773],[-75.01805,5.41822],[-75.01812,5.42036],[-75.01896,5.42275],[-75.02022,5.42347],[-75.0206,5.42323],[-75.02115,5.42226],[-75.02136,5.42239],[-75.02125,5.42378],[-75.02204,5.4247],[-75.02247,5.4258],[-75.02111,5.42583],[-75.02002,5.4264]]],[[[-75.08999,5.50444],[-75.09046,5.50384],[-75.09035,5.50427],[-75.08999,5.50444]]],[[[-75.08465,5.50563],[-75.08228,5.50385],[-75.0818,5.5039],[-75.08031,5.50491],[-75.07972,5.50462],[-75.07915,5.50479],[-75.07772,5.50298],[-75.07695,5.50225],[-75.07667,5.50111],[-75.07441,5.49964],[-75.07448,5.49781],[-75.07312,5.49613],[-75.07389,5.49501],[-75.07444,5.49361],[-75.07501,5.49278],[-75.07472,5.49167],[-75.07445,5.48805],[-75.07389,5.48633],[-75.07445,5.48528],[-75.07472,5.48356],[-75.07416,5.48251],[-75.07373,5.48069],[-75.07032,5.47904],[-75.06969,5.4777],[-75.06812,5.4762],[-75.06667,5.47444],[-75.06598,5.47411],[-75.06415,5.47418],[-75.0636,5.47359],[-75.0615,5.47292],[-75.05888,5.47251],[-75.05688,5.47162],[-75.05459,5.47193],[-75.05276,5.47082],[-75.05279,5.47018],[-75.05362,5.46862],[-75.05359,5.46255],[-75.05472,5.45888],[-75.05615,5.4572],[-75.05733,5.45724],[-75.05907,5.45503],[-75.05776,5.45325],[-75.05863,5.45359],[-75.05954,5.45344],[-75.06051,5.45298],[-75.06094,5.45259],[-75.06118,5.45125],[-75.06093,5.45026],[-75.06109,5.45002],[-75.06047,5.45014],[-75.05952,5.45139],[-75.05841,5.45102],[-75.05873,5.4491],[-75.05863,5.44867],[-75.0585,5.44853],[-75.0576,5.44852],[-75.05747,5.44806],[-75.05713,5.44784],[-75.05708,5.44747],[-75.05731,5.44691],[-75.05798,5.44609],[-75.05799,5.44582],[-75.05728,5.44541],[-75.05697,5.44479],[-75.0552,5.44506],[-75.05541,5.4442],[-75.05528,5.44353],[-75.05478,5.44331],[-75.05384,5.44367],[-75.05292,5.44333],[-75.05265,5.44172],[-75.05247,5.44121],[-75.052,5.44064],[-75.05198,5.44038],[-75.05236,5.43966],[-75.05222,5.43878],[-75.0518,5.43864],[-75.05022,5.43882],[-75.04988,5.43823],[-75.04959,5.43694],[-75.04928,5.43701],[-75.04914,5.43661],[-75.04806,5.43561],[-75.04778,5.43444],[-75.04671,5.43334],[-75.04689,5.43275],[-75.04685,5.43176],[-75.04554,5.42853],[-75.04525,5.42855],[-75.04457,5.42937],[-75.0443,5.42937],[-75.04352,5.42868],[-75.04317,5.42865],[-75.04248,5.42869],[-75.04188,5.42916],[-75.04136,5.42917],[-75.04126,5.42939],[-75.04047,5.42901],[-75.04063,5.43038],[-75.04,5.43058],[-75.03946,5.42776],[-75.03912,5.4273],[-75.03827,5.42702],[-75.03817,5.43021],[-75.03697,5.42964],[-75.03703,5.42764],[-75.0365,5.42445],[-75.0366,5.42183],[-75.03645,5.42116],[-75.03578,5.42139],[-75.03534,5.42205],[-75.03489,5.42228],[-75.03454,5.42043],[-75.03403,5.41987],[-75.03342,5.42052],[-75.03217,5.42338],[-75.0311,5.42529],[-75.03075,5.42555],[-75.03045,5.42522],[-75.03086,5.42277],[-75.03169,5.42204],[-75.03172,5.42176],[-75.03244,5.42104],[-75.03272,5.42025],[-75.0325,5.41866],[-75.03389,5.41634],[-75.03391,5.41555],[-75.03347,5.41323],[-75.03381,5.4122],[-75.0333,5.4111],[-75.03352,5.40856],[-75.03506,5.40479],[-75.03514,5.40575],[-75.03678,5.4019],[-75.03679,5.40153],[-75.03544,5.39766],[-75.03468,5.39633],[-75.03491,5.39605],[-75.03499,5.3964],[-75.0355,5.39582],[-75.03618,5.39674],[-75.03619,5.3961],[-75.03577,5.3943],[-75.03584,5.39283],[-75.03562,5.39166],[-75.03481,5.38921],[-75.0338,5.38746],[-75.03405,5.38682],[-75.03368,5.38521],[-75.03303,5.38432],[-75.03261,5.38404],[-75.03188,5.38146],[-75.03317,5.38208],[-75.03254,5.37867],[-75.03223,5.37778],[-75.03071,5.37629],[-75.02914,5.37511],[-75.02766,5.37458],[-75.02612,5.37439],[-75.02538,5.37526],[-75.02524,5.37608],[-75.02533,5.37697],[-75.02574,5.37762],[-75.02922,5.37819],[-75.02977,5.37846],[-75.03048,5.37913],[-75.0301,5.37967],[-75.02981,5.38095],[-75.02892,5.37887],[-75.02897,5.38059],[-75.03206,5.39464],[-75.03061,5.39557],[-75.02778,5.39793],[-75.0273,5.39978],[-75.02683,5.39974],[-75.02554,5.39904],[-75.02545,5.39692],[-75.02482,5.39653],[-75.02387,5.39716],[-75.02315,5.39725],[-75.02229,5.3977],[-75.02101,5.39744],[-75.02003,5.39763],[-75.0188,5.39735],[-75.01775,5.39738],[-75.01519,5.39807],[-75.01434,5.39855],[-75.01523,5.39864],[-75.01649,5.39827],[-75.01726,5.39847],[-75.01776,5.39784],[-75.01837,5.39774],[-75.01882,5.39781],[-75.01962,5.39836],[-75.01993,5.39807],[-75.02123,5.39815],[-75.0209,5.39902],[-75.021,5.39923],[-75.02053,5.3996],[-75.02056,5.40067],[-75.01898,5.40044],[-75.01881,5.4009],[-75.01955,5.40152],[-75.01934,5.40245],[-75.0192,5.40246],[-75.01926,5.40273],[-75.01987,5.40281],[-75.01999,5.40305],[-75.01965,5.40384],[-75.02038,5.40474],[-75.02069,5.40479],[-75.02104,5.4046],[-75.02118,5.4054],[-75.02174,5.40526],[-75.022,5.40489],[-75.02216,5.40529],[-75.02196,5.40558],[-75.02204,5.40609],[-75.02175,5.40649],[-75.02205,5.40678],[-75.02202,5.40701],[-75.0224,5.40697],[-75.02251,5.40738],[-75.02232,5.40778],[-75.02114,5.40864],[-75.02141,5.40915],[-75.021,5.40964],[-75.021,5.41058],[-75.02038,5.41079],[-75.01978,5.41026],[-75.01923,5.41014],[-75.01957,5.40914],[-75.01921,5.40836],[-75.01883,5.40813],[-75.01826,5.40826],[-75.0173,5.40809],[-75.0164,5.40895],[-75.01582,5.40896],[-75.01458,5.40951],[-75.01333,5.40938],[-75.0124,5.40908],[-75.0114,5.40839],[-75.01137,5.40873],[-75.0114,5.40787],[-75.01093,5.40725],[-75.01064,5.40572],[-75.01025,5.40513],[-75.01003,5.40433],[-75.01014,5.40318],[-75.01044,5.40296],[-75.01037,5.40268],[-75.01138,5.40175],[-75.01172,5.39994],[-75.01165,5.39817],[-75.01083,5.39778],[-75.00941,5.39663],[-75.00812,5.39668],[-75.00806,5.39619],[-75.00894,5.39263],[-75.00895,5.39054],[-75.00834,5.3889],[-75.00823,5.38776],[-75.00894,5.38749],[-75.00998,5.38753],[-75.01095,5.38673],[-75.01198,5.38745],[-75.01282,5.38839],[-75.01315,5.38944],[-75.01336,5.38937],[-75.01353,5.38886],[-75.01331,5.38731],[-75.01158,5.38632],[-75.01224,5.38611],[-75.01219,5.38488],[-75.01351,5.38417],[-75.01495,5.38517],[-75.01661,5.38902],[-75.01724,5.38954],[-75.01702,5.38711],[-75.01616,5.38504],[-75.01808,5.3836],[-75.01906,5.38599],[-75.01968,5.38876],[-75.02015,5.3878],[-75.02043,5.38805],[-75.02057,5.38778],[-75.01979,5.38499],[-75.01864,5.38265],[-75.01888,5.38111],[-75.01957,5.3793],[-75.02138,5.37714],[-75.02166,5.37222],[-75.02225,5.37111],[-75.02223,5.36916],[-75.02191,5.36856],[-75.02197,5.36701],[-75.02389,5.36473],[-75.02416,5.36333],[-75.02481,5.36239],[-75.02643,5.36089],[-75.02765,5.36056],[-75.02814,5.36261],[-75.02866,5.36309],[-75.03081,5.36307],[-75.03169,5.36276],[-75.03525,5.3628],[-75.03786,5.36212],[-75.0406,5.35974],[-75.04185,5.35959],[-75.0409,5.36047],[-75.03884,5.36289],[-75.03837,5.36379],[-75.03913,5.36327],[-75.03966,5.36314],[-75.03968,5.36341],[-75.03998,5.36323],[-75.04361,5.36062],[-75.0442,5.35996],[-75.04583,5.36139],[-75.04778,5.36249],[-75.04824,5.36299],[-75.04767,5.36681],[-75.04882,5.36831],[-75.04823,5.36999],[-75.04748,5.3714],[-75.04755,5.37314],[-75.04915,5.37478],[-75.05189,5.37476],[-75.0525,5.37444],[-75.05281,5.37445],[-75.05333,5.37501],[-75.05501,5.37527],[-75.05552,5.37583],[-75.05733,5.37643],[-75.06007,5.37633],[-75.06214,5.37775],[-75.06416,5.37722],[-75.06874,5.37769],[-75.07076,5.37716],[-75.07273,5.37816],[-75.07313,5.37942],[-75.07592,5.37986],[-75.07694,5.37916],[-75.07948,5.37796],[-75.08189,5.37876],[-75.08543,5.37953],[-75.08813,5.3822],[-75.08908,5.38235],[-75.08863,5.38341],[-75.08783,5.38451],[-75.08674,5.3876],[-75.08658,5.39236],[-75.08728,5.3951],[-75.08731,5.39636],[-75.08792,5.3984],[-75.08847,5.40371],[-75.08847,5.40483],[-75.08696,5.40898],[-75.08713,5.4146],[-75.08761,5.41627],[-75.08871,5.41883],[-75.08998,5.42121],[-75.09033,5.42258],[-75.09089,5.42384],[-75.09145,5.42712],[-75.09149,5.42913],[-75.09184,5.43068],[-75.09159,5.43301],[-75.09059,5.43671],[-75.09014,5.43801],[-75.08913,5.43954],[-75.08823,5.4422],[-75.08843,5.44494],[-75.08801,5.44718],[-75.0876,5.4526],[-75.08791,5.45699],[-75.08825,5.45881],[-75.08926,5.46215],[-75.09005,5.46561],[-75.09067,5.47001],[-75.09075,5.47324],[-75.09131,5.47798],[-75.09349,5.48451],[-75.08739,5.49808],[-75.08976,5.5046],[-75.08905,5.50506],[-75.08872,5.50496],[-75.08837,5.50521],[-75.08768,5.50525],[-75.08618,5.50634],[-75.08584,5.50584],[-75.08465,5.50563]],[[-75.08314,5.46817],[-75.0834,5.46702],[-75.08415,5.46797],[-75.08479,5.46798],[-75.08487,5.46197],[-75.08471,5.45878],[-75.08401,5.45289],[-75.08353,5.45109],[-75.0829,5.44894],[-75.0819,5.44823],[-75.0815,5.44846],[-75.08081,5.45094],[-75.08148,5.45916],[-75.08219,5.46465],[-75.08238,5.46602],[-75.08314,5.46817]],[[-75.08474,5.45207],[-75.08533,5.45181],[-75.08534,5.45125],[-75.08519,5.45045],[-75.08444,5.44899],[-75.08393,5.44928],[-75.08452,5.45068],[-75.08474,5.45207]],[[-75.08215,5.43607],[-75.08181,5.43619],[-75.08174,5.43708],[-75.08193,5.43973],[-75.08214,5.44021],[-75.08254,5.4403],[-75.08302,5.43993],[-75.08276,5.43819],[-75.08215,5.43607]],[[-75.09036,5.43444],[-75.09005,5.43197],[-75.08979,5.43194],[-75.08962,5.43215],[-75.08972,5.43429],[-75.09012,5.4347],[-75.09036,5.43444]],[[-75.0641,5.4325],[-75.06339,5.43006],[-75.06102,5.4239],[-75.0607,5.42223],[-75.05978,5.42305],[-75.05924,5.42218],[-75.05926,5.42389],[-75.05952,5.42574],[-75.06059,5.43065],[-75.06118,5.43149],[-75.06261,5.4324],[-75.06325,5.43407],[-75.06365,5.43381],[-75.06396,5.43472],[-75.06425,5.4344],[-75.06451,5.43473],[-75.0641,5.4325]],[[-75.04758,5.42961],[-75.04801,5.42943],[-75.04907,5.4295],[-75.0499,5.42903],[-75.05034,5.42848],[-75.05056,5.42781],[-75.05065,5.42455],[-75.05022,5.42422],[-75.04966,5.42464],[-75.04899,5.42479],[-75.0485,5.4235],[-75.04803,5.42349],[-75.04754,5.42367],[-75.04735,5.42399],[-75.04706,5.42398],[-75.04672,5.42323],[-75.04646,5.42314],[-75.04619,5.4233],[-75.04589,5.42402],[-75.04474,5.42421],[-75.04452,5.42448],[-75.04454,5.42493],[-75.04627,5.42635],[-75.04673,5.42778],[-75.04682,5.42885],[-75.04721,5.42949],[-75.04758,5.42961]],[[-75.09048,5.43187],[-75.09059,5.43316],[-75.09088,5.43378],[-75.09102,5.43319],[-75.0908,5.43169],[-75.09059,5.43155],[-75.09048,5.43187]],[[-75.06541,5.41789],[-75.06526,5.41656],[-75.06551,5.41646],[-75.06627,5.41674],[-75.0667,5.41673],[-75.06664,5.4158],[-75.06741,5.41596],[-75.06807,5.41653],[-75.07061,5.41689],[-75.07105,5.41557],[-75.07212,5.41479],[-75.07251,5.41416],[-75.0726,5.41344],[-75.07209,5.41294],[-75.07161,5.41294],[-75.07045,5.41396],[-75.07039,5.41423],[-75.07078,5.41518],[-75.07028,5.41581],[-75.06998,5.41566],[-75.06977,5.4153],[-75.06986,5.41509],[-75.06953,5.41465],[-75.06953,5.41405],[-75.06985,5.41363],[-75.06976,5.41336],[-75.06887,5.41369],[-75.06866,5.4142],[-75.06881,5.41462],[-75.06869,5.41584],[-75.06825,5.41629],[-75.0681,5.41468],[-75.0678,5.41396],[-75.06765,5.41385],[-75.06778,5.41444],[-75.06765,5.41468],[-75.06744,5.41468],[-75.06702,5.41411],[-75.06606,5.41406],[-75.06617,5.41355],[-75.06802,5.41286],[-75.06802,5.41163],[-75.06826,5.41115],[-75.06816,5.41102],[-75.06746,5.41111],[-75.06709,5.41151],[-75.06607,5.4116],[-75.06606,5.41243],[-75.06477,5.41273],[-75.06431,5.41202],[-75.06367,5.41188],[-75.06317,5.41147],[-75.06327,5.41046],[-75.06303,5.41003],[-75.0626,5.41031],[-75.06191,5.41025],[-75.06188,5.41065],[-75.06226,5.41154],[-75.06196,5.41244],[-75.06208,5.41274],[-75.06269,5.41317],[-75.06271,5.41368],[-75.06227,5.41426],[-75.06229,5.41472],[-75.06311,5.41527],[-75.06307,5.41585],[-75.06288,5.41615],[-75.06314,5.41652],[-75.06359,5.41667],[-75.06377,5.41704],[-75.06354,5.41781],[-75.06323,5.41804],[-75.06297,5.41782],[-75.0629,5.41729],[-75.06254,5.41668],[-75.06204,5.41661],[-75.06179,5.41696],[-75.06183,5.41754],[-75.06201,5.41793],[-75.06276,5.41857],[-75.06336,5.41982],[-75.06453,5.41996],[-75.06477,5.41965],[-75.06477,5.41951],[-75.06427,5.41929],[-75.06409,5.41886],[-75.0643,5.41861],[-75.06516,5.41832],[-75.06541,5.41789]],[[-75.06868,5.39787],[-75.06732,5.39472],[-75.067,5.39304],[-75.06661,5.39244],[-75.06635,5.39244],[-75.06622,5.39372],[-75.06724,5.39646],[-75.06748,5.39815],[-75.06754,5.4005],[-75.0682,5.40275],[-75.06812,5.40107],[-75.06868,5.39787]],[[-75.07533,5.39302],[-75.07576,5.39583],[-75.07589,5.38956],[-75.0757,5.38849],[-75.07467,5.38617],[-75.07453,5.38676],[-75.07465,5.38756],[-75.07427,5.38988],[-75.07533,5.39302]],[[-75.03864,5.38639],[-75.03896,5.38621],[-75.0392,5.38635],[-75.03839,5.38067],[-75.03785,5.37903],[-75.0377,5.37735],[-75.03749,5.377],[-75.03705,5.37771],[-75.03682,5.37896],[-75.03699,5.38118],[-75.03832,5.38628],[-75.03864,5.38639]]]]},"properties":{"nombre":"Filita  y cuarzo filita grafitosa","codigo":"TRes","simbolo":"T-Mbg3","area_ha":6854.5064}},{"type":"Feature","id":2,"geometry":{"type":"MultiPolygon","coordinates":[[[[-75.00702,5.38823],[-75.00823,5.38776],[-75.00834,5.3889],[-75.00895,5.39054],[-75.00894,5.39263],[-75.00806,5.39619],[-75.00812,5.39668],[-75.00577,5.3943],[-75.00528,5.3934],[-75.00687,5.39132],[-75.00633,5.38924],[-75.00702,5.38823]]],[[[-75.00998,5.40577],[-75.01003,5.40456],[-75.01064,5.40572],[-75.01093,5.40725],[-75.00998,5.40577]]],[[[-75.01135,5.40909],[-75.01136,5.40903],[-75.01136,5.40909],[-75.01135,5.40909]]],[[[-75.01118,5.41581],[-75.00944,5.41584],[-75.00904,5.4154],[-75.01084,5.41278],[-75.01111,5.41111],[-75.01133,5.41068],[-75.01106,5.41143],[-75.01132,5.41151],[-75.0114,5.41436],[-75.01118,5.41581]]]]},"properties":{"nombre":"Complejo igneo de Samaná","codigo":"Kds","simbolo":"K1-Pm","area_ha":30.1382}},{"type":"Feature","id":3,"geometry":{"type":"Polygon","coordinates":[[[-75.08126,5.4494],[-75.08155,5.44945],[-75.08213,5.45024],[-75.08299,5.451],[-75.08253,5.45327],[-75.08268,5.45521],[-75.08308,5.45621],[-75.08279,5.45832],[-75.08468,5.46171],[-75.08461,5.46277],[-75.08488,5.46455],[-75.08424,5.46548],[-75.08451,5.4671],[-75.08438,5.468],[-75.08415,5.46797],[-75.0834,5.46702],[-75.08314,5.46817],[-75.08238,5.46602],[-75.08148,5.45916],[-75.08081,5.45094],[-75.08126,5.4494]]]},"properties":{"nombre":"Cuarcita y cuarcita biotitca-feldespatica","codigo":"TRnq","simbolo":"T-Mbg3","area_ha":43.0086}},{"type":"Feature","id":4,"geometry":{"type":"Polygon","coordinates":[[[-75.05776,5.45325],[-75.05744,5.45161],[-75.05751,5.44998],[-75.05637,5.44892],[-75.0564,5.4483],[-75.05556,5.44666],[-75.05466,5.44604],[-75.05378,5.44417],[-75.05244,5.44331],[-75.05088,5.44162],[-75.05056,5.44027],[-75.04972,5.43917],[-75.04928,5.43701],[-75.04959,5.43694],[-75.04988,5.43823],[-75.05022,5.43882],[-75.0518,5.43864],[-75.05222,5.43878],[-75.05236,5.43966],[-75.05198,5.44038],[-75.052,5.44064],[-75.05247,5.44121],[-75.05265,5.44172],[-75.05292,5.44333],[-75.05384,5.44367],[-75.05478,5.44331],[-75.05528,5.44353],[-75.05541,5.4442],[-75.0552,5.44506],[-75.05697,5.44479],[-75.05728,5.44541],[-75.05799,5.44582],[-75.05798,5.44609],[-75.05731,5.44691],[-75.05708,5.44747],[-75.05713,5.44784],[-75.05747,5.44806],[-75.0576,5.44852],[-75.0585,5.44853],[-75.05863,5.44867],[-75.05873,5.4491],[-75.05841,5.45102],[-75.05952,5.45139],[-75.06047,5.45014],[-75.06109,5.45002],[-75.06093,5.45026],[-75.06118,5.45125],[-75.06094,5.45259],[-75.06051,5.45298],[-75.05954,5.45344],[-75.05863,5.45359],[-75.05776,5.45325]]]},"properties":{"nombre":"Depositos piroclasticos y glaciofluviales","codigo":"Qto","simbolo":"Q-p","area_ha":37.1053}},{"type":"Feature","id":5,"geometry":{"type":"Polygon","coordinates":[[[-75.08399,5.44917],[-75.08444,5.44899],[-75.08468,5.44924],[-75.08529,5.45096],[-75.08533,5.45181],[-75.08485,5.45207],[-75.08458,5.45178],[-75.08452,5.45068],[-75.08398,5.44955],[-75.08399,5.44917]]]},"properties":{"nombre":"Cuarcita y cuarcita biotitca-feldespatica","codigo":"TRnq","simbolo":"T-Mbg3","area_ha":2.7234}},{"type":"Feature","id":6,"geometry":{"type":"Polygon","coordinates":[[[-75.08194,5.43941],[-75.08174,5.43708],[-75.08181,5.43619],[-75.08215,5.43607],[-75.08276,5.43819],[-75.08302,5.43993],[-75.08284,5.44007],[-75.08194,5.43941]]]},"properties":{"nombre":"Cuarcita y cuarcita biotitca-feldespatica","codigo":"TRnq","simbolo":"T-Mbg3","area_ha":3.734}},{"type":"Feature","id":7,"geometry":{"type":"Polygon","coordinates":[[[-75.0309,5.42555],[-75.03217,5.42338],[-75.03342,5.42052],[-75.03403,5.41987],[-75.03454,5.42043],[-75.03489,5.42228],[-75.03534,5.42205],[-75.03578,5.42139],[-75.03645,5.42116],[-75.0366,5.42183],[-75.0365,5.42445],[-75.03703,5.42764],[-75.03697,5.42964],[-75.03511,5.42879],[-75.03434,5.4276],[-75.03328,5.42692],[-75.0323,5.42586],[-75.03162,5.42554],[-75.0309,5.42555]]]},"properties":{"nombre":"Esquisto Verde, Albita, Epidota, Clorita","codigo":"TRev","simbolo":"T-Mbg3","area_ha":38.5025}},{"type":"Feature","id":8,"geometry":{"type":"MultiPolygon","coordinates":[[[[-75.04047,5.42901],[-75.04126,5.42939],[-75.04084,5.43028],[-75.04063,5.43038],[-75.04047,5.42901]]],[[[-75.04329,5.42949],[-75.04188,5.42916],[-75.04248,5.42869],[-75.04317,5.42865],[-75.04352,5.42868],[-75.0443,5.42937],[-75.04457,5.42937],[-75.04525,5.42855],[-75.04554,5.42853],[-75.04685,5.43176],[-75.04674,5.43331],[-75.04649,5.4331],[-75.04612,5.43194],[-75.04498,5.43137],[-75.04502,5.43056],[-75.04329,5.42949]]]]},"properties":{"nombre":"Depositos piroclasticos y glaciofluviales","codigo":"Qto","simbolo":"Q-p","area_ha":9.5119}},{"type":"Feature","id":9,"geometry":{"type":"Polygon","coordinates":[[[-75.03817,5.43021],[-75.03818,5.42779],[-75.03827,5.42702],[-75.03912,5.4273],[-75.03946,5.42776],[-75.04,5.43058],[-75.03877,5.43053],[-75.03817,5.43021]]]},"properties":{"nombre":"Esquisto Verde, Albita, Epidota, Clorita","codigo":"TRev","simbolo":"T-Mbg3","area_ha":6.0165}},{"type":"Feature","id":10,"geometry":{"type":"Polygon","coordinates":[[[-75.08972,5.43429],[-75.08962,5.43215],[-75.08979,5.43194],[-75.09005,5.43197],[-75.09042,5.43425],[-75.09012,5.4347],[-75.08972,5.43429]]]},"properties":{"nombre":"Cuarcita y cuarcita biotitca-feldespatica","codigo":"TRnq","simbolo":"T-Mbg3","area_ha":1.7405}},{"type":"Feature","id":11,"geometry":{"type":"Polygon","coordinates":[[[-75.06451,5.43473],[-75.06425,5.4344],[-75.06396,5.43472],[-75.06365,5.43381],[-75.06325,5.43407],[-75.06261,5.4324],[-75.06118,5.43149],[-75.06059,5.43065],[-75.05952,5.42574],[-75.05926,5.42389],[-75.05924,5.42218],[-75.05978,5.42305],[-75.0607,5.42223],[-75.06102,5.4239],[-75.0639,5.43167],[-75.06451,5.43473]]]},"properties":{"nombre":"Cuarcita y cuarcita biotitca-feldespatica","codigo":"TRnq","simbolo":"T-Mbg3","area_ha":30.6743}},{"type":"Feature","id":12,"geometry":{"type":"Polygon","coordinates":[[[-75.09048,5.43187],[-75.09059,5.43155],[-75.0908,5.43169],[-75.09102,5.43319],[-75.09088,5.43378],[-75.09059,5.43316],[-75.09048,5.43187]]]},"properties":{"nombre":"Cuarcita y cuarcita biotitca-feldespatica","codigo":"TRnq","simbolo":"T-Mbg3","area_ha":0.8415}},{"type":"Feature","id":13,"geometry":{"type":"Polygon","coordinates":[[[-75.04721,5.42949],[-75.04682,5.42885],[-75.04673,5.42778],[-75.04627,5.42635],[-75.04454,5.42493],[-75.04452,5.42448],[-75.04474,5.42421],[-75.04589,5.42402],[-75.04619,5.4233],[-75.04646,5.42314],[-75.04672,5.42323],[-75.04706,5.42398],[-75.04735,5.42399],[-75.04754,5.42367],[-75.04803,5.42349],[-75.0485,5.4235],[-75.04899,5.42479],[-75.04966,5.42464],[-75.05022,5.42422],[-75.05065,5.42455],[-75.05056,5.42781],[-75.05034,5.42848],[-75.0499,5.42903],[-75.04907,5.4295],[-75.04801,5.42943],[-75.04758,5.42961],[-75.04721,5.42949]]]},"properties":{"nombre":"Depositos piroclasticos y glaciofluviales","codigo":"Qto","simbolo":"Q-p","area_ha":30.0366}},{"type":"Feature","id":14,"geometry":{"type":"Polygon","coordinates":[[[-75.10463,5.42385],[-75.10362,5.42353],[-75.10276,5.4224],[-75.10287,5.422],[-75.10325,5.42168],[-75.10424,5.42146],[-75.10524,5.42089],[-75.10662,5.42086],[-75.10836,5.42054],[-75.1087,5.4207],[-75.10909,5.42159],[-75.10964,5.42184],[-75.10958,5.42252],[-75.10896,5.4226],[-75.10886,5.42275],[-75.10918,5.42387],[-75.10897,5.42402],[-75.1079,5.42382],[-75.10729,5.42394],[-75.10642,5.42497],[-75.1061,5.42505],[-75.10463,5.42385]]]},"properties":{"nombre":"Depositos piroclasticos y glaciofluviales","codigo":"Qto","simbolo":"Q-p","area_ha":23.6525}},{"type":"Feature","id":15,"geometry":{"type":"Polygon","coordinates":[[[-75.06276,5.41857],[-75.06194,5.41783],[-75.06179,5.41696],[-75.06204,5.41661],[-75.06254,5.41668],[-75.0629,5.41729],[-75.06297,5.41782],[-75.06323,5.41804],[-75.06354,5.41781],[-75.06377,5.41704],[-75.06359,5.41667],[-75.06314,5.41652],[-75.06288,5.41615],[-75.06307,5.41585],[-75.06311,5.41527],[-75.06229,5.41472],[-75.06227,5.41426],[-75.06271,5.41368],[-75.06269,5.41317],[-75.06208,5.41274],[-75.06196,5.41244],[-75.06226,5.41154],[-75.06188,5.41065],[-75.06191,5.41025],[-75.0626,5.41031],[-75.06303,5.41003],[-75.06327,5.41046],[-75.06317,5.41147],[-75.06367,5.41188],[-75.06431,5.41202],[-75.06477,5.41273],[-75.06606,5.41243],[-75.06607,5.4116],[-75.06709,5.41151],[-75.06746,5.41111],[-75.06816,5.41102],[-75.06826,5.41115],[-75.06802,5.41163],[-75.06802,5.41286],[-75.06617,5.41355],[-75.06606,5.41406],[-75.06702,5.41411],[-75.06744,5.41468],[-75.06765,5.41468],[-75.06778,5.41444],[-75.06765,5.41385],[-75.0678,5.41396],[-75.0681,5.41468],[-75.06825,5.41629],[-75.06869,5.41584],[-75.06881,5.41462],[-75.06866,5.4142],[-75.06887,5.41369],[-75.06976,5.41336],[-75.06985,5.41363],[-75.06953,5.41405],[-75.06953,5.41465],[-75.06986,5.41509],[-75.06977,5.4153],[-75.06998,5.41566],[-75.07028,5.41581],[-75.07078,5.41518],[-75.07039,5.41423],[-75.07045,5.41396],[-75.07161,5.41294],[-75.07209,5.41294],[-75.0726,5.41344],[-75.07251,5.41416],[-75.07212,5.41479],[-75.07105,5.41557],[-75.07061,5.41689],[-75.06807,5.41653],[-75.06741,5.41596],[-75.06664,5.4158],[-75.0667,5.41673],[-75.06627,5.41674],[-75.06551,5.41646],[-75.06526,5.41656],[-75.06541,5.41789],[-75.06516,5.41832],[-75.0643,5.41861],[-75.06409,5.41886],[-75.06427,5.41929],[-75.06477,5.41951],[-75.06453,5.41996],[-75.06336,5.41982],[-75.06276,5.41857]]]},"properties":{"nombre":"Depositos piroclasticos y glaciofluviales","codigo":"Qto","simbolo":"Q-p","area_ha":49.4877}},{"type":"Feature","id":16,"geometry":{"type":"Polygon","coordinates":[[[-75.0273,5.39978],[-75.02758,5.39843],[-75.0281,5.39761],[-75.03061,5.39557],[-75.03206,5.39464],[-75.03291,5.39479],[-75.03417,5.39564],[-75.03485,5.39656],[-75.03544,5.39766],[-75.03679,5.40153],[-75.03678,5.4019],[-75.03514,5.40575],[-75.03506,5.40466],[-75.0349,5.4046],[-75.03428,5.4052],[-75.03378,5.40514],[-75.034,5.40613],[-75.03392,5.40634],[-75.03336,5.40647],[-75.03335,5.40684],[-75.03364,5.40709],[-75.03352,5.40773],[-75.03259,5.40792],[-75.03163,5.40948],[-75.03067,5.40939],[-75.02928,5.41182],[-75.02879,5.41205],[-75.02723,5.4116],[-75.02655,5.41102],[-75.02609,5.41005],[-75.0261,5.40936],[-75.02584,5.40882],[-75.0259,5.40813],[-75.02724,5.40484],[-75.02808,5.40378],[-75.02824,5.40224],[-75.02969,5.40141],[-75.03212,5.40049],[-75.03197,5.40009],[-75.03096,5.39999],[-75.03224,5.39944],[-75.03287,5.39824],[-75.03343,5.39761],[-75.03331,5.39612],[-75.03317,5.3959],[-75.03292,5.39635],[-75.03236,5.39641],[-75.03159,5.39796],[-75.02985,5.39852],[-75.02938,5.3992],[-75.02876,5.39941],[-75.02823,5.39997],[-75.0278,5.39975],[-75.0273,5.39978]]]},"properties":{"nombre":"Stock de florencia","codigo":"Tcdf","simbolo":"E1-Pm","area_ha":121.5448}},{"type":"Feature","id":17,"geometry":{"type":"MultiPolygon","coordinates":[[[[-75.00997,5.40305],[-75.01037,5.40268],[-75.01044,5.40296],[-75.01014,5.40318],[-75.00998,5.40577],[-75.00997,5.40305]]],[[[-75.01077,5.40704],[-75.01047,5.40665],[-75.0108,5.40696],[-75.01077,5.40704]]]]},"properties":{"nombre":"Depositos piroclasticos y glaciofluviales","codigo":"Qto","simbolo":"Q-p","area_ha":0.4248}},{"type":"Feature","id":18,"geometry":{"type":"Polygon","coordinates":[[[-75.06622,5.39372],[-75.06635,5.39244],[-75.06661,5.39244],[-75.06685,5.39269],[-75.06732,5.39472],[-75.06868,5.39787],[-75.06812,5.40107],[-75.0682,5.40275],[-75.06754,5.4005],[-75.06748,5.39815],[-75.06724,5.39646],[-75.06622,5.39372]]]},"properties":{"nombre":"Cuarcita y cuarcita biotitca-feldespatica","codigo":"TRnq","simbolo":"T-Mbg3","area_ha":9.5339}},{"type":"Feature","id":19,"geometry":{"type":"Polygon","coordinates":[[[-75.03468,5.39633],[-75.03417,5.39564],[-75.03291,5.39479],[-75.03206,5.39464],[-75.02911,5.38147],[-75.02892,5.37887],[-75.02981,5.38095],[-75.0301,5.37967],[-75.03048,5.37913],[-75.03139,5.38031],[-75.03261,5.38404],[-75.03191,5.38432],[-75.03161,5.38507],[-75.03185,5.38617],[-75.03127,5.38776],[-75.03145,5.38816],[-75.0325,5.38882],[-75.03337,5.38817],[-75.0338,5.38746],[-75.03453,5.38856],[-75.0353,5.39034],[-75.03584,5.39283],[-75.03577,5.3943],[-75.03619,5.3961],[-75.03618,5.39674],[-75.0355,5.39582],[-75.03499,5.3964],[-75.03491,5.39605],[-75.03468,5.39633]]]},"properties":{"nombre":"Cuarcita y cuarcita biotitca-feldespatica","codigo":"TRnq","simbolo":"T-Mbg3","area_ha":57.6516}},{"type":"Feature","id":20,"geometry":{"type":"Polygon","coordinates":[[[-75.07453,5.38676],[-75.07467,5.38617],[-75.0757,5.38849],[-75.07589,5.38956],[-75.07576,5.39583],[-75.07533,5.39302],[-75.07427,5.38988],[-75.07465,5.38756],[-75.07453,5.38676]]]},"properties":{"nombre":"Cuarcita y cuarcita biotitca-feldespatica","codigo":"TRnq","simbolo":"T-Mbg3","area_ha":9.6631}},{"type":"Feature","id":21,"geometry":{"type":"Polygon","coordinates":[[[-75.09642,5.38475],[-75.09906,5.38643],[-75.09949,5.38698],[-75.10213,5.38927],[-75.1028,5.39208],[-75.10449,5.39308],[-75.10422,5.3935],[-75.10293,5.39302],[-75.09624,5.38679],[-75.09595,5.38537],[-75.09601,5.38481],[-75.09642,5.38475]]]},"properties":{"nombre":"Depositos piroclasticos y glaciofluviales","codigo":"Qto","simbolo":"Q-p","area_ha":23.5242}},{"type":"Feature","id":22,"geometry":{"type":"Polygon","coordinates":[[[-75.01495,5.38517],[-75.0155,5.38554],[-75.01616,5.38504],[-75.01702,5.38711],[-75.01724,5.38954],[-75.01661,5.38902],[-75.01495,5.38517]]]},"properties":{"nombre":"Esquisto Verde, Albita, Epidota, Clorita","codigo":"TRev","simbolo":"T-Mbg3","area_ha":5.2086}},{"type":"Feature","id":23,"geometry":{"type":"Polygon","coordinates":[[[-75.01095,5.38673],[-75.01158,5.38632],[-75.01331,5.38731],[-75.01353,5.38886],[-75.01336,5.38937],[-75.01315,5.38944],[-75.01282,5.38839],[-75.01198,5.38745],[-75.01095,5.38673]]]},"properties":{"nombre":"Cuarcita y cuarcita biotitca-feldespatica","codigo":"TRnq","simbolo":"T-Mbg3","area_ha":3.4463}},{"type":"Feature","id":24,"geometry":{"type":"Polygon","coordinates":[[[-75.03261,5.38404],[-75.03303,5.38432],[-75.03368,5.38521],[-75.03405,5.38682],[-75.03337,5.38817],[-75.0325,5.38882],[-75.03145,5.38816],[-75.03127,5.38776],[-75.03185,5.38617],[-75.03161,5.38507],[-75.03191,5.38432],[-75.03261,5.38404]]]},"properties":{"nombre":"Stock de florencia","codigo":"Tcdf","simbolo":"E1-Pm","area_ha":10.7808}},{"type":"Feature","id":25,"geometry":{"type":"Polygon","coordinates":[[[-75.01808,5.3836],[-75.01857,5.38307],[-75.01864,5.38265],[-75.01979,5.38499],[-75.02057,5.38778],[-75.02043,5.38805],[-75.02015,5.3878],[-75.01968,5.38876],[-75.01906,5.38599],[-75.01808,5.3836]]]},"properties":{"nombre":"Esquisto Verde, Albita, Epidota, Clorita","codigo":"TRev","simbolo":"T-Mbg3","area_ha":6.5169}},{"type":"Feature","id":26,"geometry":{"type":"Polygon","coordinates":[[[-75.03832,5.38628],[-75.03699,5.38118],[-75.03682,5.37896],[-75.03705,5.37771],[-75.03749,5.377],[-75.0377,5.37735],[-75.03785,5.37903],[-75.03839,5.38067],[-75.0392,5.38635],[-75.03896,5.38621],[-75.03864,5.38639],[-75.03832,5.38628]]]},"properties":{"nombre":"Cuarcita y cuarcita biotitca-feldespatica","codigo":"TRnq","simbolo":"T-Mbg3","area_ha":11.9507}},{"type":"Feature","id":27,"geometry":{"type":"Polygon","coordinates":[[[-75.03188,5.38146],[-75.03139,5.38031],[-75.02977,5.37846],[-75.02922,5.37819],[-75.02574,5.37762],[-75.02533,5.37697],[-75.02524,5.37608],[-75.02538,5.37526],[-75.02612,5.37439],[-75.02766,5.37458],[-75.02914,5.37511],[-75.03071,5.37629],[-75.03223,5.37778],[-75.03303,5.38084],[-75.03317,5.38208],[-75.03188,5.38146]]]},"properties":{"nombre":"Stock de florencia","codigo":"Tcdf","simbolo":"E1-Pm","area_ha":30.0699}},{"type":"Feature","id":28,"geometry":{"type":"Polygon","coordinates":[[[-75.04185,5.35959],[-75.04306,5.35945],[-75.04319,5.35931],[-75.04362,5.35944],[-75.0442,5.35996],[-75.04361,5.36062],[-75.03998,5.36323],[-75.03968,5.36341],[-75.03966,5.36314],[-75.03913,5.36327],[-75.03837,5.36379],[-75.03884,5.36289],[-75.0409,5.36047],[-75.04185,5.35959]]]},"properties":{"nombre":"Cuarcita y cuarcita biotitca-feldespatica","codigo":"TRnq","simbolo":"T-Mbg3","area_ha":10.4018}},{"type":"Feature","id":29,"geometry":{"type":"MultiPolygon","coordinates":[[[[-75.10017,5.38758],[-75.09906,5.38643],[-75.10054,5.38779],[-75.10017,5.38758]]],[[[-75.08974,5.5046],[-75.08739,5.49808],[-75.09349,5.48451],[-75.09131,5.47798],[-75.09075,5.47324],[-75.09067,5.47001],[-75.09005,5.46561],[-75.08926,5.46215],[-75.08825,5.45881],[-75.08791,5.45699],[-75.0876,5.4526],[-75.08801,5.44718],[-75.08843,5.44494],[-75.08823,5.4422],[-75.08913,5.43954],[-75.09014,5.43801],[-75.09059,5.43671],[-75.09159,5.43301],[-75.09184,5.43068],[-75.09149,5.42913],[-75.09145,5.42712],[-75.09089,5.42384],[-75.09033,5.42258],[-75.08998,5.42121],[-75.08871,5.41883],[-75.08761,5.41627],[-75.08713,5.4146],[-75.08696,5.40898],[-75.08847,5.40483],[-75.08847,5.40371],[-75.08792,5.3984],[-75.08731,5.39636],[-75.08728,5.3951],[-75.08658,5.39236],[-75.08674,5.3876],[-75.08783,5.38451],[-75.08863,5.38341],[-75.08908,5.38235],[-75.09001,5.38249],[-75.09251,5.38333],[-75.09333,5.38377],[-75.09441,5.3832],[-75.09594,5.38425],[-75.09642,5.38475],[-75.09601,5.38481],[-75.09595,5.38537],[-75.09624,5.38679],[-75.10293,5.39302],[-75.10422,5.3935],[-75.10455,5.39313],[-75.10573,5.3943],[-75.10612,5.39678],[-75.10735,5.39757],[-75.10872,5.39932],[-75.11058,5.40104],[-75.11222,5.40445],[-75.11606,5.40611],[-75.12004,5.40696],[-75.12321,5.40698],[-75.12568,5.40781],[-75.12722,5.40775],[-75.12755,5.40879],[-75.12841,5.4092],[-75.13002,5.41093],[-75.13189,5.4123],[-75.13221,5.4156],[-75.13305,5.41889],[-75.13364,5.42001],[-75.13351,5.42319],[-75.13448,5.42476],[-75.13677,5.42591],[-75.13747,5.42667],[-75.14112,5.42749],[-75.1418,5.42786],[-75.14512,5.42781],[-75.14638,5.42694],[-75.14713,5.42697],[-75.14742,5.42737],[-75.14781,5.4286],[-75.14635,5.4306],[-75.1458,5.43115],[-75.14555,5.43102],[-75.14512,5.43145],[-75.14498,5.43238],[-75.14462,5.43284],[-75.14417,5.43307],[-75.1433,5.43292],[-75.14273,5.43357],[-75.14187,5.434],[-75.1407,5.43509],[-75.14055,5.43557],[-75.13962,5.4369],[-75.13957,5.43745],[-75.13911,5.43865],[-75.13799,5.43982],[-75.13677,5.44392],[-75.1362,5.44414],[-75.13542,5.44481],[-75.13492,5.44497],[-75.13446,5.4456],[-75.13286,5.44575],[-75.13235,5.44594],[-75.13175,5.44679],[-75.13082,5.44703],[-75.13045,5.44729],[-75.12881,5.45003],[-75.12878,5.45091],[-75.12829,5.45128],[-75.12747,5.45238],[-75.12742,5.45456],[-75.12692,5.45518],[-75.12669,5.45603],[-75.12617,5.45666],[-75.12552,5.4573],[-75.12396,5.45808],[-75.12103,5.46047],[-75.12019,5.46087],[-75.12004,5.46215],[-75.11952,5.4627],[-75.11952,5.46364],[-75.11969,5.46407],[-75.1196,5.46476],[-75.11918,5.46571],[-75.11898,5.46746],[-75.11864,5.46818],[-75.11953,5.4701],[-75.11866,5.47174],[-75.11857,5.47244],[-75.11811,5.4734],[-75.1181,5.4739],[-75.1183,5.47424],[-75.11805,5.47472],[-75.11798,5.47564],[-75.11776,5.47593],[-75.11759,5.4777],[-75.11671,5.47858],[-75.11559,5.47928],[-75.11485,5.48122],[-75.11427,5.48176],[-75.11431,5.482],[-75.11372,5.48316],[-75.11203,5.48411],[-75.11128,5.48415],[-75.1102,5.48496],[-75.10992,5.48603],[-75.11029,5.48645],[-75.11032,5.48729],[-75.10948,5.48813],[-75.10887,5.48917],[-75.10831,5.48948],[-75.10827,5.49031],[-75.10791,5.49103],[-75.10704,5.49186],[-75.10694,5.4927],[-75.1071,5.49292],[-75.10666,5.49333],[-75.10671,5.49463],[-75.1058,5.49519],[-75.1041,5.49713],[-75.10394,5.4983],[-75.10313,5.4992],[-75.10148,5.49963],[-75.10015,5.50083],[-75.09926,5.50113],[-75.09786,5.50117],[-75.09724,5.50163],[-75.09719,5.50226],[-75.09695,5.50241],[-75.09642,5.50253],[-75.09257,5.50243],[-75.09185,5.50293],[-75.09091,5.50309],[-75.09046,5.50335],[-75.0903,5.50415],[-75.08974,5.5046]],[[-75.1317,5.42817],[-75.1315,5.42606],[-75.13096,5.42482],[-75.13084,5.42522],[-75.13096,5.42642],[-75.13029,5.42673],[-75.12928,5.42634],[-75.12832,5.42632],[-75.12791,5.42562],[-75.12748,5.4254],[-75.12657,5.4256],[-75.12626,5.42541],[-75.12587,5.42463],[-75.1255,5.42427],[-75.12365,5.42387],[-75.12113,5.42444],[-75.12015,5.42445],[-75.118,5.42367],[-75.11578,5.42414],[-75.11457,5.42364],[-75.11408,5.42381],[-75.11521,5.42522],[-75.11584,5.42537],[-75.11715,5.42531],[-75.11757,5.42569],[-75.11761,5.4262],[-75.11801,5.42658],[-75.11891,5.42673],[-75.11944,5.42703],[-75.11951,5.42781],[-75.12076,5.42762],[-75.12124,5.42738],[-75.12175,5.42739],[-75.12214,5.42785],[-75.12313,5.42773],[-75.12372,5.42724],[-75.12431,5.42725],[-75.12508,5.42761],[-75.12598,5.42765],[-75.1267,5.42798],[-75.12729,5.42887],[-75.12995,5.4291],[-75.13108,5.43019],[-75.13151,5.42991],[-75.13155,5.42948],[-75.1319,5.42879],[-75.1317,5.42817]],[[-75.10642,5.42497],[-75.10729,5.42394],[-75.1079,5.42382],[-75.10897,5.42402],[-75.10918,5.42387],[-75.10886,5.42275],[-75.10896,5.4226],[-75.10958,5.42252],[-75.10969,5.42203],[-75.10964,5.42184],[-75.10909,5.42159],[-75.1087,5.4207],[-75.10796,5.42053],[-75.10662,5.42086],[-75.10524,5.42089],[-75.10424,5.42146],[-75.10325,5.42168],[-75.10287,5.422],[-75.10276,5.4224],[-75.10362,5.42353],[-75.10463,5.42385],[-75.1061,5.42505],[-75.10642,5.42497]]]]},"properties":{"nombre":"Cuarcita y cuarcita biotitca-feldespatica","codigo":"TRnq","simbolo":"T-Mbg3","area_ha":4515.1618}},{"type":"Feature","id":30,"geometry":{"type":"Polygon","coordinates":[[[-75.08438,5.468],[-75.08451,5.4671],[-75.08424,5.46548],[-75.08488,5.46455],[-75.08479,5.46798],[-75.08438,5.468]]]},"properties":{"nombre":"Cuarcita y cuarcita biotitca-feldespatica","codigo":"TRnq","simbolo":"T-Mbg3","area_ha":1.7925}},{"type":"Feature","id":31,"geometry":{"type":"Polygon","coordinates":[[[-75.08126,5.4494],[-75.08158,5.4483],[-75.0819,5.44823],[-75.0829,5.44894],[-75.08401,5.45289],[-75.08471,5.45878],[-75.08489,5.46408],[-75.08462,5.46287],[-75.08466,5.46161],[-75.08279,5.45832],[-75.08308,5.45621],[-75.08268,5.45521],[-75.08253,5.45327],[-75.08299,5.451],[-75.08213,5.45024],[-75.08155,5.44945],[-75.08126,5.4494]]]},"properties":{"nombre":"Cuarcita y cuarcita biotitca-feldespatica","codigo":"TRnq","simbolo":"T-Mbg3","area_ha":21.3125}},{"type":"Feature","id":32,"geometry":{"type":"Polygon","coordinates":[[[-75.08194,5.43941],[-75.08274,5.43997],[-75.08284,5.44007],[-75.08254,5.4403],[-75.08214,5.44021],[-75.08196,5.43997],[-75.08194,5.43941]]]},"properties":{"nombre":"Cuarcita y cuarcita biotitca-feldespatica","codigo":"TRnq","simbolo":"T-Mbg3","area_ha":0.5232}},{"type":"Feature","id":33,"geometry":{"type":"Polygon","coordinates":[[[-75.02558,5.42627],[-75.02247,5.4258],[-75.02204,5.4247],[-75.02125,5.42378],[-75.02136,5.42239],[-75.02115,5.42226],[-75.0206,5.42323],[-75.02022,5.42347],[-75.01896,5.42275],[-75.01812,5.42036],[-75.01792,5.41787],[-75.01702,5.41764],[-75.01691,5.41606],[-75.0165,5.41539],[-75.01578,5.41513],[-75.01568,5.41463],[-75.0154,5.4143],[-75.01542,5.41384],[-75.01449,5.41361],[-75.01409,5.41368],[-75.01359,5.41343],[-75.0123,5.41185],[-75.01106,5.41143],[-75.01168,5.41002],[-75.01136,5.40909],[-75.0114,5.40839],[-75.0124,5.40908],[-75.01452,5.40951],[-75.01582,5.40896],[-75.0164,5.40895],[-75.0173,5.40809],[-75.01826,5.40826],[-75.01883,5.40813],[-75.01921,5.40836],[-75.01957,5.40914],[-75.01923,5.41014],[-75.01977,5.41025],[-75.02014,5.41069],[-75.02051,5.4108],[-75.02104,5.41053],[-75.021,5.40964],[-75.02141,5.40915],[-75.02115,5.40861],[-75.02232,5.40778],[-75.02251,5.40738],[-75.0224,5.40697],[-75.02202,5.40701],[-75.02205,5.40678],[-75.02175,5.40649],[-75.02209,5.40591],[-75.02195,5.4056],[-75.02216,5.40531],[-75.022,5.40489],[-75.02174,5.40526],[-75.02119,5.4054],[-75.02104,5.4046],[-75.02046,5.40477],[-75.02006,5.40437],[-75.01964,5.40381],[-75.01997,5.40321],[-75.01993,5.40287],[-75.01937,5.40284],[-75.01921,5.4026],[-75.01955,5.40152],[-75.01881,5.4009],[-75.01898,5.40044],[-75.02056,5.40067],[-75.02053,5.3996],[-75.021,5.39923],[-75.0209,5.39902],[-75.02122,5.39814],[-75.01993,5.39807],[-75.01962,5.39836],[-75.01882,5.39781],[-75.01837,5.39774],[-75.01776,5.39784],[-75.01726,5.39847],[-75.01649,5.39827],[-75.01523,5.39864],[-75.01434,5.39855],[-75.01519,5.39807],[-75.01775,5.39738],[-75.0188,5.39735],[-75.02003,5.39763],[-75.02101,5.39744],[-75.02229,5.3977],[-75.02315,5.39725],[-75.02387,5.39716],[-75.02482,5.39653],[-75.02545,5.39692],[-75.02554,5.39904],[-75.02687,5.39976],[-75.0278,5.39975],[-75.02823,5.39997],[-75.02876,5.39941],[-75.02938,5.3992],[-75.02985,5.39852],[-75.03159,5.39796],[-75.03236,5.39641],[-75.03292,5.39635],[-75.03317,5.3959],[-75.03343,5.39665],[-75.03343,5.39761],[-75.03287,5.39824],[-75.03224,5.39944],[-75.03096,5.39999],[-75.03197,5.40009],[-75.03212,5.40049],[-75.02969,5.40141],[-75.02824,5.40224],[-75.02808,5.40378],[-75.02724,5.40484],[-75.02649,5.40645],[-75.0259,5.40813],[-75.02584,5.40882],[-75.0261,5.40936],[-75.02609,5.41005],[-75.02655,5.41102],[-75.02723,5.4116],[-75.02879,5.41205],[-75.02928,5.41182],[-75.03067,5.40939],[-75.03163,5.40948],[-75.03259,5.40792],[-75.03352,5.40773],[-75.03364,5.40709],[-75.03335,5.40684],[-75.03336,5.40647],[-75.03392,5.40634],[-75.034,5.40613],[-75.03378,5.40514],[-75.03428,5.4052],[-75.0349,5.4046],[-75.03506,5.40466],[-75.03451,5.40641],[-75.03394,5.40737],[-75.03352,5.40856],[-75.0333,5.4111],[-75.03381,5.4122],[-75.03347,5.41323],[-75.03396,5.41593],[-75.03372,5.41667],[-75.0325,5.41866],[-75.03265,5.42058],[-75.03244,5.42104],[-75.03172,5.42176],[-75.03169,5.42204],[-75.03086,5.42277],[-75.03045,5.42522],[-75.02942,5.42415],[-75.02801,5.42416],[-75.02667,5.42556],[-75.02558,5.42627]]]},"properties":{"nombre":"Depositos piroclasticos y glaciofluviales","codigo":"Qto","simbolo":"Q-p","area_ha":423.2264}},{"type":"Feature","id":34,"geometry":{"type":"Polygon","coordinates":[[[-75.01133,5.41068],[-75.01147,5.41041],[-75.01133,5.41099],[-75.01133,5.41068]]]},"properties":{"nombre":"Filita  y cuarzo filita grafitosa","codigo":"TRes","simbolo":"T-Mbg3","area_ha":0.0575}},{"type":"Feature","id":35,"geometry":{"type":"Polygon","coordinates":[[[-75.13108,5.43019],[-75.12995,5.4291],[-75.12729,5.42887],[-75.1267,5.42798],[-75.12598,5.42765],[-75.12508,5.42761],[-75.12431,5.42725],[-75.12372,5.42724],[-75.12313,5.42773],[-75.12214,5.42785],[-75.12175,5.42739],[-75.12124,5.42738],[-75.12076,5.42762],[-75.11951,5.42781],[-75.11944,5.42703],[-75.11891,5.42673],[-75.11801,5.42658],[-75.11761,5.4262],[-75.11757,5.42569],[-75.11715,5.42531],[-75.11584,5.42537],[-75.11521,5.42522],[-75.11408,5.42381],[-75.11457,5.42364],[-75.11578,5.42414],[-75.118,5.42367],[-75.12015,5.42445],[-75.12113,5.42444],[-75.12365,5.42387],[-75.1255,5.42427],[-75.12587,5.42463],[-75.12626,5.42541],[-75.12657,5.4256],[-75.12748,5.4254],[-75.12791,5.42562],[-75.12832,5.42632],[-75.12928,5.42634],[-75.13029,5.42673],[-75.13096,5.42642],[-75.13084,5.42522],[-75.13096,5.42482],[-75.1315,5.42606],[-75.1316,5.42785],[-75.1319,5.42879],[-75.13155,5.42948],[-75.13151,5.42991],[-75.13127,5.43017],[-75.13108,5.43019]]]},"properties":{"nombre":"Depositos piroclasticos y glaciofluviales","codigo":"Qto","simbolo":"Q-p","area_ha":59.6983}}]}