{"type":"FeatureCollection","features":[{"type":"Feature","id":0,"geometry":{"type":"Polygon","coordinates":[[[-75.01982,5.41141],[-75.01997,5.41037],[-75.02198,5.4063],[-75.02193,5.40506],[-75.02114,5.40285],[-75.02137,5.40128],[-75.0227,5.40137],[-75.02394,5.40178],[-75.02491,5.40159],[-75.02546,5.40118],[-75.02692,5.39882],[-75.0277,5.39818],[-75.02922,5.39799],[-75.03037,5.39826],[-75.03079,5.39909],[-75.03047,5.40038],[-75.02997,5.4013],[-75.02831,5.40209],[-75.02758,5.40279],[-75.02635,5.4068],[-75.02475,5.40883],[-75.02306,5.41137],[-75.02136,5.41257],[-75.01982,5.41141]]]},"properties":{"unidad":"GRab","paisaje":"Valle","clima":"Cálido húmedo","relieve":"Plano","componente":"Asociación Guarinó - Samaná: Typic Tropoﬂuvents; Mollic Hapludolls","area_ha":79.0803}},{"type":"Feature","id":1,"geometry":{"type":"MultiPolygon","coordinates":[[[[-75.04258,5.42706],[-75.04358,5.42567],[-75.04579,5.4258],[-75.04598,5.42695],[-75.04529,5.42811],[-75.04465,5.4288],[-75.04402,5.43],[-75.04329,5.42949],[-75.04189,5.42916],[-75.04258,5.42706]]],[[[-75.03792,5.43008],[-75.03845,5.42993],[-75.0395,5.43056],[-75.03877,5.43053],[-75.03792,5.43008]]]]},"properties":{"unidad":"FRde1","paisaje":"Vertiente de montaña","clima":"Medio muy húmedo","relieve":"Fuertemente ondulado a fuertemente quebrado","componente":"Consociación Florencia: Entic Hydric Dystrandepts; Hydric Dystrandepts","area_ha":13.8598}},{"type":"Feature","id":2,"geometry":{"type":"Polygon","coordinates":[[[-75.05021,5.41179],[-75.0514,5.41033],[-75.05406,5.41036],[-75.05622,5.41072],[-75.05755,5.41039],[-75.05856,5.40984],[-75.06026,5.4085],[-75.06122,5.40812],[-75.0626,5.40817],[-75.06325,5.40872],[-75.06339,5.40978],[-75.06381,5.41093],[-75.06482,5.41111],[-75.0656,5.4106],[-75.06597,5.40963],[-75.06697,5.40802],[-75.0684,5.40847],[-75.06795,5.41073],[-75.06809,5.41202],[-75.06915,5.41299],[-75.06921,5.41465],[-75.06902,5.41571],[-75.06866,5.41668],[-75.06783,5.41782],[-75.06627,5.4182],[-75.06407,5.41904],[-75.06205,5.41912],[-75.06061,5.4178],[-75.05992,5.41652],[-75.05914,5.41578],[-75.05835,5.41468],[-75.05605,5.41358],[-75.05153,5.41244],[-75.05021,5.41179]]]},"properties":{"unidad":"FRde1","paisaje":"Vertiente de montaña","clima":"Medio muy húmedo","relieve":"Fuertemente ondulado a fuertemente quebrado","componente":"Consociación Florencia: Entic Hydric Dystrandepts; Hydric Dystrandepts","area_ha":137.1601}},{"type":"Feature","id":3,"geometry":{"type":"Polygon","coordinates":[[[-75.06416,5.37779],[-75.06526,5.37737],[-75.06664,5.37751],[-75.06765,5.3787],[-75.06885,5.37907],[-75.07032,5.3792],[-75.07143,5.37998],[-75.07052,5.38132],[-75.06886,5.3817],[-75.06707,5.38248],[-75.06543,5.38701],[-75.06332,5.38996],[-75.06204,5.39047],[-75.06121,5.39034],[-75.06056,5.38928],[-75.06061,5.38868],[-75.06189,5.38674],[-75.06225,5.38508],[-75.06275,5.38406],[-75.06349,5.38328],[-75.06399,5.38217],[-75.0637,5.37913],[-75.06416,5.37779]]]},"properties":{"unidad":"LBde1","paisaje":"Vertiente de montaña","clima":"Medio muy húmedo","relieve":"Quebrado a fuertemente quebrado","componente":"Consociación Líbano: Hidric Dystrandepts; Typic Troporthents","area_ha":65.8725}},{"type":"Feature","id":4,"geometry":{"type":"Polygon","coordinates":[[[-75.04754,5.37282],[-75.04755,5.37314],[-75.04915,5.37478],[-75.05189,5.37476],[-75.0525,5.37444],[-75.05281,5.37445],[-75.05333,5.37501],[-75.05501,5.37527],[-75.05552,5.37583],[-75.05648,5.37614],[-75.05564,5.37731],[-75.05247,5.37621],[-75.05013,5.37756],[-75.04819,5.37682],[-75.0475,5.3754],[-75.04552,5.37568],[-75.04262,5.37638],[-75.04212,5.37693],[-75.04028,5.37676],[-75.03936,5.37561],[-75.03949,5.37385],[-75.04123,5.37288],[-75.04271,5.37302],[-75.04546,5.37264],[-75.04661,5.37296],[-75.04754,5.37282]]]},"properties":{"unidad":"LBde1","paisaje":"Vertiente de montaña","clima":"Medio muy húmedo","relieve":"Quebrado a fuertemente quebrado","componente":"Consociación Líbano: Hidric Dystrandepts; Typic Troporthents","area_ha":53.626}},{"type":"Feature","id":5,"geometry":{"type":"Polygon","coordinates":[[[-75.01,5.40395],[-75.0107,5.40426],[-75.0119,5.40518],[-75.01352,5.40753],[-75.01528,5.41084],[-75.01717,5.41176],[-75.01982,5.41141],[-75.02136,5.41257],[-75.02306,5.41137],[-75.02559,5.40767],[-75.02925,5.40647],[-75.0298,5.4067],[-75.03013,5.40877],[-75.03036,5.40914],[-75.03161,5.4095],[-75.03248,5.40941],[-75.03294,5.40885],[-75.03455,5.40588],[-75.03551,5.40742],[-75.03528,5.40834],[-75.03441,5.40982],[-75.034,5.41092],[-75.0346,5.41124],[-75.03575,5.41073],[-75.03699,5.41101],[-75.03599,5.41308],[-75.03572,5.41419],[-75.03567,5.4153],[-75.03517,5.41691],[-75.03361,5.41839],[-75.03214,5.41904],[-75.03173,5.42001],[-75.03169,5.42199],[-75.03129,5.42411],[-75.03055,5.42499],[-75.03032,5.42507],[-75.02942,5.42415],[-75.02801,5.42416],[-75.02667,5.42556],[-75.02558,5.42627],[-75.0228,5.42578],[-75.02111,5.42583],[-75.02002,5.4264],[-75.01909,5.42608],[-75.01757,5.4261],[-75.01487,5.42381],[-75.01389,5.42138],[-75.01277,5.42001],[-75.01251,5.41944],[-75.01135,5.41856],[-75.01175,5.4155],[-75.01104,5.41588],[-75.00944,5.41584],[-75.00904,5.4154],[-75.01084,5.41278],[-75.01111,5.41111],[-75.01168,5.41002],[-75.01135,5.40909],[-75.0114,5.40787],[-75.01027,5.40639],[-75.00993,5.40568],[-75.01,5.40395]]]},"properties":{"unidad":"FRd1","paisaje":"Vertiente de montaña","clima":"Medio muy húmedo","relieve":"Fuertemente ondulado a fuertemente quebrado","componente":"Consociación Florencia: Entic Hydric Dystrandepts; Hydric Dystrandepts","area_ha":436.8381}},{"type":"Feature","id":6,"geometry":{"type":"Polygon","coordinates":[[[-75.01,5.40395],[-75.00997,5.40305],[-75.01138,5.40175],[-75.01172,5.39994],[-75.01165,5.39817],[-75.01083,5.39778],[-75.00941,5.39663],[-75.00804,5.39668],[-75.00577,5.3943],[-75.00528,5.3934],[-75.00687,5.39132],[-75.00633,5.38924],[-75.00702,5.38823],[-75.00894,5.38749],[-75.00998,5.38753],[-75.01138,5.38638],[-75.01224,5.38611],[-75.01219,5.38488],[-75.01351,5.38417],[-75.0155,5.38554],[-75.01783,5.38386],[-75.01857,5.38307],[-75.01888,5.38111],[-75.01957,5.3793],[-75.02138,5.37714],[-75.02166,5.37222],[-75.02225,5.37111],[-75.02223,5.36916],[-75.02191,5.36856],[-75.02197,5.36701],[-75.02389,5.36473],[-75.02416,5.36333],[-75.02481,5.36239],[-75.02643,5.36089],[-75.0272,5.36068],[-75.028,5.362],[-75.02814,5.36261],[-75.02866,5.36309],[-75.03079,5.36307],[-75.03159,5.36438],[-75.0316,5.36586],[-75.02976,5.36743],[-75.02857,5.36808],[-75.02655,5.36984],[-75.02559,5.37044],[-75.02458,5.37178],[-75.02394,5.37427],[-75.02369,5.38003],[-75.02429,5.38219],[-75.02577,5.38274],[-75.02908,5.38333],[-75.03226,5.38471],[-75.03406,5.38581],[-75.03489,5.38733],[-75.03517,5.38871],[-75.03481,5.39009],[-75.03408,5.39171],[-75.03362,5.3936],[-75.03363,5.3953],[-75.03414,5.39742],[-75.03581,5.40087],[-75.03573,5.40355],[-75.03294,5.40885],[-75.03248,5.40941],[-75.03161,5.4095],[-75.03036,5.40914],[-75.03013,5.40877],[-75.0298,5.4067],[-75.02925,5.40647],[-75.02559,5.40767],[-75.02635,5.4068],[-75.02758,5.40279],[-75.02831,5.40209],[-75.02997,5.4013],[-75.03047,5.40038],[-75.03079,5.39909],[-75.03037,5.39826],[-75.02922,5.39799],[-75.0277,5.39818],[-75.02692,5.39882],[-75.02546,5.40118],[-75.02491,5.40159],[-75.02394,5.40178],[-75.0227,5.40137],[-75.02137,5.40128],[-75.02114,5.40285],[-75.02193,5.40506],[-75.02198,5.4063],[-75.01997,5.41037],[-75.01982,5.41141],[-75.01717,5.41176],[-75.01528,5.41084],[-75.01352,5.40753],[-75.0119,5.40518],[-75.0107,5.40426],[-75.01,5.40395]]]},"properties":{"unidad":"FRde1","paisaje":"Vertiente de montaña","clima":"Medio muy húmedo","relieve":"Fuertemente ondulado a fuertemente quebrado","componente":"Consociación Florencia: Entic Hydric Dystrandepts; Hydric Dystrandepts","area_ha":824.2199}},{"type":"Feature","id":7,"geometry":{"type":"Polygon","coordinates":[[[-75.12243,5.40695],[-75.12321,5.40698],[-75.12568,5.40781],[-75.12722,5.40775],[-75.12755,5.40879],[-75.12841,5.4092],[-75.13002,5.41093],[-75.13189,5.4123],[-75.13221,5.4156],[-75.13276,5.41768],[-75.13233,5.41846],[-75.12957,5.41797],[-75.12837,5.41622],[-75.12606,5.41609],[-75.12376,5.41545],[-75.12371,5.41411],[-75.12743,5.41313],[-75.12863,5.4123],[-75.12817,5.41175],[-75.12839,5.41083],[-75.12807,5.41027],[-75.12756,5.40986],[-75.12586,5.40973],[-75.12558,5.40908],[-75.12558,5.40844],[-75.12488,5.40757],[-75.12346,5.40821],[-75.12235,5.4073],[-75.12243,5.40695]]]},"properties":{"unidad":"SRg","paisaje":"Tierras misceláneas, con pendientes mayores del 75%, relieve muy escarpado","clima":"Tierras misceláneas, con pendientes mayores del 75%, relieve muy escarpado","relieve":"Tierras misceláneas, con pendientes mayores del 75%, relieve muy escarpado","componente":"Tierras misceláneas, con pendientes mayores del 75%, relieve muy escarpado","area_ha":55.5623}},{"type":"Feature","id":8,"geometry":{"type":"Polygon","coordinates":[[[-75.07138,5.43257],[-75.07511,5.43205],[-75.07694,5.43121],[-75.08025,5.42899],[-75.08236,5.42899],[-75.08439,5.4287],[-75.08618,5.42759],[-75.08838,5.42477],[-75.08998,5.4232],[-75.09127,5.42264],[-75.09315,5.42278],[-75.09444,5.4237],[-75.09601,5.42452],[-75.09639,5.42692],[-75.09502,5.43015],[-75.09751,5.43226],[-75.10316,5.43063],[-75.10588,5.43168],[-75.10557,5.43468],[-75.10332,5.4362],[-75.10061,5.43736],[-75.09716,5.43807],[-75.09505,5.43886],[-75.09354,5.44024],[-75.09281,5.44218],[-75.09281,5.44425],[-75.09319,5.44753],[-75.09486,5.45075],[-75.09739,5.45115],[-75.09974,5.45128],[-75.10126,5.45275],[-75.10026,5.45525],[-75.09498,5.4583],[-75.0931,5.45988],[-75.09237,5.46223],[-75.09317,5.46573],[-75.09584,5.46803],[-75.09801,5.46876],[-75.09967,5.4705],[-75.09843,5.47235],[-75.09462,5.47379],[-75.09311,5.47495],[-75.09224,5.47675],[-75.09235,5.48269],[-75.09259,5.48582],[-75.09205,5.4873],[-75.08947,5.48735],[-75.08859,5.48653],[-75.08731,5.48704],[-75.08611,5.4869],[-75.08496,5.48576],[-75.08357,5.48498],[-75.08196,5.48553],[-75.08206,5.48728],[-75.08331,5.48899],[-75.08419,5.49064],[-75.08296,5.49244],[-75.08038,5.49282],[-75.07849,5.49232],[-75.07734,5.49076],[-75.07581,5.48767],[-75.07566,5.48449],[-75.07707,5.48126],[-75.07941,5.4784],[-75.08032,5.47678],[-75.08073,5.47388],[-75.07994,5.47084],[-75.07749,5.46868],[-75.07583,5.46762],[-75.07325,5.46648],[-75.06639,5.46516],[-75.06693,5.46171],[-75.06927,5.45958],[-75.07221,5.45727],[-75.07275,5.4557],[-75.07228,5.4533],[-75.07117,5.45073],[-75.07175,5.44478],[-75.0708,5.43676],[-75.07138,5.43257]]]},"properties":{"unidad":"ERef1","paisaje":"Vertiente de montaña","clima":"Medio muy húmedo","relieve":"Fuertemente quebrado a escarpado","componente":"Asociación Azufrado - Río Samaná: Typic Troporthents; Lithic Troporthens; Typic Dystropepts","area_ha":1665.8161}},{"type":"Feature","id":9,"geometry":{"type":"Polygon","coordinates":[[[-75.14717,5.42702],[-75.14805,5.42825],[-75.14658,5.43039],[-75.14585,5.43106],[-75.14501,5.43251],[-75.14438,5.43308],[-75.14359,5.43305],[-75.14304,5.43364],[-75.14194,5.43416],[-75.14068,5.43552],[-75.13917,5.43862],[-75.13805,5.43999],[-75.13769,5.44188],[-75.13677,5.44393],[-75.13545,5.44478],[-75.13473,5.44556],[-75.13243,5.44593],[-75.13194,5.44697],[-75.1304,5.4477],[-75.12922,5.44952],[-75.12878,5.45091],[-75.12745,5.45255],[-75.12753,5.4544],[-75.1267,5.45641],[-75.12502,5.45797],[-75.12351,5.45845],[-75.12135,5.46032],[-75.12019,5.46087],[-75.11973,5.46473],[-75.11943,5.46529],[-75.11931,5.46622],[-75.11655,5.46737],[-75.11494,5.46733],[-75.114,5.46401],[-75.11514,5.46097],[-75.11712,5.46018],[-75.11955,5.45962],[-75.12065,5.45879],[-75.12258,5.45675],[-75.12495,5.45223],[-75.12544,5.44582],[-75.12538,5.44393],[-75.12574,5.44209],[-75.12836,5.44005],[-75.12909,5.43876],[-75.12931,5.43659],[-75.12963,5.43562],[-75.13124,5.43474],[-75.13225,5.43446],[-75.1352,5.43694],[-75.13658,5.43708],[-75.13901,5.43546],[-75.1396,5.432],[-75.14395,5.4283],[-75.14652,5.42742],[-75.14717,5.42702]]]},"properties":{"unidad":"SRg","paisaje":"Tierras misceláneas, con pendientes mayores del 75%, relieve muy escarpado","clima":"Tierras misceláneas, con pendientes mayores del 75%, relieve muy escarpado","relieve":"Tierras misceláneas, con pendientes mayores del 75%, relieve muy escarpado","componente":"Tierras misceláneas, con pendientes mayores del 75%, relieve muy escarpado","area_ha":283.927}},{"type":"Feature","id":10,"geometry":{"type":"MultiPolygon","coordinates":[[[[-75.06667,5.47444],[-75.06598,5.47411],[-75.06415,5.47418],[-75.0636,5.47359],[-75.0615,5.47292],[-75.05888,5.47251],[-75.05688,5.47162],[-75.05459,5.47193],[-75.05371,5.4714],[-75.05561,5.47139],[-75.06076,5.47078],[-75.06343,5.47132],[-75.06822,5.47389],[-75.07021,5.47729],[-75.07064,5.47921],[-75.07032,5.47904],[-75.06969,5.4777],[-75.06812,5.4762],[-75.06667,5.47444]]],[[[-75.07501,5.49278],[-75.07469,5.49131],[-75.07584,5.49373],[-75.07824,5.49575],[-75.07926,5.49818],[-75.07931,5.50086],[-75.07779,5.50306],[-75.07695,5.50225],[-75.07667,5.50111],[-75.07441,5.49964],[-75.07448,5.49781],[-75.07312,5.49613],[-75.07389,5.49501],[-75.07444,5.49361],[-75.07501,5.49278]]]]},"properties":{"unidad":"SRg","paisaje":"Tierras misceláneas, con pendientes mayores del 75%, relieve muy escarpado","clima":"Tierras misceláneas, con pendientes mayores del 75%, relieve muy escarpado","relieve":"Tierras misceláneas, con pendientes mayores del 75%, relieve muy escarpado","componente":"Tierras misceláneas, con pendientes mayores del 75%, relieve muy escarpado","area_ha":73.623}},{"type":"Feature","id":11,"geometry":{"type":"Polygon","coordinates":[[[-75.04956,5.43819],[-75.04914,5.43661],[-75.04836,5.43589],[-75.04797,5.43524],[-75.04778,5.43444],[-75.04649,5.4331],[-75.04612,5.43194],[-75.04498,5.43137],[-75.04502,5.43056],[-75.04402,5.43],[-75.04465,5.4288],[-75.04529,5.42811],[-75.04598,5.42695],[-75.04579,5.4258],[-75.04358,5.42567],[-75.04258,5.42706],[-75.04189,5.42916],[-75.04136,5.42917],[-75.04084,5.43028],[-75.04019,5.43059],[-75.0395,5.43056],[-75.03845,5.42993],[-75.03792,5.43008],[-75.03511,5.42879],[-75.03434,5.4276],[-75.03328,5.42692],[-75.0323,5.42586],[-75.03162,5.42554],[-75.03075,5.42555],[-75.03032,5.42507],[-75.03129,5.42411],[-75.03169,5.42199],[-75.03173,5.42001],[-75.03214,5.41904],[-75.03361,5.41839],[-75.03517,5.41691],[-75.03567,5.4153],[-75.03572,5.41419],[-75.03599,5.41308],[-75.03699,5.41101],[-75.03878,5.40911],[-75.0408,5.40906],[-75.04265,5.40929],[-75.04523,5.41167],[-75.04657,5.41222],[-75.04827,5.41222],[-75.05021,5.41179],[-75.05153,5.41244],[-75.05605,5.41358],[-75.05835,5.41468],[-75.05914,5.41578],[-75.05992,5.41652],[-75.06061,5.4178],[-75.06205,5.41912],[-75.06407,5.41904],[-75.06376,5.42222],[-75.06399,5.42406],[-75.06446,5.42544],[-75.06502,5.4289],[-75.06494,5.43037],[-75.06416,5.43282],[-75.06298,5.43554],[-75.06087,5.43744],[-75.05982,5.43961],[-75.05895,5.44081],[-75.05766,5.44201],[-75.05651,5.44266],[-75.05504,5.4428],[-75.05394,5.44257],[-75.05233,5.44189],[-75.05048,5.43977],[-75.04956,5.43819]]]},"properties":{"unidad":"ERef1","paisaje":"Vertiente de montaña","clima":"Medio muy húmedo","relieve":"Fuertemente quebrado a escarpado","componente":"Asociación Azufrado - Río Samaná: Typic Troporthents; Lithic Troporthens; Typic Dystropepts","area_ha":834.3071}},{"type":"Feature","id":12,"geometry":{"type":"MultiPolygon","coordinates":[[[[-75.0272,5.36068],[-75.02765,5.36056],[-75.028,5.362],[-75.02795,5.362],[-75.0272,5.36068]]],[[[-75.06894,5.43119],[-75.06755,5.42898],[-75.06722,5.42705],[-75.06781,5.42497],[-75.06831,5.42124],[-75.06821,5.41834],[-75.06783,5.41782],[-75.06866,5.41668],[-75.06921,5.41465],[-75.06915,5.41299],[-75.06809,5.41202],[-75.06795,5.41073],[-75.0684,5.40847],[-75.06697,5.40802],[-75.06597,5.40963],[-75.0656,5.4106],[-75.06482,5.41111],[-75.06381,5.41093],[-75.06339,5.40978],[-75.06325,5.40872],[-75.0626,5.40817],[-75.06122,5.40812],[-75.06026,5.4085],[-75.05856,5.40984],[-75.05755,5.41039],[-75.05622,5.41072],[-75.05406,5.41036],[-75.0514,5.41033],[-75.05021,5.41179],[-75.04827,5.41222],[-75.04657,5.41222],[-75.04523,5.41167],[-75.04265,5.40929],[-75.0408,5.40906],[-75.03878,5.40911],[-75.03699,5.41101],[-75.03575,5.41073],[-75.0346,5.41124],[-75.034,5.41092],[-75.03441,5.40982],[-75.03528,5.40834],[-75.03551,5.40742],[-75.03455,5.40588],[-75.03573,5.40355],[-75.03581,5.40202],[-75.03581,5.40087],[-75.03414,5.39742],[-75.03363,5.3953],[-75.03362,5.3936],[-75.03408,5.39171],[-75.03481,5.39009],[-75.03517,5.38871],[-75.03489,5.38733],[-75.03406,5.38581],[-75.03226,5.38471],[-75.02908,5.38333],[-75.02577,5.38274],[-75.02429,5.38219],[-75.02369,5.38003],[-75.02394,5.37427],[-75.02458,5.37178],[-75.02559,5.37044],[-75.02655,5.36984],[-75.02857,5.36808],[-75.02976,5.36743],[-75.0316,5.36586],[-75.03159,5.36438],[-75.03079,5.36307],[-75.03169,5.36276],[-75.03525,5.3628],[-75.03786,5.36212],[-75.0406,5.35974],[-75.04306,5.35945],[-75.04319,5.35931],[-75.04362,5.35944],[-75.04583,5.36139],[-75.04778,5.36249],[-75.04824,5.36299],[-75.04767,5.36681],[-75.04882,5.36831],[-75.04823,5.36999],[-75.04748,5.3714],[-75.04754,5.37282],[-75.04661,5.37296],[-75.04546,5.37264],[-75.04271,5.37302],[-75.04123,5.37288],[-75.03949,5.37385],[-75.03936,5.37561],[-75.04028,5.37676],[-75.04212,5.37693],[-75.04262,5.37638],[-75.04552,5.37568],[-75.0475,5.3754],[-75.04819,5.37682],[-75.05013,5.37756],[-75.05247,5.37621],[-75.05564,5.37731],[-75.05648,5.37614],[-75.05733,5.37643],[-75.06007,5.37633],[-75.06214,5.37775],[-75.06416,5.37722],[-75.06874,5.37769],[-75.07076,5.37716],[-75.07273,5.37816],[-75.07313,5.37942],[-75.07592,5.37986],[-75.07694,5.37916],[-75.07948,5.37796],[-75.08189,5.37876],[-75.08543,5.37953],[-75.08813,5.3822],[-75.09001,5.38249],[-75.09251,5.38333],[-75.09333,5.38377],[-75.09441,5.3832],[-75.09638,5.38473],[-75.09945,5.38666],[-75.10213,5.38927],[-75.1028,5.39208],[-75.10449,5.39308],[-75.10573,5.3943],[-75.10605,5.3963],[-75.10349,5.39427],[-75.09989,5.39064],[-75.09505,5.38613],[-75.09048,5.38297],[-75.08565,5.38192],[-75.08276,5.3835],[-75.0829,5.38576],[-75.08411,5.38852],[-75.0816,5.39304],[-75.08206,5.39493],[-75.08327,5.39709],[-75.08342,5.40202],[-75.0837,5.40363],[-75.08523,5.40667],[-75.08662,5.40874],[-75.08953,5.41136],[-75.09215,5.41273],[-75.09653,5.4141],[-75.10071,5.41404],[-75.10201,5.4163],[-75.10146,5.4175],[-75.09953,5.41884],[-75.09503,5.41987],[-75.09315,5.42278],[-75.09127,5.42264],[-75.08998,5.4232],[-75.08838,5.42477],[-75.08618,5.42759],[-75.08439,5.4287],[-75.08236,5.42899],[-75.08025,5.42899],[-75.07694,5.43121],[-75.07511,5.43205],[-75.07138,5.43257],[-75.06894,5.43119]],[[-75.06707,5.38248],[-75.06886,5.3817],[-75.07052,5.38132],[-75.07143,5.37998],[-75.07032,5.3792],[-75.06885,5.37907],[-75.06765,5.3787],[-75.06664,5.37751],[-75.06526,5.37737],[-75.06416,5.37779],[-75.0637,5.37913],[-75.06399,5.38217],[-75.06349,5.38328],[-75.06275,5.38406],[-75.06225,5.38508],[-75.06189,5.38674],[-75.06061,5.38868],[-75.06056,5.38928],[-75.06121,5.39034],[-75.06204,5.39047],[-75.06332,5.38996],[-75.06543,5.38701],[-75.06707,5.38248]]]]},"properties":{"unidad":"GAef1","paisaje":"Vertiente de montaña","clima":"Medio húmedo","relieve":"Fuertemente quebrado a escarpado","componente":"Asociación Azufrado - Libano: Typic Troporthents; Hydric Dystrandepts","area_ha":3012.0555}},{"type":"Feature","id":13,"geometry":{"type":"MultiPolygon","coordinates":[[[[-75.04806,5.43561],[-75.04797,5.43524],[-75.04836,5.43589],[-75.04806,5.43561]]],[[[-75.07779,5.50306],[-75.07931,5.50086],[-75.07926,5.49818],[-75.07824,5.49575],[-75.07584,5.49373],[-75.07472,5.49142],[-75.07445,5.48805],[-75.07389,5.48633],[-75.07445,5.48528],[-75.07472,5.48356],[-75.07416,5.48251],[-75.07373,5.48069],[-75.07064,5.47921],[-75.07021,5.47729],[-75.06822,5.47389],[-75.06343,5.47132],[-75.06076,5.47078],[-75.05561,5.47139],[-75.05371,5.4714],[-75.05276,5.47082],[-75.05279,5.47018],[-75.05362,5.46862],[-75.05359,5.46255],[-75.05472,5.45888],[-75.05615,5.4572],[-75.05733,5.45724],[-75.05907,5.45503],[-75.05777,5.45334],[-75.05744,5.45161],[-75.05751,5.44998],[-75.05637,5.44892],[-75.0564,5.4483],[-75.05556,5.44666],[-75.05466,5.44604],[-75.05378,5.44417],[-75.05244,5.44331],[-75.05088,5.44162],[-75.05056,5.44027],[-75.04972,5.43917],[-75.04956,5.43819],[-75.05048,5.43977],[-75.05233,5.44189],[-75.05394,5.44257],[-75.05504,5.4428],[-75.05651,5.44266],[-75.05766,5.44201],[-75.05895,5.44081],[-75.05982,5.43961],[-75.06087,5.43744],[-75.06298,5.43554],[-75.06416,5.43282],[-75.06494,5.43037],[-75.06502,5.4289],[-75.06446,5.42544],[-75.06399,5.42406],[-75.06376,5.42222],[-75.06407,5.41904],[-75.06627,5.4182],[-75.06783,5.41782],[-75.06821,5.41834],[-75.06831,5.42124],[-75.06781,5.42497],[-75.06722,5.42705],[-75.06755,5.42898],[-75.06894,5.43119],[-75.07138,5.43257],[-75.0708,5.43676],[-75.07175,5.44478],[-75.07117,5.45073],[-75.07228,5.4533],[-75.07275,5.4557],[-75.07221,5.45727],[-75.06927,5.45958],[-75.06693,5.46171],[-75.06639,5.46516],[-75.07325,5.46648],[-75.07583,5.46762],[-75.07749,5.46868],[-75.07994,5.47084],[-75.08073,5.47388],[-75.08032,5.47678],[-75.07941,5.4784],[-75.07707,5.48126],[-75.07566,5.48449],[-75.07581,5.48767],[-75.07734,5.49076],[-75.07849,5.49232],[-75.08038,5.49282],[-75.08296,5.49244],[-75.08419,5.49064],[-75.08331,5.48899],[-75.08206,5.48728],[-75.08196,5.48553],[-75.08357,5.48498],[-75.08496,5.48576],[-75.08611,5.4869],[-75.08731,5.48704],[-75.08859,5.48653],[-75.08947,5.48735],[-75.09205,5.4873],[-75.09259,5.48582],[-75.09235,5.48269],[-75.09224,5.47675],[-75.09311,5.47495],[-75.09462,5.47379],[-75.09843,5.47235],[-75.09967,5.4705],[-75.09801,5.46876],[-75.09584,5.46803],[-75.09317,5.46573],[-75.09237,5.46223],[-75.0931,5.45988],[-75.09498,5.4583],[-75.10026,5.45525],[-75.10126,5.45275],[-75.09974,5.45128],[-75.09739,5.45115],[-75.09486,5.45075],[-75.09319,5.44753],[-75.09281,5.44425],[-75.09281,5.44218],[-75.09354,5.44024],[-75.09505,5.43886],[-75.09716,5.43807],[-75.10061,5.43736],[-75.10332,5.4362],[-75.10557,5.43468],[-75.10588,5.43168],[-75.10316,5.43063],[-75.09751,5.43226],[-75.09502,5.43015],[-75.09639,5.42692],[-75.09601,5.42452],[-75.09444,5.4237],[-75.09315,5.42278],[-75.09503,5.41987],[-75.09953,5.41884],[-75.10146,5.4175],[-75.10201,5.4163],[-75.10071,5.41404],[-75.09653,5.4141],[-75.09215,5.41273],[-75.08953,5.41136],[-75.08662,5.40874],[-75.08523,5.40667],[-75.0837,5.40363],[-75.08342,5.40202],[-75.08327,5.39709],[-75.08206,5.39493],[-75.0816,5.39304],[-75.08411,5.38852],[-75.0829,5.38576],[-75.08276,5.3835],[-75.08565,5.38192],[-75.09048,5.38297],[-75.09505,5.38613],[-75.09989,5.39064],[-75.10349,5.39427],[-75.10605,5.3963],[-75.10612,5.39678],[-75.10735,5.39757],[-75.10872,5.39932],[-75.11058,5.40104],[-75.11222,5.40445],[-75.11606,5.40611],[-75.12004,5.40696],[-75.12243,5.40695],[-75.12235,5.4073],[-75.12346,5.40821],[-75.12488,5.40757],[-75.12558,5.40844],[-75.12558,5.40908],[-75.12586,5.40973],[-75.12756,5.40986],[-75.12807,5.41027],[-75.12839,5.41083],[-75.12817,5.41175],[-75.12863,5.4123],[-75.12743,5.41313],[-75.12371,5.41411],[-75.12376,5.41545],[-75.12606,5.41609],[-75.12837,5.41622],[-75.12957,5.41797],[-75.13233,5.41846],[-75.13276,5.41768],[-75.13305,5.41889],[-75.13364,5.42001],[-75.13351,5.42319],[-75.13448,5.42476],[-75.13677,5.42591],[-75.13747,5.42667],[-75.14112,5.42749],[-75.1418,5.42786],[-75.14512,5.42781],[-75.14638,5.42694],[-75.14717,5.42702],[-75.14652,5.42742],[-75.14395,5.4283],[-75.1396,5.432],[-75.13901,5.43546],[-75.13658,5.43708],[-75.1352,5.43694],[-75.13225,5.43446],[-75.13124,5.43474],[-75.12963,5.43562],[-75.12931,5.43659],[-75.12909,5.43876],[-75.12836,5.44005],[-75.12574,5.44209],[-75.12538,5.44393],[-75.12544,5.44582],[-75.12495,5.45223],[-75.12345,5.45523],[-75.12258,5.45675],[-75.12065,5.45879],[-75.11955,5.45962],[-75.11712,5.46018],[-75.11514,5.46097],[-75.114,5.46401],[-75.11494,5.46733],[-75.11655,5.46737],[-75.11931,5.46622],[-75.11889,5.46783],[-75.11972,5.46967],[-75.11861,5.47222],[-75.11834,5.47417],[-75.11805,5.47472],[-75.11811,5.4763],[-75.11777,5.47694],[-75.11747,5.47823],[-75.11607,5.47892],[-75.11529,5.48057],[-75.11416,5.48222],[-75.11372,5.48316],[-75.11061,5.4848],[-75.11026,5.4859],[-75.11032,5.48729],[-75.10876,5.48932],[-75.10749,5.49256],[-75.10666,5.49333],[-75.10672,5.49471],[-75.10607,5.49501],[-75.1041,5.49713],[-75.10418,5.49917],[-75.10194,5.49944],[-75.10123,5.49981],[-75.10028,5.50084],[-75.09944,5.50111],[-75.09834,5.50195],[-75.09659,5.50254],[-75.09323,5.5024],[-75.09251,5.50278],[-75.09088,5.50317],[-75.09056,5.50417],[-75.08917,5.50501],[-75.08474,5.50711],[-75.08139,5.50555],[-75.07915,5.50479],[-75.07779,5.50306]]]]},"properties":{"unidad":"SEef1","paisaje":"Vertiente de montaña","clima":"Frío muy húmedo","relieve":"Quebrado a escarpado","componente":"Asociación Santa Isabel - Pensilvania: Hidric Dystrandepts; Typic Troporthens","area_ha":4977.5754}}]}