{"type":"FeatureCollection","features":[{"type":"Feature","id":0,"geometry":{"type":"MultiPolygon","coordinates":[[[[-75.11467,5.433603],[-75.114299,5.43313],[-75.115081,5.433351],[-75.115618,5.433379],[-75.115768,5.433433],[-75.115471,5.433773],[-75.11467,5.433603]]],[[[-75.131754,5.434485],[-75.131965,5.434383],[-75.131905,5.434426],[-75.131905,5.43456],[-75.131614,5.43464],[-75.131754,5.434485]]],[[[-75.132344,5.434546],[-75.132538,5.434426],[-75.132965,5.434781],[-75.132849,5.434974],[-75.132344,5.434546]]],[[[-75.130019,5.434943],[-75.13007,5.434938],[-75.130005,5.435009],[-75.129939,5.434998],[-75.130019,5.434943]]],[[[-75.112397,5.433237],[-75.112617,5.43308],[-75.112717,5.433137],[-75.112875,5.432991],[-75.112912,5.432986],[-75.113222,5.432961],[-75.113475,5.432972],[-75.114013,5.433065],[-75.113182,5.433307],[-75.113441,5.4339],[-75.113228,5.434155],[-75.113609,5.435088],[-75.113037,5.435215],[-75.11299,5.435132],[-75.112978,5.435022],[-75.112988,5.434277],[-75.112948,5.434191],[-75.112441,5.433828],[-75.112362,5.433752],[-75.112312,5.433666],[-75.112262,5.433497],[-75.112163,5.43334],[-75.112397,5.433237]]],[[[-75.113421,5.435587],[-75.113731,5.43547],[-75.113868,5.436099],[-75.113471,5.435634],[-75.113421,5.435587]]],[[[-75.133553,5.435287],[-75.133804,5.434958],[-75.133827,5.434578],[-75.133446,5.434299],[-75.133171,5.43402],[-75.133651,5.434046],[-75.133957,5.433817],[-75.134186,5.433007],[-75.134629,5.433183],[-75.134869,5.433313],[-75.134567,5.43364],[-75.134789,5.433944],[-75.134361,5.433894],[-75.13411,5.434147],[-75.134613,5.434401],[-75.134941,5.434932],[-75.135353,5.435059],[-75.135834,5.434805],[-75.135551,5.435363],[-75.135124,5.435642],[-75.134766,5.435592],[-75.13472,5.435084],[-75.134338,5.435136],[-75.134338,5.435971],[-75.134548,5.436],[-75.134236,5.436145],[-75.133694,5.435688],[-75.133858,5.435541],[-75.133553,5.435287]]],[[[-75.121367,5.436617],[-75.120465,5.435816],[-75.121071,5.4362],[-75.121574,5.436616],[-75.121885,5.436953],[-75.122003,5.437136],[-75.121367,5.436617]]],[[[-75.124061,5.438074],[-75.124045,5.437971],[-75.12407,5.437856],[-75.124108,5.437793],[-75.12427,5.437704],[-75.124384,5.437471],[-75.124441,5.437432],[-75.12461,5.437383],[-75.125192,5.437383],[-75.125709,5.437253],[-75.125835,5.437269],[-75.125967,5.437388],[-75.126018,5.437495],[-75.12607,5.437885],[-75.126149,5.438026],[-75.126645,5.437878],[-75.126754,5.437811],[-75.126824,5.437719],[-75.126843,5.437641],[-75.126824,5.437421],[-75.126879,5.437373],[-75.127203,5.43732],[-75.127414,5.437366],[-75.127547,5.437245],[-75.12761,5.436991],[-75.127678,5.436941],[-75.127825,5.436943],[-75.127951,5.43704],[-75.128226,5.437007],[-75.128434,5.436865],[-75.128585,5.436706],[-75.128887,5.43626],[-75.129137,5.436045],[-75.129195,5.436794],[-75.127959,5.437677],[-75.127311,5.437971],[-75.126664,5.438383],[-75.126017,5.438678],[-75.12531,5.438736],[-75.124604,5.438324],[-75.124061,5.438074]]],[[[-75.103505,5.442633],[-75.103641,5.442387],[-75.104,5.442569],[-75.104142,5.442619],[-75.104256,5.442609],[-75.104421,5.442542],[-75.10481,5.442283],[-75.104902,5.442242],[-75.105018,5.442239],[-75.105179,5.44227],[-75.105613,5.442438],[-75.105877,5.442476],[-75.105759,5.442512],[-75.105125,5.442384],[-75.104317,5.442766],[-75.103518,5.442839],[-75.103505,5.442633]]],[[[-75.11441,5.442809],[-75.113609,5.442257],[-75.112465,5.442299],[-75.112419,5.441578],[-75.111908,5.442171],[-75.111359,5.441833],[-75.110764,5.441875],[-75.110001,5.441832],[-75.110438,5.441293],[-75.110683,5.441212],[-75.11106,5.441026],[-75.111531,5.440539],[-75.111722,5.440393],[-75.112017,5.440248],[-75.11219,5.440266],[-75.112283,5.440338],[-75.112459,5.440674],[-75.112534,5.44077],[-75.112638,5.440844],[-75.112955,5.441001],[-75.113189,5.441038],[-75.113287,5.441011],[-75.113385,5.440917],[-75.11368,5.440498],[-75.113778,5.440485],[-75.113925,5.440533],[-75.114228,5.440732],[-75.114388,5.440764],[-75.114555,5.440756],[-75.114819,5.44071],[-75.114954,5.440608],[-75.115239,5.440474],[-75.115701,5.440306],[-75.115803,5.440203],[-75.115476,5.439507],[-75.115468,5.439198],[-75.11538,5.438869],[-75.115089,5.43841],[-75.114846,5.437822],[-75.114359,5.436861],[-75.114002,5.436308],[-75.11454,5.436488],[-75.114586,5.436106],[-75.114204,5.435555],[-75.114204,5.434749],[-75.11467,5.43513],[-75.11509,5.434833],[-75.115219,5.435682],[-75.115601,5.43564],[-75.115562,5.434918],[-75.115646,5.434282],[-75.116364,5.435259],[-75.116364,5.43544],[-75.116834,5.43544],[-75.117482,5.435087],[-75.11807,5.434616],[-75.118659,5.434204],[-75.119424,5.43391],[-75.119807,5.433878],[-75.119473,5.434309],[-75.119392,5.434446],[-75.119329,5.434807],[-75.119657,5.435352],[-75.119601,5.436029],[-75.120072,5.436559],[-75.119365,5.436971],[-75.1186,5.436971],[-75.118894,5.437677],[-75.119424,5.438207],[-75.120189,5.438501],[-75.120837,5.438795],[-75.121013,5.439502],[-75.119248,5.440738],[-75.119189,5.441444],[-75.118953,5.44215],[-75.118365,5.442562],[-75.117658,5.442739],[-75.116952,5.442562],[-75.11654,5.441915],[-75.116482,5.441787],[-75.116363,5.44196],[-75.115348,5.44179],[-75.11467,5.442214],[-75.11441,5.442809]]],[[[-75.098686,5.447004],[-75.098686,5.44622],[-75.098599,5.446181],[-75.098554,5.446036],[-75.098905,5.446293],[-75.09906,5.446186],[-75.099316,5.446054],[-75.099615,5.445952],[-75.100026,5.445869],[-75.100312,5.445888],[-75.100694,5.44595],[-75.10154,5.446007],[-75.101685,5.446185],[-75.102058,5.446424],[-75.102501,5.446903],[-75.102548,5.447127],[-75.102365,5.44719],[-75.102152,5.44751],[-75.102075,5.447581],[-75.101852,5.447652],[-75.101143,5.447277],[-75.101036,5.446971],[-75.100357,5.446459],[-75.100113,5.446664],[-75.100388,5.447448],[-75.099945,5.447824],[-75.099296,5.447755],[-75.098648,5.447346],[-75.098686,5.447004]]],[[[-75.105949,5.447021],[-75.10643,5.446732],[-75.106522,5.447171],[-75.106651,5.447522],[-75.106956,5.447783],[-75.107215,5.447784],[-75.106636,5.448078],[-75.106414,5.447911],[-75.106088,5.447614],[-75.105949,5.447021]]],[[[-75.107951,5.447695],[-75.107733,5.447672],[-75.107583,5.447701],[-75.107788,5.44739],[-75.108055,5.447083],[-75.108268,5.447433],[-75.108406,5.447827],[-75.108559,5.448518],[-75.108408,5.448179],[-75.108191,5.447918],[-75.107951,5.447695]]],[[[-75.10994,5.447609],[-75.110771,5.44682],[-75.110817,5.446425],[-75.111298,5.446162],[-75.111168,5.445723],[-75.11055,5.446074],[-75.110115,5.446206],[-75.109284,5.446249],[-75.108841,5.44625],[-75.108139,5.44581],[-75.107918,5.445328],[-75.107353,5.445066],[-75.107132,5.44546],[-75.106522,5.445503],[-75.1063,5.445854],[-75.105949,5.445503],[-75.105599,5.445198],[-75.104943,5.445065],[-75.104592,5.444583],[-75.104103,5.444451],[-75.10437,5.444846],[-75.104195,5.445504],[-75.103317,5.446031],[-75.103081,5.446663],[-75.102814,5.44639],[-75.102264,5.445196],[-75.101891,5.445606],[-75.101853,5.445094],[-75.101379,5.444822],[-75.101204,5.44506],[-75.100937,5.444821],[-75.100603,5.444644],[-75.100544,5.444366],[-75.100513,5.443961],[-75.100512,5.44356],[-75.100852,5.443515],[-75.100868,5.443594],[-75.101311,5.443593],[-75.101006,5.444071],[-75.101242,5.444344],[-75.101547,5.44414],[-75.101685,5.444446],[-75.10199,5.444753],[-75.102363,5.444446],[-75.102844,5.444242],[-75.102943,5.44448],[-75.102745,5.44506],[-75.103012,5.445373],[-75.103226,5.444584],[-75.103668,5.444144],[-75.103623,5.443706],[-75.104103,5.443399],[-75.104897,5.443223],[-75.105331,5.443531],[-75.105683,5.443136],[-75.1063,5.442917],[-75.107483,5.442566],[-75.108055,5.443268],[-75.107483,5.443662],[-75.107529,5.444364],[-75.108093,5.444846],[-75.108757,5.445154],[-75.109146,5.444846],[-75.108887,5.444319],[-75.109238,5.44375],[-75.109634,5.443575],[-75.110023,5.443881],[-75.109634,5.444232],[-75.110291,5.444539],[-75.110596,5.443706],[-75.110161,5.443312],[-75.109321,5.443179],[-75.108887,5.443662],[-75.108406,5.444363],[-75.108139,5.444276],[-75.108361,5.443838],[-75.10849,5.443443],[-75.108757,5.443135],[-75.107918,5.442566],[-75.107613,5.44204],[-75.108185,5.441601],[-75.108841,5.44239],[-75.109589,5.442786],[-75.109985,5.442391],[-75.110901,5.442523],[-75.110863,5.443311],[-75.111122,5.443882],[-75.111389,5.44375],[-75.111252,5.44318],[-75.111298,5.442916],[-75.111694,5.443048],[-75.111778,5.443838],[-75.112396,5.444451],[-75.113006,5.444846],[-75.113663,5.444451],[-75.113007,5.444057],[-75.112435,5.443882],[-75.112129,5.443311],[-75.112305,5.442829],[-75.113838,5.443355],[-75.114586,5.443662],[-75.114807,5.44296],[-75.115333,5.442479],[-75.115768,5.442259],[-75.116692,5.443135],[-75.116257,5.443663],[-75.115066,5.444276],[-75.113884,5.444847],[-75.113533,5.445285],[-75.113312,5.445943],[-75.113228,5.446337],[-75.112877,5.446951],[-75.112961,5.447346],[-75.113838,5.447697],[-75.114411,5.448223],[-75.114456,5.44888],[-75.113976,5.449143],[-75.113579,5.448354],[-75.113136,5.448661],[-75.113624,5.44945],[-75.112434,5.449363],[-75.112396,5.44853],[-75.11261,5.448135],[-75.111954,5.447258],[-75.112,5.446381],[-75.111694,5.44603],[-75.111343,5.446732],[-75.111473,5.447566],[-75.110641,5.447478],[-75.11055,5.447915],[-75.110199,5.448223],[-75.110512,5.44853],[-75.110596,5.449538],[-75.10981,5.449275],[-75.109367,5.448705],[-75.109367,5.447959],[-75.10994,5.447609]]],[[[-75.117012,5.449182],[-75.116592,5.449182],[-75.116173,5.449275],[-75.115753,5.449182],[-75.115799,5.448761],[-75.115471,5.44848],[-75.115052,5.448433],[-75.114861,5.448059],[-75.114952,5.447637],[-75.11528,5.447357],[-75.115516,5.447028],[-75.115654,5.446608],[-75.116028,5.446421],[-75.116173,5.445999],[-75.116173,5.445577],[-75.116356,5.445203],[-75.116783,5.445203],[-75.117058,5.444876],[-75.117249,5.44525],[-75.117485,5.445577],[-75.117905,5.445531],[-75.118278,5.445297],[-75.118561,5.44497],[-75.118889,5.444735],[-75.119026,5.444315],[-75.119118,5.443893],[-75.119446,5.443658],[-75.119866,5.443659],[-75.120148,5.44333],[-75.120148,5.44291],[-75.120575,5.442957],[-75.120949,5.44277],[-75.121086,5.442348],[-75.121506,5.442301],[-75.121742,5.442629],[-75.122162,5.442488],[-75.122208,5.442067],[-75.122162,5.441645],[-75.122307,5.441225],[-75.122536,5.440896],[-75.12291,5.441083],[-75.123009,5.441506],[-75.123009,5.442769],[-75.122582,5.442909],[-75.12249,5.443049],[-75.12249,5.443377],[-75.122307,5.443799],[-75.122116,5.444173],[-75.122353,5.444501],[-75.12249,5.444922],[-75.122444,5.445344],[-75.122162,5.445671],[-75.121743,5.445766],[-75.120994,5.445297],[-75.120575,5.445156],[-75.120193,5.444969],[-75.119865,5.444735],[-75.119446,5.444782],[-75.119263,5.445156],[-75.119217,5.445578],[-75.119492,5.445905],[-75.119919,5.445718],[-75.120292,5.445905],[-75.120385,5.446327],[-75.120102,5.446654],[-75.119865,5.446981],[-75.119446,5.446888],[-75.119026,5.446701],[-75.118606,5.446655],[-75.118279,5.44642],[-75.117904,5.446607],[-75.117996,5.447029],[-75.118324,5.447263],[-75.118889,5.447918],[-75.118981,5.448339],[-75.119072,5.449182],[-75.119026,5.449604],[-75.11879,5.449931],[-75.11837,5.449932],[-75.117951,5.449884],[-75.117714,5.449556],[-75.117432,5.449229],[-75.117012,5.449182]]],[[[-75.118001,5.458456],[-75.117971,5.458374],[-75.11854,5.458357],[-75.118364,5.458617],[-75.11821,5.458599],[-75.118071,5.458535],[-75.118001,5.458456]]],[[[-75.110991,5.459528],[-75.110701,5.459435],[-75.110375,5.459435],[-75.110375,5.459361],[-75.110947,5.459405],[-75.111231,5.459527],[-75.110991,5.459528]]],[[[-75.112104,5.460133],[-75.111925,5.459892],[-75.111724,5.459739],[-75.112175,5.459932],[-75.112304,5.459449],[-75.111389,5.458792],[-75.111298,5.458396],[-75.110726,5.457476],[-75.110161,5.457257],[-75.109894,5.456906],[-75.109673,5.45616],[-75.108932,5.455809],[-75.108795,5.455238],[-75.108406,5.454756],[-75.107567,5.454406],[-75.107567,5.453924],[-75.108055,5.45423],[-75.109283,5.454888],[-75.109986,5.455063],[-75.109985,5.455677],[-75.110466,5.456379],[-75.110863,5.457037],[-75.111039,5.456774],[-75.111389,5.457081],[-75.111916,5.457256],[-75.112175,5.457213],[-75.11187,5.456423],[-75.111213,5.456204],[-75.110771,5.455546],[-75.110687,5.45502],[-75.110337,5.454537],[-75.109848,5.454494],[-75.109413,5.453967],[-75.108795,5.453661],[-75.108933,5.453353],[-75.109543,5.453616],[-75.110245,5.453749],[-75.110687,5.454494],[-75.111603,5.454976],[-75.111915,5.455896],[-75.112786,5.45616],[-75.112785,5.455721],[-75.112259,5.45537],[-75.112129,5.454888],[-75.112656,5.454099],[-75.112923,5.454889],[-75.113487,5.455984],[-75.113403,5.456423],[-75.113403,5.456994],[-75.113449,5.457651],[-75.113929,5.457388],[-75.114327,5.455502],[-75.114013,5.455415],[-75.113449,5.454669],[-75.113357,5.454274],[-75.113053,5.453748],[-75.112259,5.453529],[-75.111695,5.45366],[-75.110596,5.452959],[-75.109543,5.452959],[-75.108711,5.452651],[-75.10823,5.453178],[-75.107613,5.453047],[-75.10691,5.453003],[-75.106911,5.452695],[-75.106209,5.452739],[-75.106236,5.452835],[-75.106056,5.452767],[-75.105871,5.452596],[-75.105759,5.452543],[-75.105642,5.45252],[-75.105851,5.452381],[-75.106064,5.4522],[-75.106255,5.452214],[-75.106911,5.451818],[-75.107704,5.451599],[-75.107618,5.450816],[-75.10776,5.4508],[-75.108185,5.450897],[-75.108536,5.450679],[-75.108226,5.450347],[-75.108294,5.449856],[-75.10835,5.449727],[-75.108413,5.449654],[-75.108445,5.449802],[-75.108841,5.449714],[-75.109283,5.449713],[-75.109718,5.449758],[-75.110024,5.45002],[-75.110817,5.450372],[-75.110901,5.450766],[-75.110901,5.451205],[-75.110947,5.451643],[-75.111214,5.45195],[-75.111427,5.451599],[-75.111344,5.451205],[-75.111389,5.450766],[-75.111473,5.450372],[-75.11187,5.450459],[-75.112045,5.450853],[-75.112259,5.451204],[-75.11248,5.450854],[-75.11248,5.450415],[-75.112434,5.449977],[-75.112831,5.449845],[-75.113274,5.449845],[-75.113663,5.449933],[-75.113449,5.450284],[-75.113449,5.45116],[-75.113404,5.451599],[-75.113182,5.45195],[-75.113136,5.452389],[-75.113136,5.452827],[-75.113533,5.452914],[-75.113975,5.452915],[-75.1138,5.452521],[-75.1138,5.452082],[-75.114716,5.451293],[-75.115112,5.451423],[-75.115112,5.451862],[-75.114983,5.452258],[-75.115067,5.452652],[-75.115288,5.453003],[-75.115593,5.453266],[-75.11599,5.453397],[-75.116386,5.45331],[-75.116822,5.453353],[-75.116821,5.45423],[-75.116692,5.454625],[-75.116295,5.45445],[-75.116081,5.454055],[-75.115768,5.453792],[-75.11538,5.453967],[-75.114937,5.453923],[-75.114586,5.454142],[-75.114761,5.454537],[-75.115379,5.455064],[-75.11573,5.455327],[-75.116165,5.455282],[-75.116516,5.455502],[-75.116295,5.455853],[-75.116432,5.456248],[-75.116867,5.456248],[-75.117218,5.456511],[-75.116997,5.456862],[-75.116938,5.456941],[-75.116921,5.456807],[-75.11678,5.456819],[-75.11652,5.456986],[-75.116113,5.457339],[-75.115931,5.457466],[-75.115759,5.457548],[-75.115568,5.457574],[-75.115494,5.45763],[-75.115139,5.458244],[-75.11489,5.458583],[-75.114541,5.458908],[-75.114189,5.458791],[-75.114411,5.458441],[-75.114281,5.458045],[-75.113884,5.458133],[-75.113754,5.458528],[-75.113312,5.458484],[-75.113007,5.458221],[-75.11261,5.458089],[-75.11261,5.458529],[-75.112701,5.458923],[-75.113098,5.459054],[-75.113357,5.459448],[-75.113449,5.459844],[-75.113447,5.460111],[-75.113266,5.460731],[-75.113163,5.460884],[-75.113048,5.46096],[-75.112838,5.460953],[-75.112451,5.460877],[-75.112337,5.460893],[-75.11202,5.461113],[-75.111842,5.461181],[-75.112017,5.460643],[-75.112102,5.460293],[-75.112104,5.460133]]]]},"properties":{"uso_principal":"Protección – producción","vocacion":"Forestal","oferta_ambiental":"Áreas Para Producción","area_ha":204.9138}},{"type":"Feature","id":1,"geometry":{"type":"MultiPolygon","coordinates":[[[[-75.131614,5.43464],[-75.131905,5.43456],[-75.131905,5.434983],[-75.131548,5.434831],[-75.131614,5.43464]]],[[[-75.133729,5.43634],[-75.133751,5.436326],[-75.133751,5.436343],[-75.133729,5.43634]]],[[[-75.130943,5.436707],[-75.130913,5.436098],[-75.131424,5.436225],[-75.131623,5.43592],[-75.131393,5.435414],[-75.131546,5.435211],[-75.131828,5.435515],[-75.132286,5.435667],[-75.132484,5.435313],[-75.13221,5.434629],[-75.132344,5.434546],[-75.132849,5.434974],[-75.132767,5.43511],[-75.13269,5.435439],[-75.132767,5.435743],[-75.132866,5.435896],[-75.133041,5.435946],[-75.13327,5.435768],[-75.133576,5.435794],[-75.133694,5.435688],[-75.134236,5.436145],[-75.134024,5.436258],[-75.133934,5.436123],[-75.133499,5.436022],[-75.133372,5.436189],[-75.133297,5.43615],[-75.133095,5.436162],[-75.132991,5.436193],[-75.132764,5.436321],[-75.132515,5.436174],[-75.132458,5.436489],[-75.132235,5.436607],[-75.132057,5.436453],[-75.131752,5.436478],[-75.131195,5.436656],[-75.130943,5.436707]]],[[[-75.130369,5.437058],[-75.130539,5.436807],[-75.130745,5.437088],[-75.130634,5.437071],[-75.130369,5.437058]]],[[[-75.131394,5.436884],[-75.131828,5.436757],[-75.131846,5.436822],[-75.131675,5.436957],[-75.13152,5.437039],[-75.131391,5.43709],[-75.131216,5.437106],[-75.131394,5.436884]]]]},"properties":{"uso_principal":"Áreas Prioritarias para la Conservación","vocacion":"Áreas Prioritarias para la Conservación","oferta_ambiental":"Áreas Prioritarias para la Conservación","area_ha":2.9881}},{"type":"Feature","id":2,"geometry":{"type":"MultiPolygon","coordinates":[[[[-75.112724,5.433009],[-75.112873,5.432989],[-75.112715,5.433135],[-75.112616,5.433079],[-75.112724,5.433009]]],[[[-75.12994,5.435401],[-75.129937,5.434996],[-75.130003,5.435008],[-75.130069,5.434937],[-75.130111,5.434932],[-75.130335,5.434993],[-75.130561,5.435112],[-75.129871,5.435491],[-75.12994,5.435401]]],[[[-75.132963,5.43478],[-75.132536,5.434424],[-75.132342,5.434545],[-75.132246,5.434464],[-75.131903,5.434558],[-75.131903,5.434424],[-75.132052,5.434353],[-75.132655,5.434323],[-75.132741,5.434281],[-75.132821,5.434199],[-75.133033,5.433613],[-75.13318,5.433375],[-75.133416,5.433075],[-75.133571,5.433],[-75.133636,5.432994],[-75.13392,5.433055],[-75.133977,5.433014],[-75.134071,5.432825],[-75.134628,5.433182],[-75.134184,5.433006],[-75.133955,5.433816],[-75.13365,5.434045],[-75.133169,5.434019],[-75.133444,5.434297],[-75.133826,5.434577],[-75.133803,5.434957],[-75.133551,5.435286],[-75.133856,5.43554],[-75.133692,5.435687],[-75.132847,5.434972],[-75.132963,5.43478]]],[[[-75.134337,5.43597],[-75.134337,5.435134],[-75.134718,5.435083],[-75.134764,5.43559],[-75.135123,5.43564],[-75.13555,5.435362],[-75.135832,5.434804],[-75.135352,5.435058],[-75.134939,5.434931],[-75.134611,5.434399],[-75.134108,5.434146],[-75.13436,5.433892],[-75.134787,5.433942],[-75.134565,5.433639],[-75.134867,5.433312],[-75.135397,5.433555],[-75.135913,5.433857],[-75.136406,5.434196],[-75.136643,5.434393],[-75.136706,5.434488],[-75.136718,5.434554],[-75.136588,5.434724],[-75.136424,5.434866],[-75.136276,5.435044],[-75.136165,5.435237],[-75.136018,5.4354],[-75.135765,5.435595],[-75.135501,5.435728],[-75.135332,5.435737],[-75.135183,5.435796],[-75.134848,5.435847],[-75.134546,5.435999],[-75.134337,5.43597]]],[[[-75.113867,5.436098],[-75.11373,5.435468],[-75.113419,5.435586],[-75.113214,5.435409],[-75.113041,5.435219],[-75.113608,5.435087],[-75.113226,5.434154],[-75.11344,5.433899],[-75.113181,5.433305],[-75.114011,5.433064],[-75.114202,5.433101],[-75.114297,5.433128],[-75.114668,5.433602],[-75.115469,5.433771],[-75.115767,5.433432],[-75.115616,5.433378],[-75.115927,5.433379],[-75.116247,5.433324],[-75.117023,5.433155],[-75.117678,5.432976],[-75.118101,5.432985],[-75.119354,5.43319],[-75.119947,5.433128],[-75.120155,5.433076],[-75.12035,5.433072],[-75.120484,5.433115],[-75.120251,5.433352],[-75.119805,5.433877],[-75.119423,5.433909],[-75.118657,5.434203],[-75.118069,5.434615],[-75.11748,5.435086],[-75.116833,5.435439],[-75.116362,5.435439],[-75.116362,5.435257],[-75.115645,5.434281],[-75.115561,5.434917],[-75.115599,5.435638],[-75.115217,5.435681],[-75.115088,5.434832],[-75.114668,5.435129],[-75.114203,5.434748],[-75.114203,5.435554],[-75.114584,5.436105],[-75.114538,5.436487],[-75.114,5.436307],[-75.113867,5.436098]]],[[[-75.12496,5.436965],[-75.125288,5.436946],[-75.125365,5.437011],[-75.125514,5.437228],[-75.125707,5.437252],[-75.125191,5.437381],[-75.124608,5.437381],[-75.124674,5.437362],[-75.124811,5.437092],[-75.124878,5.437008],[-75.12496,5.436965]]],[[[-75.103504,5.442632],[-75.103436,5.442326],[-75.103573,5.442343],[-75.103639,5.442386],[-75.103504,5.442632]]],[[[-75.099253,5.450349],[-75.09859,5.450252],[-75.098397,5.450256],[-75.098271,5.450317],[-75.098321,5.449734],[-75.09853,5.44861],[-75.098554,5.448261],[-75.098558,5.447259],[-75.098661,5.446437],[-75.098598,5.44618],[-75.098684,5.446219],[-75.098685,5.447003],[-75.098646,5.447344],[-75.099295,5.447753],[-75.099943,5.447822],[-75.100386,5.447446],[-75.100111,5.446663],[-75.100356,5.446458],[-75.101034,5.446969],[-75.101141,5.447275],[-75.101851,5.447651],[-75.102074,5.44758],[-75.101848,5.447793],[-75.101883,5.448193],[-75.101854,5.448593],[-75.102553,5.448925],[-75.102577,5.449597],[-75.102448,5.44957],[-75.10232,5.449591],[-75.102174,5.449652],[-75.101684,5.449938],[-75.10143,5.449986],[-75.101277,5.449986],[-75.100868,5.449878],[-75.100634,5.449895],[-75.100485,5.449947],[-75.100212,5.450456],[-75.10011,5.450589],[-75.099995,5.450643],[-75.099874,5.450643],[-75.09968,5.450508],[-75.099508,5.45043],[-75.099253,5.450349]]],[[[-75.108183,5.450896],[-75.107758,5.450798],[-75.107939,5.450801],[-75.108155,5.450629],[-75.108214,5.450445],[-75.108225,5.450345],[-75.108534,5.450677],[-75.108183,5.450896]]],[[[-75.107495,5.450878],[-75.107617,5.450815],[-75.107703,5.451598],[-75.106909,5.451817],[-75.106253,5.452212],[-75.106062,5.452199],[-75.106835,5.451696],[-75.107107,5.451373],[-75.107209,5.451185],[-75.107334,5.451023],[-75.107495,5.450878]]],[[[-75.116515,5.455501],[-75.116163,5.455281],[-75.115729,5.455326],[-75.115378,5.455063],[-75.11476,5.454536],[-75.114584,5.454141],[-75.114935,5.453922],[-75.115378,5.453966],[-75.115767,5.453791],[-75.11608,5.454054],[-75.116293,5.454449],[-75.11669,5.454623],[-75.11682,5.454229],[-75.11682,5.453352],[-75.116384,5.453308],[-75.115988,5.453396],[-75.115592,5.453264],[-75.115286,5.453002],[-75.115065,5.452651],[-75.114981,5.452256],[-75.11511,5.45186],[-75.115111,5.451422],[-75.114714,5.451292],[-75.113799,5.452081],[-75.113798,5.452519],[-75.113974,5.452914],[-75.113532,5.452913],[-75.113135,5.452826],[-75.113135,5.452387],[-75.11318,5.451949],[-75.113402,5.451598],[-75.113448,5.451159],[-75.113448,5.450282],[-75.113661,5.449932],[-75.113272,5.449844],[-75.112829,5.449844],[-75.112433,5.449975],[-75.112479,5.450414],[-75.112479,5.450852],[-75.112257,5.451203],[-75.112043,5.450852],[-75.111868,5.450458],[-75.111471,5.45037],[-75.111388,5.450765],[-75.111342,5.451204],[-75.111425,5.451598],[-75.111212,5.451949],[-75.110945,5.451642],[-75.110899,5.451203],[-75.110899,5.450765],[-75.110816,5.45037],[-75.110022,5.450019],[-75.109717,5.449756],[-75.109282,5.449712],[-75.108839,5.449713],[-75.108443,5.4498],[-75.108411,5.449653],[-75.108555,5.449561],[-75.108667,5.449524],[-75.108688,5.448911],[-75.108557,5.448517],[-75.108405,5.447826],[-75.108267,5.447432],[-75.108054,5.447082],[-75.107786,5.447388],[-75.107581,5.4477],[-75.107214,5.447782],[-75.106955,5.447782],[-75.10665,5.44752],[-75.10652,5.447169],[-75.106429,5.446731],[-75.105948,5.44702],[-75.105799,5.446457],[-75.10561,5.446031],[-75.105454,5.44588],[-75.105267,5.445768],[-75.104579,5.445726],[-75.104197,5.44578],[-75.103762,5.446163],[-75.103424,5.446538],[-75.102778,5.447046],[-75.102546,5.447126],[-75.102499,5.446901],[-75.102057,5.446423],[-75.101683,5.446184],[-75.101539,5.446006],[-75.101792,5.445987],[-75.101922,5.445953],[-75.101149,5.445323],[-75.100767,5.445048],[-75.100676,5.444865],[-75.100601,5.444643],[-75.100935,5.44482],[-75.101202,5.445059],[-75.101378,5.44482],[-75.101851,5.445093],[-75.101889,5.445605],[-75.102263,5.445195],[-75.102812,5.446389],[-75.103079,5.446662],[-75.103316,5.44603],[-75.104193,5.445503],[-75.104368,5.444845],[-75.104101,5.44445],[-75.10459,5.444582],[-75.104941,5.445064],[-75.105597,5.445196],[-75.105948,5.445502],[-75.106298,5.445853],[-75.10652,5.445502],[-75.10713,5.445458],[-75.107352,5.445065],[-75.107916,5.445327],[-75.108137,5.445809],[-75.108839,5.446249],[-75.109282,5.446248],[-75.110113,5.446205],[-75.110548,5.446073],[-75.111166,5.445721],[-75.111296,5.446161],[-75.110816,5.446424],[-75.11077,5.446818],[-75.109938,5.447607],[-75.109366,5.447958],[-75.109366,5.448704],[-75.109808,5.449274],[-75.110594,5.449537],[-75.11051,5.448529],[-75.110197,5.448222],[-75.110548,5.447914],[-75.11064,5.447476],[-75.111472,5.447564],[-75.111342,5.44673],[-75.111693,5.446029],[-75.111998,5.44638],[-75.111952,5.447257],[-75.112608,5.448134],[-75.112395,5.448529],[-75.112433,5.449362],[-75.113623,5.449449],[-75.113135,5.44866],[-75.113577,5.448353],[-75.113974,5.449142],[-75.114455,5.448879],[-75.114409,5.448221],[-75.113837,5.447696],[-75.112959,5.447345],[-75.112875,5.446949],[-75.113226,5.446336],[-75.11331,5.445941],[-75.113532,5.445283],[-75.113882,5.444845],[-75.115065,5.444275],[-75.116255,5.443661],[-75.11669,5.443134],[-75.115767,5.442257],[-75.115332,5.442477],[-75.114805,5.442959],[-75.114584,5.443661],[-75.113837,5.443354],[-75.112303,5.442827],[-75.112127,5.44331],[-75.112433,5.44388],[-75.113005,5.444056],[-75.113661,5.44445],[-75.113005,5.444845],[-75.112394,5.44445],[-75.111777,5.443836],[-75.111693,5.443046],[-75.111296,5.442915],[-75.11125,5.443178],[-75.111387,5.443749],[-75.11112,5.44388],[-75.110861,5.44331],[-75.110899,5.442521],[-75.109984,5.442389],[-75.109587,5.442785],[-75.108839,5.442389],[-75.108183,5.4416],[-75.107611,5.442039],[-75.107916,5.442565],[-75.108755,5.443134],[-75.108488,5.443442],[-75.108359,5.443837],[-75.108137,5.444274],[-75.108404,5.444362],[-75.108885,5.443661],[-75.10932,5.443178],[-75.110159,5.44331],[-75.110594,5.443705],[-75.110289,5.444537],[-75.109633,5.444231],[-75.110022,5.44388],[-75.109633,5.443573],[-75.109236,5.443749],[-75.108885,5.444318],[-75.109144,5.444844],[-75.108755,5.445152],[-75.108092,5.444845],[-75.107527,5.444362],[-75.107481,5.443661],[-75.108053,5.443266],[-75.107482,5.442564],[-75.106298,5.442916],[-75.105681,5.443135],[-75.10533,5.44353],[-75.104895,5.443222],[-75.104101,5.443397],[-75.103621,5.443705],[-75.103667,5.444143],[-75.103224,5.444582],[-75.103011,5.445371],[-75.102744,5.445059],[-75.102942,5.444479],[-75.102842,5.44424],[-75.102362,5.444445],[-75.101988,5.444752],[-75.101683,5.444445],[-75.101545,5.444139],[-75.101241,5.444343],[-75.101004,5.44407],[-75.101309,5.443592],[-75.100867,5.443593],[-75.10085,5.443514],[-75.100966,5.4435],[-75.101481,5.443563],[-75.101674,5.443532],[-75.101849,5.44384],[-75.102075,5.444099],[-75.102238,5.444141],[-75.102349,5.444132],[-75.102707,5.443932],[-75.102855,5.443905],[-75.103,5.44392],[-75.103196,5.444019],[-75.103389,5.444208],[-75.103453,5.443804],[-75.103523,5.44307],[-75.103516,5.442837],[-75.104315,5.442765],[-75.105124,5.442383],[-75.105757,5.442511],[-75.105875,5.442475],[-75.10632,5.4425],[-75.10669,5.442399],[-75.106983,5.442263],[-75.107246,5.442092],[-75.107508,5.441787],[-75.107693,5.441615],[-75.107849,5.441484],[-75.107965,5.441466],[-75.108114,5.441487],[-75.108644,5.441646],[-75.108945,5.441777],[-75.10925,5.44198],[-75.109537,5.44211],[-75.109653,5.442056],[-75.109765,5.441921],[-75.109856,5.441703],[-75.109968,5.441524],[-75.110051,5.441444],[-75.110436,5.441292],[-75.109999,5.441831],[-75.110762,5.441874],[-75.111357,5.441832],[-75.111906,5.44217],[-75.112418,5.441577],[-75.112464,5.442298],[-75.113608,5.442255],[-75.114409,5.442808],[-75.114668,5.442213],[-75.115347,5.441789],[-75.116362,5.441959],[-75.11648,5.441786],[-75.116539,5.441913],[-75.116951,5.442561],[-75.117657,5.442737],[-75.118363,5.442561],[-75.118952,5.442149],[-75.119187,5.441443],[-75.119246,5.440736],[-75.121012,5.4395],[-75.120835,5.438794],[-75.120188,5.4385],[-75.119423,5.438205],[-75.118893,5.437676],[-75.118599,5.436969],[-75.119364,5.436969],[-75.12007,5.436557],[-75.119599,5.436028],[-75.119656,5.435351],[-75.119752,5.435503],[-75.119854,5.435596],[-75.120232,5.435686],[-75.120463,5.435815],[-75.121365,5.436616],[-75.121954,5.437087],[-75.122035,5.437187],[-75.122428,5.438007],[-75.122562,5.438207],[-75.123022,5.438652],[-75.123059,5.438495],[-75.123149,5.438372],[-75.123274,5.438337],[-75.123419,5.438354],[-75.123646,5.438418],[-75.123744,5.438412],[-75.12391,5.438345],[-75.123991,5.438266],[-75.124061,5.438163],[-75.12406,5.438073],[-75.124602,5.438323],[-75.125309,5.438735],[-75.126015,5.438676],[-75.126662,5.438382],[-75.12731,5.43797],[-75.127957,5.437676],[-75.128546,5.437264],[-75.129193,5.436793],[-75.129136,5.436044],[-75.129206,5.435969],[-75.129295,5.43573],[-75.129419,5.435661],[-75.129632,5.435622],[-75.129311,5.436592],[-75.129098,5.438668],[-75.12904,5.438698],[-75.128868,5.438901],[-75.12882,5.439001],[-75.128823,5.439228],[-75.128357,5.440051],[-75.127506,5.440665],[-75.127462,5.440654],[-75.127214,5.440472],[-75.127109,5.440454],[-75.126977,5.440469],[-75.126365,5.440719],[-75.126204,5.440716],[-75.125886,5.440651],[-75.12574,5.440678],[-75.125588,5.440768],[-75.125448,5.440924],[-75.125388,5.441167],[-75.125377,5.441454],[-75.125332,5.441778],[-75.125372,5.442239],[-75.125366,5.442443],[-75.125331,5.44265],[-75.125253,5.442767],[-75.125113,5.442815],[-75.124853,5.442792],[-75.124772,5.442846],[-75.124736,5.442924],[-75.124664,5.443498],[-75.124606,5.443651],[-75.124539,5.443739],[-75.124414,5.443787],[-75.124249,5.443766],[-75.124148,5.443723],[-75.124082,5.443662],[-75.124025,5.443572],[-75.123884,5.443119],[-75.123822,5.443055],[-75.123657,5.443004],[-75.123537,5.443062],[-75.12345,5.443195],[-75.123316,5.443806],[-75.122889,5.444962],[-75.122727,5.445985],[-75.12261,5.446463],[-75.12252,5.446976],[-75.122434,5.447353],[-75.122261,5.447919],[-75.122094,5.448282],[-75.12168,5.448754],[-75.121326,5.449069],[-75.121159,5.449386],[-75.121055,5.449725],[-75.120986,5.449858],[-75.120645,5.450274],[-75.120288,5.450969],[-75.120097,5.451238],[-75.120013,5.451475],[-75.119878,5.451755],[-75.119816,5.451846],[-75.119683,5.451947],[-75.119789,5.452387],[-75.119829,5.453322],[-75.119892,5.453566],[-75.119993,5.453796],[-75.120206,5.454176],[-75.120177,5.454437],[-75.120096,5.454437],[-75.120114,5.454624],[-75.120088,5.454902],[-75.120024,5.455169],[-75.119855,5.455674],[-75.119599,5.456241],[-75.119206,5.45737],[-75.11894,5.457837],[-75.118538,5.458355],[-75.117971,5.458374],[-75.118001,5.458156],[-75.117946,5.457968],[-75.117761,5.457836],[-75.117322,5.457623],[-75.117128,5.457425],[-75.116988,5.457102],[-75.116936,5.456928],[-75.117216,5.45651],[-75.116866,5.456247],[-75.116431,5.456247],[-75.116293,5.455851],[-75.116515,5.455501]],[[-75.117994,5.447027],[-75.117903,5.446606],[-75.118277,5.446419],[-75.118605,5.446653],[-75.119024,5.4467],[-75.119444,5.446887],[-75.119863,5.44698],[-75.1201,5.446653],[-75.120383,5.446326],[-75.120291,5.445903],[-75.119917,5.445717],[-75.11949,5.445904],[-75.119215,5.445576],[-75.119261,5.445155],[-75.119444,5.44478],[-75.119864,5.444733],[-75.120192,5.444968],[-75.120573,5.445155],[-75.120993,5.445295],[-75.121741,5.445764],[-75.12216,5.44567],[-75.122443,5.445343],[-75.122488,5.444921],[-75.122351,5.4445],[-75.122114,5.444172],[-75.122305,5.443798],[-75.122488,5.443376],[-75.122488,5.443048],[-75.12258,5.442908],[-75.123007,5.442768],[-75.123007,5.441505],[-75.122908,5.441082],[-75.122534,5.440895],[-75.122305,5.441223],[-75.12216,5.441644],[-75.122206,5.442065],[-75.12216,5.442487],[-75.121741,5.442628],[-75.121504,5.442299],[-75.121084,5.442347],[-75.120947,5.442768],[-75.120573,5.442955],[-75.120146,5.442909],[-75.120146,5.443329],[-75.119864,5.443657],[-75.119444,5.443657],[-75.119116,5.443892],[-75.119024,5.444313],[-75.118887,5.444734],[-75.118559,5.444968],[-75.118277,5.445296],[-75.117903,5.44553],[-75.117483,5.445576],[-75.117247,5.445249],[-75.117056,5.444875],[-75.116782,5.445202],[-75.116354,5.445202],[-75.116171,5.445576],[-75.116171,5.445998],[-75.116026,5.446419],[-75.115652,5.446607],[-75.115515,5.447027],[-75.115279,5.447355],[-75.11495,5.447636],[-75.114859,5.448058],[-75.11505,5.448432],[-75.11547,5.448478],[-75.115798,5.448759],[-75.115752,5.449181],[-75.116171,5.449274],[-75.116591,5.449181],[-75.117011,5.449181],[-75.11743,5.449228],[-75.117712,5.449555],[-75.117949,5.449882],[-75.118369,5.44993],[-75.118788,5.44993],[-75.119024,5.449602],[-75.119071,5.449181],[-75.118979,5.448338],[-75.118887,5.447916],[-75.118323,5.447262],[-75.117994,5.447027]]],[[[-75.110945,5.459404],[-75.110373,5.45936],[-75.110373,5.459433],[-75.110097,5.459473],[-75.110171,5.459321],[-75.110189,5.459184],[-75.110175,5.458973],[-75.109949,5.458348],[-75.109728,5.457963],[-75.109211,5.457311],[-75.109037,5.457024],[-75.108914,5.456762],[-75.108867,5.456207],[-75.108801,5.456029],[-75.108706,5.455921],[-75.108368,5.455625],[-75.108279,5.455475],[-75.108125,5.455312],[-75.107461,5.454995],[-75.107212,5.454785],[-75.107235,5.45422],[-75.107219,5.454075],[-75.107164,5.453976],[-75.107065,5.453893],[-75.10687,5.4538],[-75.106799,5.453717],[-75.106749,5.453604],[-75.106489,5.453523],[-75.10643,5.453447],[-75.106414,5.453358],[-75.106446,5.453045],[-75.1064,5.45291],[-75.106234,5.452834],[-75.106207,5.452738],[-75.106909,5.452694],[-75.106909,5.453001],[-75.107611,5.453045],[-75.108229,5.453177],[-75.108709,5.45265],[-75.109541,5.452957],[-75.110594,5.452958],[-75.111693,5.453659],[-75.112257,5.453528],[-75.113051,5.453747],[-75.113356,5.454273],[-75.113447,5.454667],[-75.114012,5.455413],[-75.114325,5.455501],[-75.113928,5.457387],[-75.113447,5.45765],[-75.113402,5.456992],[-75.113402,5.456421],[-75.113486,5.455983],[-75.112921,5.454887],[-75.112654,5.454098],[-75.112128,5.454887],[-75.112257,5.455369],[-75.112784,5.45572],[-75.112784,5.456159],[-75.111914,5.455895],[-75.111601,5.454974],[-75.110686,5.454492],[-75.110243,5.453747],[-75.109541,5.453615],[-75.108931,5.453352],[-75.108793,5.453659],[-75.109411,5.453966],[-75.109847,5.454493],[-75.110335,5.454536],[-75.110685,5.455019],[-75.11077,5.455544],[-75.111212,5.456203],[-75.111868,5.456422],[-75.112173,5.457211],[-75.111914,5.457255],[-75.111388,5.457079],[-75.111037,5.456773],[-75.110861,5.457036],[-75.110464,5.456378],[-75.109984,5.455676],[-75.109984,5.455062],[-75.109282,5.454887],[-75.108053,5.454229],[-75.107565,5.453923],[-75.107565,5.454405],[-75.108405,5.454755],[-75.108793,5.455237],[-75.108931,5.455808],[-75.109671,5.456159],[-75.109892,5.456904],[-75.110159,5.457255],[-75.110724,5.457475],[-75.111296,5.458395],[-75.111388,5.45879],[-75.112303,5.459448],[-75.112173,5.459931],[-75.111723,5.459737],[-75.111561,5.459637],[-75.110945,5.459404]]],[[[-75.112608,5.458527],[-75.112608,5.458088],[-75.113005,5.45822],[-75.11331,5.458483],[-75.113753,5.458526],[-75.113882,5.458132],[-75.114279,5.458044],[-75.114409,5.458439],[-75.114187,5.45879],[-75.114539,5.458907],[-75.114239,5.459205],[-75.114058,5.459349],[-75.11389,5.459449],[-75.113685,5.459685],[-75.113447,5.460111],[-75.113448,5.459842],[-75.113356,5.459447],[-75.113097,5.459053],[-75.1127,5.458922],[-75.112608,5.458527]]]]},"properties":{"uso_principal":"Áreas Prioritarias para la Conservación","vocacion":"Áreas Prioritarias para la Conservación","oferta_ambiental":"Áreas Prioritarias para la Conservación","area_ha":246.1851}},{"type":"Feature","id":3,"geometry":{"type":"MultiPolygon","coordinates":[[[[-75.132866,5.435896],[-75.132767,5.435743],[-75.13269,5.435439],[-75.132767,5.43511],[-75.132849,5.434974],[-75.133694,5.435688],[-75.133576,5.435794],[-75.13327,5.435768],[-75.133041,5.435946],[-75.132866,5.435896]]],[[[-75.133751,5.436343],[-75.133751,5.436326],[-75.133652,5.43633],[-75.133537,5.436285],[-75.133372,5.436189],[-75.133499,5.436022],[-75.133934,5.436123],[-75.134024,5.436258],[-75.133936,5.436301],[-75.133751,5.436343]]],[[[-75.132458,5.436489],[-75.132515,5.436174],[-75.132764,5.436321],[-75.132679,5.436371],[-75.132458,5.436489]]],[[[-75.129099,5.438669],[-75.129312,5.436594],[-75.129631,5.435625],[-75.129755,5.435581],[-75.129873,5.435492],[-75.130563,5.435114],[-75.130781,5.435355],[-75.130896,5.435233],[-75.130963,5.435221],[-75.131175,5.435265],[-75.13139,5.435278],[-75.131512,5.435188],[-75.131558,5.435121],[-75.131548,5.434831],[-75.131905,5.434983],[-75.131905,5.43456],[-75.132248,5.434465],[-75.132344,5.434546],[-75.13221,5.434629],[-75.132484,5.435313],[-75.132286,5.435667],[-75.131828,5.435515],[-75.131546,5.435211],[-75.131393,5.435414],[-75.131623,5.43592],[-75.131424,5.436225],[-75.130913,5.436098],[-75.130943,5.436707],[-75.131195,5.436656],[-75.131752,5.436478],[-75.132057,5.436453],[-75.132235,5.436607],[-75.131846,5.436822],[-75.131828,5.436757],[-75.131394,5.436884],[-75.131216,5.437106],[-75.130997,5.437136],[-75.130842,5.437125],[-75.130745,5.437088],[-75.130539,5.436807],[-75.130369,5.437058],[-75.129925,5.436994],[-75.129912,5.437682],[-75.129859,5.438023],[-75.129803,5.438223],[-75.129629,5.438497],[-75.12952,5.438571],[-75.129099,5.438669]]],[[[-75.127508,5.440666],[-75.128359,5.440053],[-75.128825,5.439229],[-75.128652,5.439709],[-75.128619,5.439991],[-75.12856,5.440198],[-75.128495,5.44036],[-75.12839,5.440537],[-75.128295,5.440618],[-75.128023,5.440609],[-75.127613,5.440691],[-75.127508,5.440666]]]]},"properties":{"uso_principal":"Áreas Prioritarias para la Conservación","vocacion":"Áreas Prioritarias para la Conservación","oferta_ambiental":"Áreas Prioritarias para la Conservación","area_ha":7.6105}}]}