{"type":"FeatureCollection","features":[{"type":"Feature","id":0,"geometry":{"type":"Polygon","coordinates":[[[-75.07473,5.49319],[-75.07501,5.49278],[-75.07472,5.49167],[-75.07445,5.48805],[-75.07389,5.48633],[-75.07445,5.48528],[-75.07472,5.48356],[-75.07416,5.48251],[-75.07373,5.48069],[-75.07223,5.47998],[-75.07889,5.47864],[-75.07888,5.47448],[-75.08303,5.47447],[-75.08717,5.4703],[-75.08716,5.46407],[-75.09131,5.46406],[-75.09128,5.44534],[-75.09336,5.44534],[-75.09126,5.43079],[-75.0954,5.42662],[-75.09539,5.4183],[-75.09331,5.41831],[-75.09121,5.40375],[-75.08499,5.40376],[-75.08497,5.39337],[-75.0829,5.39337],[-75.08496,5.38505],[-75.08703,5.38296],[-75.09133,5.38296],[-75.09333,5.38377],[-75.09441,5.3832],[-75.09638,5.38473],[-75.09945,5.38666],[-75.10213,5.38927],[-75.1028,5.39208],[-75.10449,5.39308],[-75.10573,5.3943],[-75.10612,5.39678],[-75.10735,5.39757],[-75.10872,5.39932],[-75.11058,5.40104],[-75.11222,5.40445],[-75.11606,5.40611],[-75.12004,5.40696],[-75.12321,5.40698],[-75.12568,5.40781],[-75.12722,5.40775],[-75.12755,5.40879],[-75.12841,5.4092],[-75.13002,5.41093],[-75.13189,5.4123],[-75.13221,5.4156],[-75.13305,5.41889],[-75.13364,5.42001],[-75.13351,5.42319],[-75.13448,5.42476],[-75.13677,5.42591],[-75.13747,5.42667],[-75.14112,5.42749],[-75.1418,5.42786],[-75.14512,5.42781],[-75.14638,5.42694],[-75.14713,5.42697],[-75.14805,5.42825],[-75.14658,5.43039],[-75.14585,5.43106],[-75.14501,5.43251],[-75.14438,5.43308],[-75.14359,5.43305],[-75.14304,5.43364],[-75.14194,5.43416],[-75.14068,5.43552],[-75.13917,5.43862],[-75.13805,5.43999],[-75.13769,5.44188],[-75.13677,5.44393],[-75.13545,5.44478],[-75.13473,5.44556],[-75.13243,5.44593],[-75.13194,5.44697],[-75.1304,5.4477],[-75.12922,5.44952],[-75.12878,5.45091],[-75.12745,5.45255],[-75.12751,5.45408],[-75.12035,5.45569],[-75.1183,5.47025],[-75.11415,5.47026],[-75.11417,5.47858],[-75.10587,5.48067],[-75.10172,5.48484],[-75.10173,5.489],[-75.09758,5.489],[-75.09592,5.50251],[-75.09323,5.5024],[-75.09251,5.50278],[-75.09138,5.50305],[-75.09138,5.50149],[-75.08723,5.5015],[-75.08722,5.49942],[-75.07477,5.49736],[-75.07473,5.49319]]]},"properties":{"zona_vida":"BOSQUE MUY HUMEDO MONTANO BAJO","simbolo":"bmh-MB","precipitacion_mm":"2000 a 400","temperatura_c":"12 a 18","altitud_m":"2000-2500","area_ha":4638.6334}},{"type":"Feature","id":1,"geometry":{"type":"Polygon","coordinates":[[[-75.01447,5.42255],[-75.01446,5.41843],[-75.01654,5.41843],[-75.01648,5.38479],[-75.01783,5.38386],[-75.01857,5.38307],[-75.01875,5.38194],[-75.02478,5.3789],[-75.02683,5.3685],[-75.02891,5.3685],[-75.03099,5.37474],[-75.04137,5.37472],[-75.04136,5.37264],[-75.05175,5.37678],[-75.05798,5.38509],[-75.06213,5.38508],[-75.06214,5.38924],[-75.07045,5.39547],[-75.07254,5.40378],[-75.07461,5.40378],[-75.07463,5.4121],[-75.0767,5.41209],[-75.07465,5.42458],[-75.06636,5.43291],[-75.06221,5.43291],[-75.05393,5.44333],[-75.05297,5.44365],[-75.05244,5.44331],[-75.05088,5.44162],[-75.05056,5.44027],[-75.04972,5.43917],[-75.04914,5.43661],[-75.04806,5.43561],[-75.04778,5.43444],[-75.04649,5.4331],[-75.04612,5.43194],[-75.04498,5.43137],[-75.04502,5.43056],[-75.04329,5.42949],[-75.04136,5.42917],[-75.04084,5.43028],[-75.04019,5.43059],[-75.03877,5.43053],[-75.03511,5.42879],[-75.03434,5.4276],[-75.03328,5.42692],[-75.0323,5.42586],[-75.03162,5.42554],[-75.03075,5.42555],[-75.02942,5.42415],[-75.02801,5.42416],[-75.02667,5.42556],[-75.02558,5.42627],[-75.0228,5.42578],[-75.02111,5.42583],[-75.02002,5.4264],[-75.01909,5.42608],[-75.01757,5.4261],[-75.01487,5.42381],[-75.01447,5.42255]]]},"properties":{"zona_vida":"BOSQUE PLUVIAL PREMONTANO","simbolo":"bp-PM","precipitacion_mm":">4000","temperatura_c":"18 a 24","altitud_m":"1000-2000","area_ha":3582.7867}},{"type":"Feature","id":2,"geometry":{"type":"MultiPolygon","coordinates":[[[[-75.06812,5.4762],[-75.06667,5.47444],[-75.06598,5.47411],[-75.06415,5.47418],[-75.0636,5.47359],[-75.0615,5.47292],[-75.05888,5.47251],[-75.05688,5.47162],[-75.05459,5.47193],[-75.05276,5.47082],[-75.05279,5.47018],[-75.05362,5.46862],[-75.05359,5.46255],[-75.05472,5.45888],[-75.05615,5.4572],[-75.05733,5.45724],[-75.05907,5.45503],[-75.05777,5.45334],[-75.05744,5.45161],[-75.05751,5.44998],[-75.05637,5.44892],[-75.0564,5.4483],[-75.05556,5.44666],[-75.05466,5.44604],[-75.05378,5.44417],[-75.05297,5.44365],[-75.05393,5.44333],[-75.06221,5.43291],[-75.06636,5.43291],[-75.07465,5.42458],[-75.0767,5.41209],[-75.07463,5.4121],[-75.07461,5.40378],[-75.07254,5.40378],[-75.07045,5.39547],[-75.06214,5.38924],[-75.06213,5.38508],[-75.05798,5.38509],[-75.05175,5.37678],[-75.04136,5.37264],[-75.04136,5.37056],[-75.04758,5.36431],[-75.04804,5.36431],[-75.04767,5.36681],[-75.04882,5.36831],[-75.04823,5.36999],[-75.04748,5.3714],[-75.04755,5.37314],[-75.04915,5.37478],[-75.05189,5.37476],[-75.0525,5.37444],[-75.05281,5.37445],[-75.05333,5.37501],[-75.05501,5.37527],[-75.05552,5.37583],[-75.05733,5.37643],[-75.06007,5.37633],[-75.06214,5.37775],[-75.06416,5.37722],[-75.06874,5.37769],[-75.07076,5.37716],[-75.07273,5.37816],[-75.07313,5.37942],[-75.07592,5.37986],[-75.07694,5.37916],[-75.07948,5.37796],[-75.08189,5.37876],[-75.08543,5.37953],[-75.08813,5.3822],[-75.09001,5.38249],[-75.09133,5.38296],[-75.08703,5.38296],[-75.08496,5.38505],[-75.0829,5.39337],[-75.08497,5.39337],[-75.08499,5.40376],[-75.09121,5.40375],[-75.09331,5.41831],[-75.09539,5.4183],[-75.0954,5.42662],[-75.09126,5.43079],[-75.09336,5.44534],[-75.09128,5.44534],[-75.09131,5.46406],[-75.08716,5.46407],[-75.08717,5.4703],[-75.08303,5.47447],[-75.07888,5.47448],[-75.07889,5.47864],[-75.07223,5.47998],[-75.07032,5.47904],[-75.06969,5.4777],[-75.06812,5.4762]]],[[[-75.09592,5.50251],[-75.09758,5.489],[-75.10173,5.489],[-75.10172,5.48484],[-75.10587,5.48067],[-75.11417,5.47858],[-75.11415,5.47026],[-75.1183,5.47025],[-75.12035,5.45569],[-75.12751,5.45408],[-75.12753,5.4544],[-75.1267,5.45641],[-75.12502,5.45797],[-75.12351,5.45845],[-75.12135,5.46032],[-75.12019,5.46087],[-75.11973,5.46473],[-75.11943,5.46529],[-75.11945,5.46584],[-75.11889,5.46783],[-75.11972,5.46967],[-75.11861,5.47222],[-75.11834,5.47417],[-75.11805,5.47472],[-75.11811,5.4763],[-75.11777,5.47694],[-75.11747,5.47823],[-75.11607,5.47892],[-75.11529,5.48057],[-75.11416,5.48222],[-75.11372,5.48316],[-75.11061,5.4848],[-75.11026,5.4859],[-75.11032,5.48729],[-75.10876,5.48932],[-75.10749,5.49256],[-75.10666,5.49333],[-75.10672,5.49471],[-75.10607,5.49501],[-75.1041,5.49713],[-75.10418,5.49917],[-75.10194,5.49944],[-75.10123,5.49981],[-75.10028,5.50084],[-75.09944,5.50111],[-75.09834,5.50195],[-75.09659,5.50254],[-75.09592,5.50251]]],[[[-75.07444,5.49361],[-75.07476,5.4932],[-75.07477,5.49736],[-75.08722,5.49942],[-75.08723,5.5015],[-75.09138,5.50149],[-75.09138,5.50305],[-75.09088,5.50317],[-75.09056,5.50417],[-75.08917,5.50501],[-75.08474,5.50711],[-75.08139,5.50555],[-75.07915,5.50479],[-75.07772,5.50298],[-75.07695,5.50225],[-75.07667,5.50111],[-75.07441,5.49964],[-75.07448,5.49781],[-75.07312,5.49613],[-75.07389,5.49501],[-75.07444,5.49361]]]]},"properties":{"zona_vida":"BOSQUE MUY HUMEDO PREMONTANO","simbolo":"bmh-PM","precipitacion_mm":"2000 a 4000","temperatura_c":"18 a 24","altitud_m":"1000-2000","area_ha":3658.5726}},{"type":"Feature","id":3,"geometry":{"type":"MultiPolygon","coordinates":[[[[-75.02191,5.36856],[-75.02197,5.36701],[-75.02389,5.36473],[-75.02416,5.36333],[-75.02481,5.36239],[-75.02643,5.36089],[-75.02765,5.36056],[-75.02814,5.36261],[-75.02866,5.36309],[-75.03002,5.36304],[-75.02891,5.36642],[-75.02891,5.3685],[-75.02683,5.3685],[-75.02478,5.3789],[-75.01875,5.38194],[-75.01888,5.38111],[-75.01957,5.3793],[-75.02138,5.37714],[-75.02166,5.37222],[-75.02225,5.37111],[-75.02223,5.36916],[-75.02191,5.36856]]],[[[-75.01135,5.41856],[-75.01175,5.4155],[-75.01104,5.41588],[-75.00944,5.41584],[-75.00904,5.4154],[-75.01084,5.41278],[-75.01111,5.41111],[-75.01168,5.41002],[-75.01135,5.40909],[-75.0114,5.40787],[-75.01027,5.40639],[-75.00993,5.40568],[-75.00997,5.40305],[-75.01138,5.40175],[-75.01172,5.39994],[-75.01165,5.39817],[-75.01083,5.39778],[-75.00941,5.39663],[-75.00804,5.39668],[-75.00577,5.3943],[-75.00528,5.3934],[-75.00687,5.39132],[-75.00633,5.38924],[-75.00702,5.38823],[-75.00894,5.38749],[-75.00998,5.38753],[-75.01138,5.38638],[-75.01224,5.38611],[-75.01219,5.38488],[-75.01351,5.38417],[-75.0155,5.38554],[-75.01648,5.38479],[-75.01654,5.41843],[-75.01446,5.41843],[-75.01447,5.42255],[-75.01389,5.42138],[-75.01277,5.42001],[-75.01251,5.41944],[-75.01135,5.41856]]]]},"properties":{"zona_vida":"BOSQUE MUY HUMEDO PREMONTANO","simbolo":"bmh-PM","precipitacion_mm":"2000 a 4000","temperatura_c":"18 a 24","altitud_m":"1000-2000","area_ha":398.1685}},{"type":"Feature","id":4,"geometry":{"type":"Polygon","coordinates":[[[-75.02891,5.3685],[-75.02891,5.36642],[-75.04136,5.37056],[-75.04137,5.37472],[-75.03099,5.37474],[-75.02891,5.3685]]]},"properties":{"zona_vida":"BOSQUE MUY HUMEDO TROPICAL","simbolo":"bmh-T","precipitacion_mm":"4000 a 8000","temperatura_c":"> 24","altitud_m":"0-1000","area_ha":87.2306}},{"type":"Feature","id":5,"geometry":{"type":"Polygon","coordinates":[[[-75.02891,5.36642],[-75.03002,5.36304],[-75.03081,5.36307],[-75.03169,5.36276],[-75.03525,5.3628],[-75.03786,5.36212],[-75.0406,5.35974],[-75.04306,5.35945],[-75.04319,5.35931],[-75.04362,5.35944],[-75.04583,5.36139],[-75.04778,5.36249],[-75.04824,5.36299],[-75.04804,5.36431],[-75.04758,5.36431],[-75.04136,5.37056],[-75.02891,5.36642]]]},"properties":{"zona_vida":"BOSQUE HUMEDO TROPICAL","simbolo":"bh-T","precipitacion_mm":"2000 a 4000","temperatura_c":"> 24","altitud_m":"0-1000","area_ha":148.1318}}]}