{"type":"FeatureCollection","features":[{"type":"Feature","id":0,"geometry":{"type":"LineString","coordinates":[[-75.134139,5.435223],[-75.134456,5.435626],[-75.134448,5.435898],[-75.134327,5.436363],[-75.133878,5.436572],[-75.13359,5.436602],[-75.133393,5.436435]]},"properties":{"ruta":"R5","descripcion":"CASAS RAB - PREDIO ILDAMIRO - TIEMPO ESTIMADO 8 HORAS","longitud_km":0.2555}},{"type":"Feature","id":1,"geometry":{"type":"LineString","coordinates":[[-75.112881,5.439612],[-75.112931,5.439512],[-75.11293,5.439438],[-75.113028,5.439475],[-75.112991,5.439353],[-75.1129,5.439347],[-75.112893,5.439268],[-75.11296,5.439171],[-75.112929,5.439012],[-75.112953,5.438884],[-75.113043,5.438744],[-75.113043,5.438653],[-75.112867,5.438617],[-75.112581,5.438447],[-75.112393,5.438552],[-75.112161,5.43837],[-75.112252,5.438296],[-75.112319,5.438278],[-75.112367,5.438168],[-75.112446,5.438204],[-75.112908,5.438123],[-75.113144,5.437885],[-75.11321,5.437721],[-75.113337,5.437592],[-75.113647,5.437609],[-75.113634,5.437457],[-75.113731,5.437372],[-75.113705,5.436939],[-75.113662,5.436794],[-75.113723,5.436757],[-75.113869,5.43686],[-75.113979,5.436835],[-75.114081,5.436652],[-75.114178,5.436646],[-75.114294,5.436694],[-75.114342,5.436438],[-75.114445,5.436371],[-75.114536,5.436376],[-75.114609,5.436309],[-75.114766,5.436254],[-75.114893,5.43612],[-75.114918,5.436235],[-75.115021,5.436192],[-75.115173,5.436222],[-75.115295,5.436197],[-75.115221,5.43607],[-75.11541,5.436148],[-75.115494,5.436038],[-75.115652,5.435971],[-75.115652,5.435873],[-75.11559,5.43566],[-75.115663,5.435569],[-75.115681,5.435477],[-75.115784,5.435447],[-75.115972,5.435288],[-75.115935,5.435184],[-75.116013,5.435032],[-75.116171,5.43505],[-75.116105,5.435135],[-75.116221,5.435329],[-75.116361,5.435432],[-75.116465,5.435469],[-75.116549,5.435389],[-75.117055,5.435852],[-75.117254,5.43589],[-75.117018,5.436176],[-75.117085,5.436347],[-75.117475,5.436574],[-75.117551,5.436659],[-75.117229,5.436727],[-75.117419,5.436831],[-75.117543,5.437011],[-75.11754,5.437322],[-75.117371,5.437426],[-75.117492,5.437456],[-75.117571,5.43751],[-75.117517,5.437578],[-75.117633,5.437742],[-75.117736,5.43779],[-75.117761,5.437906],[-75.117688,5.437991],[-75.117665,5.438113],[-75.117817,5.438356],[-75.117714,5.438405],[-75.117721,5.43849],[-75.117848,5.438539],[-75.117928,5.438593],[-75.117861,5.438678],[-75.117867,5.43877],[-75.117722,5.438892],[-75.117837,5.438892],[-75.118154,5.438988],[-75.118293,5.438926],[-75.118378,5.438963],[-75.118348,5.439048],[-75.118409,5.439127],[-75.118398,5.439249],[-75.118439,5.439461],[-75.118409,5.439555],[-75.118486,5.43964],[-75.118422,5.439743],[-75.118428,5.439782],[-75.118356,5.439844],[-75.118348,5.439884],[-75.118289,5.439915],[-75.118295,5.440001],[-75.118232,5.439966],[-75.118166,5.439978],[-75.118128,5.440067],[-75.118145,5.44009],[-75.118227,5.440097],[-75.118316,5.440264],[-75.118426,5.440258],[-75.118463,5.440331],[-75.118525,5.440343],[-75.11851,5.4404],[-75.118571,5.44038],[-75.118579,5.440428],[-75.118553,5.440487],[-75.118566,5.440545],[-75.118631,5.440606],[-75.118627,5.440626],[-75.118602,5.440675],[-75.118536,5.4407],[-75.118442,5.440806],[-75.118302,5.440821],[-75.118225,5.440858],[-75.118096,5.440835],[-75.118047,5.44087],[-75.118045,5.440936],[-75.117998,5.440912],[-75.11785,5.440983],[-75.117771,5.440989],[-75.117732,5.440948],[-75.117623,5.440959],[-75.117399,5.440918],[-75.117447,5.440956],[-75.117571,5.440991],[-75.117711,5.441065],[-75.117809,5.44116],[-75.117813,5.44125],[-75.117895,5.441321],[-75.117916,5.441223],[-75.117986,5.441255],[-75.118,5.441275],[-75.117966,5.441377],[-75.117997,5.441463],[-75.117982,5.441475],[-75.118008,5.441514],[-75.118029,5.441502],[-75.118078,5.441553],[-75.118105,5.441548],[-75.118021,5.441625],[-75.117894,5.441572],[-75.117863,5.441536],[-75.117722,5.44157]]},"properties":{"ruta":"R3","descripcion":"CASA RAB - PREDIO SAUL - TIEMPO ESTIMADO 4-5 HORAS","longitud_km":2.4054}},{"type":"Feature","id":2,"geometry":{"type":"LineString","coordinates":[[-75.114846,5.444145],[-75.114769,5.444247],[-75.114672,5.44433],[-75.114568,5.444373],[-75.114353,5.444475],[-75.114067,5.444584],[-75.113876,5.444699],[-75.113704,5.444824],[-75.113514,5.44491],[-75.113409,5.44491],[-75.113281,5.44476],[-75.113279,5.444648],[-75.11346,5.444399],[-75.113576,5.444348],[-75.113719,5.444252],[-75.113294,5.444286],[-75.113028,5.444578],[-75.112564,5.444731],[-75.112249,5.444663],[-75.111912,5.444699],[-75.111575,5.444537],[-75.111343,5.444561],[-75.111238,5.44469],[-75.110994,5.444597],[-75.11061,5.444529],[-75.110053,5.444833],[-75.109973,5.44509],[-75.109787,5.445149],[-75.109776,5.445209],[-75.109456,5.445204],[-75.109253,5.445264],[-75.109179,5.445315],[-75.108973,5.445289],[-75.108666,5.445317],[-75.108475,5.445309],[-75.108227,5.445196],[-75.108065,5.445095],[-75.10793,5.445054],[-75.107859,5.445057],[-75.107823,5.445087],[-75.107734,5.445105],[-75.107555,5.445103],[-75.107441,5.445145],[-75.107137,5.445317],[-75.106934,5.445317],[-75.106902,5.445368],[-75.106905,5.445506],[-75.106807,5.445554],[-75.106771,5.44565],[-75.106643,5.445707],[-75.106497,5.445768],[-75.106402,5.445732],[-75.106187,5.4457],[-75.106115,5.44579],[-75.106044,5.446002],[-75.105842,5.445988],[-75.105743,5.445953],[-75.105563,5.44584],[-75.105489,5.445852],[-75.105322,5.445796],[-75.105185,5.445794],[-75.105125,5.445758],[-75.104889,5.445746],[-75.104807,5.445779],[-75.104673,5.445736],[-75.104449,5.445807],[-75.104401,5.445839],[-75.104137,5.445899],[-75.104062,5.445896],[-75.103895,5.446131],[-75.103664,5.44632],[-75.103666,5.446353],[-75.103548,5.446416],[-75.103486,5.44653],[-75.103357,5.446649],[-75.103315,5.446794],[-75.103172,5.446876],[-75.10309,5.446963],[-75.102934,5.447039],[-75.10278,5.447185],[-75.102621,5.447196],[-75.102428,5.447267],[-75.102228,5.44715],[-75.101834,5.446651],[-75.101524,5.446452],[-75.10149,5.4464],[-75.101349,5.446376],[-75.101276,5.446389],[-75.101228,5.446493],[-75.101185,5.446469],[-75.101103,5.446518],[-75.100984,5.446478],[-75.100969,5.446518],[-75.101,5.44657],[-75.100948,5.446561],[-75.100918,5.446601],[-75.100707,5.446534],[-75.100589,5.446556],[-75.100577,5.446623],[-75.100656,5.446715],[-75.100705,5.446727],[-75.100717,5.446806],[-75.100821,5.446851],[-75.100851,5.446802],[-75.100933,5.446759],[-75.100936,5.446707],[-75.101016,5.446735],[-75.101037,5.446793],[-75.101083,5.446783],[-75.101092,5.446835],[-75.101144,5.446792],[-75.101202,5.446798],[-75.101159,5.446911],[-75.101224,5.446972],[-75.101224,5.447015],[-75.101291,5.447039],[-75.101258,5.447091],[-75.101178,5.447097],[-75.101182,5.447155],[-75.10113,5.44721],[-75.101194,5.447274],[-75.101271,5.447451],[-75.101366,5.447542],[-75.101451,5.447548],[-75.101448,5.447585],[-75.101616,5.447587],[-75.101655,5.447633],[-75.101783,5.447657],[-75.101862,5.447641],[-75.101854,5.447715],[-75.101908,5.447684],[-75.101929,5.44761],[-75.10199,5.447644],[-75.102039,5.447619],[-75.102066,5.447564],[-75.102218,5.447457],[-75.102261,5.447399],[-75.102306,5.447295],[-75.102228,5.44715],[-75.102323,5.447216],[-75.102428,5.447267],[-75.102621,5.447196],[-75.10278,5.447185],[-75.102934,5.447039],[-75.10309,5.446963],[-75.103172,5.446876],[-75.103251,5.446824],[-75.103315,5.446794],[-75.103357,5.446649],[-75.103486,5.44653],[-75.103548,5.446416],[-75.103666,5.446353],[-75.103664,5.44632],[-75.103737,5.446256],[-75.103895,5.446131],[-75.103978,5.446001],[-75.104062,5.445896],[-75.104137,5.445899],[-75.104292,5.445859],[-75.104401,5.445839],[-75.104673,5.445736],[-75.104807,5.445779],[-75.104889,5.445746],[-75.105004,5.445745],[-75.105125,5.445758],[-75.105185,5.445794],[-75.105322,5.445796],[-75.105489,5.445852],[-75.105432,5.44593],[-75.105516,5.445974],[-75.105585,5.446052],[-75.105681,5.446273],[-75.105691,5.446375],[-75.105729,5.44638],[-75.10576,5.446464],[-75.105799,5.4465],[-75.105817,5.446613],[-75.105784,5.446635],[-75.105781,5.446697],[-75.10585,5.446733],[-75.105898,5.446796],[-75.105886,5.446858],[-75.105928,5.446969],[-75.105935,5.44708],[-75.105968,5.447139],[-75.105947,5.447241],[-75.106055,5.447357],[-75.106038,5.447468],[-75.106107,5.447677],[-75.106128,5.447815],[-75.10617,5.447865],[-75.10623,5.447877],[-75.106299,5.447835],[-75.106364,5.447892],[-75.10626,5.447988],[-75.106261,5.448036],[-75.106192,5.448093],[-75.106189,5.448129],[-75.106121,5.448156],[-75.106171,5.448177],[-75.106115,5.448216],[-75.106118,5.448302],[-75.106175,5.448386],[-75.106176,5.448503],[-75.106149,5.44855],[-75.106164,5.448586],[-75.1062,5.448601],[-75.106146,5.448652],[-75.106185,5.448709],[-75.106299,5.44875],[-75.106263,5.448885],[-75.106333,5.449043],[-75.106362,5.448971],[-75.106389,5.449067],[-75.106542,5.449171],[-75.106563,5.449252],[-75.106719,5.449332],[-75.10682,5.44935],[-75.106883,5.4494],[-75.106946,5.449484],[-75.106958,5.449577],[-75.107021,5.449648],[-75.107093,5.449654],[-75.107114,5.449615],[-75.107233,5.449653],[-75.10735,5.44965],[-75.107289,5.449513],[-75.107346,5.449503],[-75.107307,5.449399],[-75.107327,5.449216],[-75.107291,5.44916],[-75.107324,5.449076],[-75.107335,5.448935],[-75.107463,5.44886],[-75.107502,5.448773],[-75.107624,5.448671],[-75.107671,5.448659],[-75.107728,5.448722],[-75.107782,5.448721],[-75.107791,5.448682],[-75.107854,5.448703],[-75.107842,5.448646],[-75.107782,5.448608],[-75.107799,5.448572],[-75.107886,5.448556],[-75.107913,5.448595],[-75.108032,5.448625],[-75.108116,5.448618],[-75.108146,5.448564],[-75.108217,5.448525],[-75.108399,5.448501],[-75.108426,5.448429],[-75.108348,5.448366],[-75.10844,5.448279],[-75.108575,5.448294],[-75.108659,5.448419],[-75.108751,5.448413],[-75.108858,5.448356],[-75.108927,5.448343],[-75.109085,5.448376],[-75.109124,5.448325],[-75.109357,5.448309],[-75.109452,5.448377],[-75.109465,5.448467],[-75.109542,5.448443],[-75.109551,5.448401],[-75.10968,5.448511],[-75.109709,5.448475],[-75.10976,5.448472],[-75.109835,5.44857],[-75.109871,5.448519],[-75.109913,5.448516],[-75.10988,5.448478],[-75.110014,5.448498],[-75.11011,5.448555],[-75.110175,5.448551],[-75.110235,5.448429],[-75.110172,5.448387],[-75.110189,5.448309],[-75.110171,5.448198],[-75.110364,5.447818],[-75.110432,5.447809],[-75.110501,5.447767],[-75.110522,5.447671],[-75.110581,5.447668],[-75.110572,5.447614],[-75.110626,5.447608],[-75.110823,5.447697],[-75.110883,5.44775],[-75.110874,5.447658],[-75.110906,5.447628],[-75.110966,5.447618],[-75.110993,5.447642],[-75.110993,5.447585],[-75.110963,5.447553],[-75.110962,5.447475],[-75.111016,5.447457],[-75.111004,5.447379],[-75.111075,5.447346],[-75.111102,5.447277],[-75.111096,5.447223],[-75.111027,5.447202],[-75.111048,5.447172],[-75.111048,5.447059],[-75.111027,5.447017],[-75.111053,5.446978],[-75.111116,5.446996],[-75.111143,5.44696],[-75.111139,5.44687],[-75.111193,5.446894],[-75.111274,5.446875],[-75.111324,5.446723],[-75.111396,5.446725],[-75.111347,5.446453],[-75.111296,5.44634],[-75.111305,5.446277],[-75.111278,5.446238],[-75.111349,5.44622],[-75.111346,5.446065],[-75.111384,5.446055],[-75.111402,5.445993],[-75.111357,5.445873],[-75.111384,5.445843],[-75.11142,5.445888],[-75.111482,5.445843],[-75.111538,5.445717],[-75.111505,5.445666],[-75.11152,5.445567],[-75.111583,5.445687],[-75.111734,5.445402],[-75.11174,5.445289],[-75.111769,5.445217],[-75.111826,5.445213],[-75.111856,5.445115],[-75.111855,5.445013],[-75.111935,5.444833],[-75.111913,5.444699],[-75.11225,5.444663],[-75.112564,5.444731],[-75.113028,5.444578],[-75.113294,5.444286],[-75.113666,5.444256],[-75.113719,5.444252],[-75.11346,5.444399],[-75.113346,5.444572],[-75.113279,5.444648],[-75.113281,5.44476],[-75.113351,5.444824],[-75.113409,5.44491],[-75.113514,5.44491],[-75.113609,5.444871],[-75.113704,5.444824],[-75.114067,5.444584],[-75.114267,5.444504],[-75.114353,5.444475],[-75.114672,5.44433],[-75.114769,5.444247],[-75.114846,5.444145]]},"properties":{"ruta":"R1","descripcion":"CASA RAB - CERRO SECUESTRADO- TIEMPO ESTIMADO 2-3 HORAS","longitud_km":5.1686}},{"type":"Feature","id":3,"geometry":{"type":"LineString","coordinates":[[-75.118352,5.458688],[-75.118196,5.458558],[-75.118026,5.458454],[-75.117967,5.458323],[-75.118064,5.45821],[-75.118127,5.458083],[-75.118108,5.457928],[-75.11803,5.457876],[-75.117872,5.457833],[-75.117773,5.457781],[-75.117664,5.457776],[-75.117558,5.457664],[-75.117526,5.457578],[-75.117433,5.457492],[-75.117384,5.457458],[-75.11717,5.457398],[-75.117076,5.457328],[-75.117028,5.457211],[-75.117039,5.456997],[-75.11708,5.456881],[-75.117084,5.456765],[-75.116975,5.456655],[-75.116941,5.456458],[-75.116964,5.455756],[-75.116913,5.455703],[-75.116874,5.45552],[-75.116547,5.455265],[-75.116378,5.455099],[-75.116295,5.454917],[-75.115874,5.454944],[-75.115622,5.454467],[-75.115657,5.454328],[-75.11523,5.454246],[-75.115048,5.454104],[-75.114671,5.454011],[-75.114674,5.453886],[-75.11457,5.453769],[-75.114154,5.453709],[-75.113942,5.453503],[-75.113751,5.453428],[-75.113462,5.453374],[-75.11331,5.45324],[-75.113103,5.452998],[-75.112731,5.4528],[-75.112549,5.452582],[-75.11219,5.452504],[-75.111472,5.452238],[-75.11139,5.452175],[-75.11121,5.452183],[-75.11112,5.452153],[-75.110934,5.45215],[-75.110822,5.452172],[-75.110717,5.45224],[-75.110488,5.452167],[-75.11041,5.4521],[-75.11044,5.452017],[-75.110555,5.451983],[-75.110618,5.451893],[-75.11063,5.451787],[-75.110603,5.451677],[-75.110402,5.45146],[-75.110335,5.451278],[-75.110217,5.451107],[-75.11012,5.451087],[-75.110038,5.451037],[-75.109892,5.450887],[-75.109562,5.450645],[-75.10949,5.450368],[-75.10919,5.450648],[-75.10917,5.450748],[-75.109278,5.450895],[-75.109308,5.450988],[-75.109193,5.451145],[-75.109227,5.451253],[-75.109157,5.451457],[-75.10909,5.451527],[-75.108925,5.45163],[-75.108732,5.451575],[-75.108642,5.451587],[-75.108407,5.451933],[-75.108257,5.452038],[-75.108212,5.452125],[-75.108228,5.452222],[-75.108108,5.452288],[-75.108007,5.452312],[-75.107917,5.45239],[-75.10773,5.452465],[-75.107695,5.452607],[-75.10759,5.45264],[-75.107452,5.452727],[-75.107304,5.452756],[-75.107165,5.452747],[-75.107027,5.452776],[-75.106142,5.452449],[-75.105913,5.452522],[-75.105759,5.452543],[-75.105648,5.452573],[-75.105913,5.452522],[-75.106142,5.452449],[-75.106859,5.452724],[-75.107027,5.452776],[-75.107165,5.452747],[-75.107304,5.452756],[-75.107452,5.452727],[-75.10759,5.45264],[-75.107695,5.452607],[-75.1077,5.452888],[-75.107584,5.453095],[-75.107433,5.453248],[-75.10694,5.453449],[-75.106788,5.453593]]},"properties":{"ruta":"R4","descripcion":"BOQUERON - CASA 2 - TIEMPO ESTIMADO 5-6 HORAS","longitud_km":2.6267}},{"type":"Feature","id":4,"geometry":{"type":"LineString","coordinates":[[-75.114846,5.444145],[-75.114769,5.444247],[-75.114672,5.44433],[-75.114067,5.444584],[-75.113704,5.444824],[-75.113514,5.44491],[-75.113409,5.44491],[-75.113281,5.44476],[-75.113279,5.444648],[-75.11346,5.444399],[-75.113719,5.444252],[-75.113294,5.444286],[-75.113028,5.444578],[-75.112564,5.444731],[-75.11225,5.444663],[-75.111913,5.444699],[-75.111935,5.444833],[-75.111855,5.445013],[-75.111856,5.445115],[-75.111826,5.445213],[-75.111769,5.445217],[-75.11174,5.445289],[-75.111734,5.445402],[-75.111583,5.445687],[-75.11152,5.445567],[-75.111505,5.445666],[-75.111538,5.445717],[-75.111639,5.445718],[-75.111806,5.445665],[-75.111939,5.445655],[-75.112001,5.445693],[-75.112011,5.445864],[-75.112083,5.44595],[-75.11224,5.445897],[-75.11234,5.445892],[-75.112378,5.44603],[-75.112269,5.446221],[-75.112337,5.446384],[-75.112407,5.446476],[-75.112445,5.44651],[-75.112522,5.446511],[-75.113045,5.446706],[-75.11356,5.446686],[-75.114004,5.446433],[-75.114327,5.446081],[-75.114739,5.445878],[-75.114977,5.446209],[-75.115339,5.445931],[-75.115446,5.445887],[-75.115472,5.445925],[-75.115553,5.445948],[-75.115589,5.446011],[-75.115789,5.446132],[-75.115805,5.446182],[-75.115779,5.446239],[-75.115808,5.446299],[-75.115861,5.446582],[-75.115929,5.446729],[-75.116077,5.446958],[-75.116086,5.447092],[-75.116127,5.447126],[-75.116129,5.447254],[-75.116028,5.447353],[-75.116015,5.447507],[-75.115963,5.447639],[-75.115761,5.447841],[-75.11569,5.447959],[-75.11605,5.447987],[-75.116382,5.4481],[-75.11656,5.448036],[-75.116599,5.44817],[-75.116574,5.448349],[-75.116652,5.448822],[-75.116966,5.449121],[-75.117064,5.449708],[-75.117307,5.449944],[-75.117575,5.450032],[-75.117836,5.449923],[-75.118103,5.449698],[-75.118357,5.449518],[-75.118509,5.449218],[-75.118707,5.449108],[-75.118885,5.449159],[-75.118994,5.449299],[-75.119039,5.449535],[-75.119041,5.449944],[-75.118978,5.450258],[-75.118967,5.450532],[-75.11891,5.450801],[-75.118977,5.451677],[-75.118978,5.451959],[-75.118943,5.45234],[-75.118883,5.452716],[-75.118752,5.452979],[-75.118597,5.453118],[-75.11856,5.453268],[-75.118574,5.453608],[-75.118678,5.453776],[-75.118727,5.453928],[-75.118705,5.45405],[-75.118576,5.454275],[-75.118414,5.454415],[-75.118325,5.45461],[-75.118355,5.454988],[-75.118505,5.454993],[-75.118702,5.455091],[-75.118832,5.45508],[-75.118841,5.455227],[-75.118904,5.455314],[-75.118792,5.455359],[-75.118708,5.455438],[-75.118923,5.455595],[-75.118875,5.455628],[-75.118917,5.455702],[-75.118783,5.455632],[-75.118798,5.45561],[-75.118765,5.455587],[-75.118668,5.45563],[-75.118578,5.45557],[-75.118487,5.455563],[-75.118445,5.455531],[-75.118355,5.45561],[-75.11833,5.455525],[-75.118272,5.455532],[-75.1183,5.455585],[-75.11829,5.455668],[-75.11835,5.455728],[-75.118328,5.455757],[-75.118352,5.455808],[-75.118313,5.455818],[-75.118303,5.45586],[-75.118405,5.455892],[-75.118378,5.45599],[-75.118423,5.456122],[-75.11838,5.456207],[-75.118347,5.456203],[-75.11828,5.456412],[-75.118278,5.456435],[-75.118328,5.456388],[-75.118368,5.456388],[-75.118382,5.45641],[-75.118305,5.456532],[-75.11832,5.456793],[-75.118265,5.45689],[-75.118248,5.457055],[-75.118102,5.45714],[-75.118062,5.457195],[-75.118063,5.45724],[-75.118123,5.457268],[-75.117987,5.457307],[-75.117912,5.457385],[-75.117922,5.457405],[-75.118047,5.457418],[-75.118065,5.457437],[-75.118053,5.457498],[-75.118072,5.457567],[-75.118022,5.457635],[-75.118038,5.457756],[-75.118014,5.457872],[-75.118108,5.457928],[-75.118129,5.457993],[-75.118127,5.458083],[-75.118064,5.45821],[-75.117967,5.458323],[-75.118026,5.458454],[-75.118196,5.458558],[-75.118352,5.458688]]},"properties":{"ruta":"R2","descripcion":"CASA RAB - CAMINO ACERRADERO - TIEMPO ESTIMADO 4-5 HORAS","longitud_km":3.5059}},{"type":"Feature","id":5,"geometry":{"type":"LineString","coordinates":[[-75.106788,5.453593],[-75.106978,5.453649],[-75.107501,5.453647],[-75.108477,5.453263],[-75.109379,5.45326],[-75.109787,5.453363],[-75.11013,5.453495],[-75.1105,5.453599],[-75.110928,5.453654],[-75.111279,5.453815],[-75.111451,5.453928],[-75.111414,5.454185],[-75.111453,5.45448],[-75.111603,5.454642],[-75.111637,5.45499]]},"properties":{"ruta":"Q","descripcion":null,"longitud_km":0.6641}},{"type":"Feature","id":6,"geometry":{"type":"LineString","coordinates":[[-75.111637,5.45499],[-75.11186,5.455188],[-75.11197,5.45521],[-75.111958,5.455235],[-75.112037,5.455288],[-75.11202,5.455305],[-75.112188,5.455435],[-75.112208,5.455605],[-75.112243,5.45562],[-75.11225,5.455688],[-75.112215,5.455712],[-75.112307,5.455792],[-75.112293,5.455957],[-75.112328,5.455967],[-75.112348,5.456118],[-75.112377,5.456143],[-75.112345,5.456192],[-75.112385,5.456248],[-75.112383,5.45633],[-75.11236,5.45634],[-75.11233,5.456412],[-75.112292,5.456398],[-75.112268,5.456432],[-75.112482,5.456512],[-75.112452,5.456538],[-75.112458,5.45652],[-75.1124,5.456518],[-75.112405,5.456553],[-75.112528,5.45657],[-75.11256,5.456632],[-75.112642,5.45666],[-75.112735,5.456758],[-75.112786,5.456762],[-75.11275,5.456786],[-75.112974,5.457128],[-75.112467,5.457286],[-75.112297,5.457542],[-75.111924,5.457631],[-75.111501,5.457644],[-75.111268,5.457816],[-75.110866,5.458022],[-75.110783,5.458495],[-75.110736,5.458577],[-75.110364,5.458591],[-75.11038,5.459014],[-75.110155,5.459443],[-75.11013,5.4596],[-75.110205,5.459594],[-75.110486,5.459777],[-75.110955,5.459957],[-75.111503,5.460295],[-75.111715,5.460261],[-75.111829,5.460383],[-75.111896,5.460423],[-75.111754,5.460466],[-75.111697,5.460586],[-75.111683,5.460787],[-75.111632,5.460897],[-75.111493,5.460922],[-75.111498,5.461108],[-75.11168,5.46117],[-75.111764,5.461176],[-75.11178,5.461158],[-75.111836,5.461182],[-75.112056,5.460743],[-75.112227,5.460632],[-75.112299,5.460694],[-75.112651,5.460854],[-75.112766,5.460822],[-75.113052,5.460916],[-75.113273,5.460442],[-75.113304,5.460195],[-75.113421,5.459864],[-75.11343,5.459771],[-75.113806,5.459432],[-75.114078,5.459085],[-75.114143,5.459035],[-75.114197,5.459039],[-75.114233,5.458942],[-75.114351,5.458922],[-75.114534,5.458783],[-75.114748,5.458516],[-75.114907,5.458255],[-75.115073,5.458106],[-75.115255,5.457988],[-75.115297,5.457912],[-75.115362,5.457864],[-75.115366,5.457682],[-75.115406,5.457567],[-75.115477,5.457528],[-75.115568,5.457574],[-75.115687,5.457552],[-75.115766,5.457503],[-75.115821,5.457439],[-75.115837,5.457386],[-75.115921,5.457318],[-75.116193,5.457224],[-75.116201,5.457134],[-75.116323,5.457034],[-75.116335,5.456905],[-75.116418,5.456836],[-75.116509,5.456804],[-75.116576,5.456813],[-75.116659,5.456667],[-75.116804,5.456671],[-75.116859,5.456614],[-75.116887,5.456634],[-75.116937,5.456616],[-75.117084,5.456765],[-75.11708,5.456881],[-75.117039,5.456997],[-75.117028,5.457211],[-75.117076,5.457328],[-75.11717,5.457398],[-75.117384,5.457458],[-75.117433,5.457492],[-75.117526,5.457578],[-75.117558,5.457664],[-75.117664,5.457776],[-75.117773,5.457781],[-75.117872,5.457833],[-75.11803,5.457876],[-75.118108,5.457928],[-75.118127,5.458083],[-75.118064,5.45821],[-75.117967,5.458323],[-75.118026,5.458454],[-75.118196,5.458558],[-75.118352,5.458688]]},"properties":{"ruta":"R4","descripcion":null,"longitud_km":2.4427}},{"type":"Feature","id":7,"geometry":{"type":"LineString","coordinates":[[-75.118398,5.439249],[-75.118538,5.439279],[-75.118623,5.439254],[-75.118702,5.439309],[-75.118781,5.439321],[-75.118896,5.439241],[-75.119011,5.439241],[-75.119103,5.439405],[-75.119188,5.439325],[-75.119267,5.439313],[-75.119344,5.439264],[-75.119448,5.439185],[-75.119803,5.438726],[-75.119833,5.438403],[-75.119904,5.438216],[-75.119949,5.438326],[-75.120057,5.438426],[-75.120206,5.438689],[-75.120243,5.43884],[-75.12014,5.438896],[-75.12036,5.439096],[-75.120507,5.439521],[-75.120605,5.439722],[-75.120775,5.439892],[-75.120894,5.440238],[-75.120819,5.44047],[-75.121056,5.440411],[-75.12113,5.440278],[-75.121386,5.440164],[-75.121476,5.44016],[-75.121743,5.440027],[-75.121793,5.439933],[-75.12186,5.439906],[-75.121944,5.439738],[-75.122081,5.439761],[-75.12224,5.439639],[-75.122352,5.4396],[-75.122371,5.439479],[-75.122507,5.439436],[-75.122697,5.439143],[-75.122805,5.439014],[-75.122878,5.438866],[-75.122968,5.43876],[-75.123056,5.438596],[-75.123146,5.438526],[-75.123624,5.438489],[-75.123772,5.438512],[-75.123904,5.438476],[-75.124041,5.438407]]},"properties":{"ruta":"R3","descripcion":null,"longitud_km":1.0221}}]}