{"type":"FeatureCollection","features":[{"type":"Feature","id":0,"geometry":{"type":"LineString","coordinates":[[-75.117161,5.441717],[-75.117275,5.441811],[-75.117366,5.441822],[-75.117406,5.441789],[-75.11749,5.441789],[-75.11762,5.441895],[-75.117637,5.441944],[-75.117732,5.441873],[-75.11786,5.441846],[-75.117927,5.441847],[-75.117951,5.44188],[-75.118056,5.441926],[-75.118171,5.44191],[-75.118248,5.441969],[-75.118236,5.442107],[-75.118264,5.442161],[-75.118264,5.442222],[-75.118302,5.442283],[-75.118308,5.44241],[-75.118344,5.442462],[-75.118429,5.442398],[-75.118449,5.442429],[-75.11846,5.442413],[-75.118498,5.442428],[-75.118546,5.442482],[-75.118657,5.442473],[-75.118736,5.442368],[-75.118863,5.442286],[-75.118933,5.442315],[-75.118961,5.442485],[-75.119014,5.442336],[-75.119085,5.442331],[-75.119063,5.442253],[-75.119076,5.442221],[-75.119189,5.442219],[-75.119326,5.442253],[-75.119404,5.442236],[-75.119366,5.442128],[-75.119411,5.441974],[-75.119527,5.441989],[-75.119577,5.442006],[-75.119568,5.442031],[-75.119587,5.442031],[-75.11963,5.442011],[-75.119681,5.441947],[-75.119752,5.44195],[-75.119775,5.441929],[-75.119743,5.441907],[-75.119843,5.441857],[-75.120005,5.441962],[-75.120065,5.44193],[-75.120069,5.44181],[-75.12005,5.441822],[-75.120072,5.441716],[-75.120047,5.441599],[-75.120034,5.441614],[-75.120003,5.441582],[-75.119999,5.441488],[-75.119971,5.441515],[-75.120034,5.44137],[-75.120016,5.44129],[-75.11999,5.441262],[-75.11982,5.441232],[-75.119775,5.44117],[-75.119822,5.441075],[-75.119884,5.441015],[-75.119816,5.440712],[-75.11987,5.440598],[-75.119866,5.440558],[-75.11995,5.440536],[-75.120003,5.440601],[-75.120128,5.440624],[-75.120115,5.44062]]},"properties":{"descripcion":"CASA RAB - CAMINO ALTERNO SAUL","nivel":"MEDIO","longitud_km":0.7615}},{"type":"Feature","id":1,"geometry":{"type":"LineString","coordinates":[[-75.114846,5.444145],[-75.115237,5.444001],[-75.115409,5.443886],[-75.115523,5.443703],[-75.115628,5.443397],[-75.115808,5.44311],[-75.115885,5.443033],[-75.116056,5.442918],[-75.116247,5.442831],[-75.116323,5.442745],[-75.116332,5.44242],[-75.116313,5.442315],[-75.116131,5.442037],[-75.116016,5.441751],[-75.116064,5.441645],[-75.11635,5.441482],[-75.11662,5.441292],[-75.11684,5.441292],[-75.117241,5.441387],[-75.117585,5.441424],[-75.117709,5.441501],[-75.117722,5.44157]]},"properties":{"descripcion":"CASA RAB -  BOCA TOMA","nivel":"BAJO","longitud_km":0.5746}},{"type":"Feature","id":2,"geometry":{"type":"LineString","coordinates":[[-75.118352,5.458688],[-75.118196,5.458558],[-75.118026,5.458454],[-75.117967,5.458323],[-75.118064,5.45821],[-75.118127,5.458083],[-75.118108,5.457928],[-75.11803,5.457876],[-75.117872,5.457833],[-75.117773,5.457781],[-75.117664,5.457776],[-75.117558,5.457664],[-75.117526,5.457578],[-75.117433,5.457492],[-75.117384,5.457458],[-75.11717,5.457398],[-75.117076,5.457328],[-75.117028,5.457211],[-75.117039,5.456997],[-75.11708,5.456881],[-75.117084,5.456765],[-75.116975,5.456655],[-75.116941,5.456458],[-75.116964,5.455756],[-75.116913,5.455703],[-75.116874,5.45552],[-75.116547,5.455265],[-75.116378,5.455099],[-75.116295,5.454917],[-75.115874,5.454944],[-75.115622,5.454467],[-75.115657,5.454328],[-75.11523,5.454246],[-75.115048,5.454104],[-75.114671,5.454011]]},"properties":{"descripcion":"BOQUERON - CASA 2","nivel":"ALTO","longitud_km":0.7922}},{"type":"Feature","id":3,"geometry":{"type":"LineString","coordinates":[[-75.118352,5.458688],[-75.118196,5.458558],[-75.118026,5.458454],[-75.117967,5.458323],[-75.118064,5.45821],[-75.118127,5.458083],[-75.118108,5.457928],[-75.11803,5.457876],[-75.117872,5.457833],[-75.117773,5.457781],[-75.117664,5.457776],[-75.117558,5.457664],[-75.117526,5.457578],[-75.117433,5.457492],[-75.117384,5.457458],[-75.11717,5.457398],[-75.117076,5.457328],[-75.117028,5.457211],[-75.117039,5.456997],[-75.11708,5.456881],[-75.117084,5.456765],[-75.116937,5.456616],[-75.116887,5.456634],[-75.116859,5.456614],[-75.116804,5.456671],[-75.116659,5.456667],[-75.116576,5.456813],[-75.116509,5.456804],[-75.116418,5.456836],[-75.116335,5.456905],[-75.116323,5.457034],[-75.116201,5.457134],[-75.116193,5.457224],[-75.115921,5.457318],[-75.115837,5.457386],[-75.115821,5.457439],[-75.115766,5.457503],[-75.115687,5.457552],[-75.115568,5.457574],[-75.115477,5.457528],[-75.115406,5.457567],[-75.115366,5.457682],[-75.115362,5.457864],[-75.115297,5.457912],[-75.115255,5.457988],[-75.115073,5.458106],[-75.114907,5.458255],[-75.114748,5.458516],[-75.114534,5.458783],[-75.114351,5.458922],[-75.114233,5.458942],[-75.114197,5.459039],[-75.114143,5.459035],[-75.114078,5.459085],[-75.11359,5.458822],[-75.113453,5.45871],[-75.113303,5.458452],[-75.11323,5.45842],[-75.113195,5.458438],[-75.113178,5.458482],[-75.113152,5.458423],[-75.11317,5.458353],[-75.11308,5.458373],[-75.113045,5.458352],[-75.113048,5.458302],[-75.113082,5.458283],[-75.113103,5.45821],[-75.113092,5.45815],[-75.112995,5.457987],[-75.113062,5.457907],[-75.11289,5.457675],[-75.112902,5.457615],[-75.113005,5.45763],[-75.113053,5.457518],[-75.112997,5.457422],[-75.113003,5.457322],[-75.113045,5.45728],[-75.113032,5.457263],[-75.113068,5.457248],[-75.113025,5.45724],[-75.113018,5.4572],[-75.112974,5.457174],[-75.113053,5.457133],[-75.113045,5.457058],[-75.112948,5.456845],[-75.112786,5.456762],[-75.113053,5.456585],[-75.113389,5.456578],[-75.113664,5.456535],[-75.11393,5.456347],[-75.114284,5.456189]]},"properties":{"descripcion":"BOQUERON - CASA 1","nivel":"MEDIO","longitud_km":1.3931}},{"type":"Feature","id":4,"geometry":{"type":"LineString","coordinates":[[-75.114846,5.444145],[-75.114769,5.444247],[-75.114672,5.44433],[-75.114067,5.444584],[-75.113704,5.444824],[-75.113514,5.44491],[-75.113409,5.44491],[-75.113281,5.44476],[-75.113279,5.444648],[-75.11346,5.444399],[-75.113719,5.444252],[-75.113294,5.444286],[-75.113028,5.444578],[-75.112564,5.444731],[-75.11225,5.444663],[-75.111913,5.444699],[-75.111575,5.444537],[-75.111343,5.444561],[-75.111238,5.44469],[-75.110994,5.444597],[-75.11061,5.444529],[-75.110175,5.444761],[-75.110571,5.444855],[-75.110731,5.444979],[-75.110833,5.445012],[-75.11093,5.445141],[-75.111008,5.445182],[-75.111363,5.44503],[-75.111522,5.445378],[-75.111505,5.445666],[-75.111538,5.445717],[-75.111639,5.445718],[-75.111806,5.445665],[-75.111939,5.445655],[-75.112001,5.445693],[-75.112011,5.445864],[-75.112083,5.44595],[-75.11224,5.445897],[-75.11234,5.445892],[-75.112378,5.44603],[-75.112269,5.446221],[-75.112337,5.446384],[-75.112407,5.446476],[-75.112445,5.44651],[-75.112522,5.446511],[-75.113045,5.446706],[-75.11356,5.446686],[-75.114004,5.446433],[-75.114327,5.446081],[-75.114739,5.445878]]},"properties":{"descripcion":"CASA RAB - CASA CAMINO ACERRADERO","nivel":"BAJO","longitud_km":1.4277}}]}