{"type":"FeatureCollection","features":[{"type":"Feature","id":0,"geometry":{"type":"LineString","coordinates":[[-75.114846,5.444145],[-75.114769,5.444247],[-75.114672,5.44433],[-75.114067,5.444584],[-75.113704,5.444824],[-75.113514,5.44491],[-75.113409,5.44491],[-75.113281,5.44476],[-75.113279,5.444648],[-75.11346,5.444399],[-75.113719,5.444252],[-75.113294,5.444286],[-75.113028,5.444578],[-75.112564,5.444731],[-75.11225,5.444663],[-75.111913,5.444699],[-75.111575,5.444537],[-75.111343,5.444561],[-75.111238,5.44469],[-75.110994,5.444597],[-75.11061,5.444529],[-75.110053,5.444833],[-75.109973,5.44509],[-75.109787,5.445149],[-75.109776,5.445209],[-75.109456,5.445204],[-75.109253,5.445264],[-75.109179,5.445315],[-75.108973,5.445289],[-75.108666,5.445317],[-75.108475,5.445309],[-75.108227,5.445196],[-75.108065,5.445095],[-75.10793,5.445054],[-75.107859,5.445057],[-75.107823,5.445087],[-75.107734,5.445105],[-75.107555,5.445103],[-75.107441,5.445145],[-75.107137,5.445317],[-75.106934,5.445317],[-75.106902,5.445368],[-75.106905,5.445506],[-75.106807,5.445554],[-75.106771,5.44565],[-75.106497,5.445768],[-75.106402,5.445732],[-75.106187,5.4457],[-75.106115,5.44579],[-75.106044,5.446002],[-75.105842,5.445988],[-75.105743,5.445953],[-75.105563,5.44584],[-75.105489,5.445852],[-75.105432,5.44593],[-75.105516,5.445974],[-75.105585,5.446052],[-75.105681,5.446273],[-75.105691,5.446375],[-75.105729,5.44638],[-75.10576,5.446464],[-75.105799,5.4465],[-75.105817,5.446613],[-75.105784,5.446635],[-75.105781,5.446697],[-75.10585,5.446733],[-75.105898,5.446796],[-75.105886,5.446858],[-75.105928,5.446969],[-75.105935,5.44708],[-75.105968,5.447139],[-75.105947,5.447241],[-75.106055,5.447357],[-75.106038,5.447468],[-75.106107,5.447677],[-75.106128,5.447815],[-75.10617,5.447865],[-75.10623,5.447877],[-75.106299,5.447835],[-75.106364,5.447892],[-75.10626,5.447988],[-75.106261,5.448036],[-75.106192,5.448093],[-75.106189,5.448129],[-75.106121,5.448156],[-75.106171,5.448177],[-75.106115,5.448216],[-75.106118,5.448302],[-75.106175,5.448386],[-75.106176,5.448503],[-75.106149,5.44855],[-75.106164,5.448586],[-75.1062,5.448601],[-75.106146,5.448652],[-75.106185,5.448709],[-75.106299,5.44875],[-75.106263,5.448885],[-75.106333,5.449043],[-75.106362,5.448971],[-75.106389,5.449067],[-75.106542,5.449171],[-75.106563,5.449252],[-75.106719,5.449332],[-75.10682,5.44935],[-75.106883,5.4494],[-75.106946,5.449484],[-75.106958,5.449577],[-75.107021,5.449648],[-75.107093,5.449654],[-75.107114,5.449615],[-75.107233,5.449653],[-75.10735,5.44965],[-75.107289,5.449513],[-75.107346,5.449503],[-75.107307,5.449399],[-75.107327,5.449216],[-75.107291,5.44916],[-75.107324,5.449076],[-75.107335,5.448935],[-75.107463,5.44886],[-75.107502,5.448773],[-75.107624,5.448671],[-75.107671,5.448659],[-75.107728,5.448722],[-75.107782,5.448721],[-75.107791,5.448682],[-75.107854,5.448703],[-75.107842,5.448646],[-75.107782,5.448608],[-75.107799,5.448572],[-75.107886,5.448556],[-75.107913,5.448595],[-75.108032,5.448625],[-75.108116,5.448618],[-75.108146,5.448564],[-75.108217,5.448525],[-75.108399,5.448501],[-75.108426,5.448429],[-75.108348,5.448366],[-75.10844,5.448279],[-75.108575,5.448294],[-75.108659,5.448419],[-75.108751,5.448413],[-75.108858,5.448356],[-75.108927,5.448343],[-75.109085,5.448376],[-75.109124,5.448325],[-75.109357,5.448309],[-75.109452,5.448377],[-75.109465,5.448467],[-75.109542,5.448443],[-75.109551,5.448401],[-75.10968,5.448511],[-75.109709,5.448475],[-75.10976,5.448472],[-75.109835,5.44857],[-75.109871,5.448519],[-75.109913,5.448516],[-75.10988,5.448478],[-75.110014,5.448498],[-75.11011,5.448555],[-75.110175,5.448551],[-75.110235,5.448429],[-75.110172,5.448387],[-75.110189,5.448309],[-75.110171,5.448198],[-75.110364,5.447818],[-75.110432,5.447809],[-75.110501,5.447767],[-75.110522,5.447671],[-75.110581,5.447668],[-75.110572,5.447614],[-75.110626,5.447608],[-75.110823,5.447697],[-75.110883,5.44775],[-75.110874,5.447658],[-75.110906,5.447628],[-75.110966,5.447618],[-75.110993,5.447642],[-75.110993,5.447585],[-75.110963,5.447553],[-75.110962,5.447475],[-75.111016,5.447457],[-75.111004,5.447379],[-75.111075,5.447346],[-75.111102,5.447277],[-75.111096,5.447223],[-75.111027,5.447202],[-75.111048,5.447172],[-75.111048,5.447059],[-75.111027,5.447017],[-75.111053,5.446978],[-75.111116,5.446996],[-75.111143,5.44696],[-75.111139,5.44687],[-75.111193,5.446894],[-75.111274,5.446875],[-75.111324,5.446723],[-75.111396,5.446725],[-75.111347,5.446453],[-75.111296,5.44634],[-75.111305,5.446277],[-75.111278,5.446238],[-75.111349,5.44622],[-75.111346,5.446065],[-75.111384,5.446055],[-75.111402,5.445993],[-75.111357,5.445873],[-75.111384,5.445843],[-75.11142,5.445888],[-75.111482,5.445843],[-75.111538,5.445717],[-75.111505,5.445666],[-75.11152,5.445567],[-75.111574,5.445621],[-75.111604,5.445621],[-75.111734,5.445402],[-75.11174,5.445289],[-75.111769,5.445217],[-75.111826,5.445213],[-75.111856,5.445115],[-75.111855,5.445013],[-75.111935,5.444833],[-75.111913,5.444699]]},"properties":{"tipo":"Camino","ruta":"Z2","descripcion":null,"longitud_km":3.1393}},{"type":"Feature","id":1,"geometry":{"type":"LineString","coordinates":[[-75.113719,5.444252],[-75.113294,5.444286],[-75.113028,5.444578],[-75.112564,5.444731],[-75.11225,5.444663],[-75.111913,5.444699],[-75.111935,5.444833],[-75.111855,5.445013],[-75.111856,5.445115],[-75.111826,5.445213],[-75.111769,5.445217],[-75.11174,5.445289],[-75.111734,5.445402],[-75.111604,5.445621],[-75.111574,5.445621],[-75.11152,5.445567],[-75.111505,5.445666],[-75.111538,5.445717],[-75.111639,5.445718],[-75.111806,5.445665],[-75.111939,5.445655],[-75.112001,5.445693],[-75.112011,5.445864],[-75.112083,5.44595],[-75.11224,5.445897],[-75.11234,5.445892],[-75.112378,5.44603],[-75.112269,5.446221],[-75.112337,5.446384],[-75.112407,5.446476],[-75.112445,5.44651],[-75.112522,5.446511],[-75.113045,5.446706],[-75.11356,5.446686],[-75.114004,5.446433],[-75.114327,5.446081],[-75.114739,5.445878],[-75.114977,5.446209],[-75.115339,5.445931],[-75.115446,5.445887],[-75.115472,5.445925],[-75.115553,5.445948],[-75.115589,5.446011],[-75.115789,5.446132],[-75.115805,5.446182],[-75.115779,5.446239],[-75.115808,5.446299],[-75.115861,5.446582],[-75.115929,5.446729],[-75.116077,5.446958],[-75.116086,5.447092],[-75.116127,5.447126],[-75.116129,5.447254],[-75.116028,5.447353],[-75.116015,5.447507],[-75.115963,5.447639],[-75.115761,5.447841],[-75.115678,5.448001],[-75.115403,5.448256],[-75.115241,5.448328],[-75.115142,5.448443],[-75.114762,5.448564],[-75.114705,5.448669],[-75.114534,5.44866],[-75.114405,5.448684],[-75.11433,5.448823]]},"properties":{"tipo":"Camino","ruta":"Z2","descripcion":null,"longitud_km":1.4221}},{"type":"Feature","id":2,"geometry":{"type":"LineString","coordinates":[[-75.113719,5.444252],[-75.113294,5.444286],[-75.113028,5.444578],[-75.112564,5.444731],[-75.11225,5.444663],[-75.111913,5.444699],[-75.111575,5.444537],[-75.111343,5.444561],[-75.111238,5.44469],[-75.110994,5.444597],[-75.11061,5.444529],[-75.110053,5.444833],[-75.109973,5.44509],[-75.109787,5.445149],[-75.109776,5.445209],[-75.109456,5.445204],[-75.109253,5.445264],[-75.109179,5.445315],[-75.108973,5.445289],[-75.108666,5.445317],[-75.108475,5.445309],[-75.108227,5.445196],[-75.108065,5.445095],[-75.10793,5.445054],[-75.107859,5.445057],[-75.107823,5.445087],[-75.107734,5.445105],[-75.107555,5.445103],[-75.107441,5.445145],[-75.107137,5.445317],[-75.106934,5.445317],[-75.106902,5.445368],[-75.106905,5.445506],[-75.106807,5.445554],[-75.106771,5.44565],[-75.106643,5.445707],[-75.106497,5.445768],[-75.106402,5.445732],[-75.106187,5.4457],[-75.106115,5.44579],[-75.106044,5.446002],[-75.105842,5.445988],[-75.105743,5.445953],[-75.105563,5.44584],[-75.105489,5.445852],[-75.105322,5.445796],[-75.105185,5.445794],[-75.105125,5.445758],[-75.105004,5.445745],[-75.104889,5.445746],[-75.104807,5.445779],[-75.104673,5.445736],[-75.104401,5.445839],[-75.104137,5.445899],[-75.104062,5.445896],[-75.103895,5.446131],[-75.103664,5.44632],[-75.103666,5.446353],[-75.103548,5.446416],[-75.103486,5.44653],[-75.103357,5.446649],[-75.103315,5.446794],[-75.103172,5.446876],[-75.10309,5.446963],[-75.102934,5.447039],[-75.10278,5.447185],[-75.102621,5.447196],[-75.102428,5.447267],[-75.102228,5.44715],[-75.101834,5.446651],[-75.101524,5.446452],[-75.10149,5.4464],[-75.101349,5.446376],[-75.101276,5.446389],[-75.101228,5.446493],[-75.101185,5.446469],[-75.101103,5.446518],[-75.100984,5.446478],[-75.100969,5.446518],[-75.101,5.44657],[-75.100948,5.446561],[-75.100918,5.446601],[-75.100707,5.446534],[-75.100589,5.446556],[-75.100577,5.446623],[-75.100604,5.446669],[-75.100656,5.446715],[-75.100705,5.446727],[-75.100717,5.446806],[-75.100821,5.446851],[-75.100851,5.446802],[-75.100933,5.446759],[-75.100936,5.446707],[-75.101016,5.446735],[-75.101037,5.446793],[-75.101083,5.446783],[-75.101092,5.446835],[-75.101144,5.446792],[-75.101202,5.446798],[-75.101159,5.446911],[-75.101224,5.446972],[-75.101224,5.447015],[-75.101291,5.447039],[-75.101258,5.447091],[-75.101178,5.447097],[-75.101182,5.447155],[-75.10113,5.44721],[-75.101194,5.447274],[-75.101271,5.447451],[-75.101366,5.447542],[-75.101451,5.447548],[-75.101448,5.447585],[-75.101616,5.447587],[-75.101655,5.447633],[-75.101783,5.447657],[-75.101862,5.447641],[-75.101854,5.447715],[-75.101908,5.447684],[-75.101929,5.44761],[-75.10199,5.447644],[-75.102039,5.447619],[-75.102066,5.447564],[-75.102218,5.447457],[-75.102306,5.447295],[-75.102228,5.44715]]},"properties":{"tipo":"Camino","ruta":"Z2","descripcion":null,"longitud_km":2.1312}},{"type":"Feature","id":3,"geometry":{"type":"LineString","coordinates":[[-75.118352,5.458688],[-75.118196,5.458558],[-75.118026,5.458454],[-75.117967,5.458323],[-75.118064,5.45821],[-75.118127,5.458083],[-75.118108,5.457928],[-75.11803,5.457876],[-75.117872,5.457833],[-75.117773,5.457781],[-75.117664,5.457776],[-75.117558,5.457664],[-75.117526,5.457578],[-75.117433,5.457492],[-75.117384,5.457458],[-75.11717,5.457398],[-75.117076,5.457328],[-75.117028,5.457211],[-75.117039,5.456997],[-75.11708,5.456881],[-75.117084,5.456765],[-75.116975,5.456655],[-75.116937,5.456616],[-75.116887,5.456634],[-75.116859,5.456614],[-75.116804,5.456671],[-75.116659,5.456667],[-75.116576,5.456813],[-75.116509,5.456804],[-75.116418,5.456836],[-75.116335,5.456905],[-75.116323,5.457034],[-75.116201,5.457134],[-75.116193,5.457224],[-75.115921,5.457318],[-75.115837,5.457386],[-75.115821,5.457439],[-75.115766,5.457503],[-75.115687,5.457552],[-75.115568,5.457574],[-75.115477,5.457528],[-75.115406,5.457567],[-75.115366,5.457682],[-75.115362,5.457864],[-75.115297,5.457912],[-75.115255,5.457988],[-75.115073,5.458106],[-75.114907,5.458255],[-75.114748,5.458516],[-75.114534,5.458783],[-75.114351,5.458922],[-75.114233,5.458942],[-75.114197,5.459039],[-75.114143,5.459035],[-75.114078,5.459085],[-75.113806,5.459432],[-75.11343,5.459771],[-75.113421,5.459864],[-75.113304,5.460195],[-75.113273,5.460442],[-75.113052,5.460916],[-75.112766,5.460822],[-75.112651,5.460854],[-75.112299,5.460694],[-75.112227,5.460632],[-75.112056,5.460743],[-75.111836,5.461182],[-75.11178,5.461158],[-75.111764,5.461176],[-75.11168,5.46117],[-75.111498,5.461108],[-75.111493,5.460922],[-75.111632,5.460897],[-75.111683,5.460787],[-75.111697,5.460586],[-75.111754,5.460466],[-75.111896,5.460423],[-75.111829,5.460383],[-75.111715,5.460261],[-75.111503,5.460295],[-75.110955,5.459957],[-75.110486,5.459777],[-75.110205,5.459594],[-75.11013,5.4596],[-75.110155,5.459443],[-75.11038,5.459014],[-75.110364,5.458591],[-75.110736,5.458577],[-75.110783,5.458495],[-75.110866,5.458022],[-75.111268,5.457816],[-75.111501,5.457644],[-75.111924,5.457631],[-75.112297,5.457542],[-75.112467,5.457286],[-75.112974,5.457128],[-75.11275,5.456786],[-75.113053,5.456585],[-75.113389,5.456578],[-75.113664,5.456535],[-75.11393,5.456347],[-75.114284,5.456189],[-75.114274,5.455765],[-75.114628,5.455685],[-75.114531,5.455228],[-75.114336,5.454977],[-75.114149,5.454958],[-75.1138,5.454621],[-75.113549,5.454418],[-75.113292,5.454156],[-75.113253,5.453851],[-75.113185,5.453659],[-75.112875,5.453364],[-75.112789,5.45308],[-75.11247,5.452869],[-75.112232,5.452535],[-75.111472,5.452238],[-75.11219,5.452504],[-75.112549,5.452582],[-75.112731,5.4528],[-75.113103,5.452998],[-75.11331,5.45324],[-75.113462,5.453374],[-75.113751,5.453428],[-75.113942,5.453503],[-75.114154,5.453709],[-75.11457,5.453769],[-75.114674,5.453886],[-75.114671,5.454011],[-75.115048,5.454104],[-75.11523,5.454246],[-75.115657,5.454328],[-75.115622,5.454467],[-75.115874,5.454944],[-75.116295,5.454917],[-75.116378,5.455099],[-75.116547,5.455265],[-75.116874,5.45552],[-75.116913,5.455703],[-75.116964,5.455756],[-75.116941,5.456458],[-75.116975,5.456655],[-75.116937,5.456616]]},"properties":{"tipo":"Camino","ruta":"Z1","descripcion":null,"longitud_km":3.8399}},{"type":"Feature","id":4,"geometry":{"type":"LineString","coordinates":[[-75.113719,5.444252],[-75.113294,5.444286],[-75.113028,5.444578],[-75.112564,5.444731],[-75.11225,5.444663],[-75.111913,5.444699],[-75.111575,5.444537],[-75.111343,5.444561],[-75.111238,5.44469],[-75.110994,5.444597],[-75.11061,5.444529],[-75.110053,5.444833],[-75.109973,5.44509],[-75.109787,5.445149],[-75.109776,5.445209],[-75.109456,5.445204],[-75.109253,5.445264],[-75.109179,5.445315],[-75.108973,5.445289],[-75.108666,5.445317],[-75.108475,5.445309],[-75.108227,5.445196],[-75.108065,5.445095],[-75.10793,5.445054],[-75.107859,5.445057],[-75.107823,5.445087],[-75.107734,5.445105],[-75.107555,5.445103],[-75.107441,5.445145],[-75.107137,5.445317],[-75.106934,5.445317],[-75.106902,5.445368],[-75.106905,5.445506],[-75.106807,5.445554],[-75.106771,5.44565],[-75.106643,5.445707],[-75.106497,5.445768],[-75.106402,5.445732],[-75.106187,5.4457],[-75.106115,5.44579],[-75.106044,5.446002],[-75.105842,5.445988],[-75.105743,5.445953],[-75.105563,5.44584],[-75.105489,5.445852],[-75.105432,5.44593],[-75.105516,5.445974],[-75.105585,5.446052],[-75.105681,5.446273],[-75.105691,5.446375],[-75.105729,5.44638],[-75.10576,5.446464],[-75.105799,5.4465],[-75.105817,5.446613],[-75.105784,5.446635],[-75.105781,5.446697],[-75.10585,5.446733],[-75.105898,5.446796],[-75.105886,5.446858],[-75.105928,5.446969],[-75.105935,5.44708],[-75.105968,5.447139],[-75.105947,5.447241],[-75.106055,5.447357],[-75.106038,5.447468],[-75.106107,5.447677],[-75.106128,5.447815],[-75.10617,5.447865],[-75.10623,5.447877],[-75.106299,5.447835],[-75.106364,5.447892],[-75.10626,5.447988],[-75.106261,5.448036],[-75.106192,5.448093],[-75.106189,5.448129],[-75.106121,5.448156],[-75.106171,5.448177],[-75.106115,5.448216],[-75.106118,5.448302],[-75.106175,5.448386],[-75.106176,5.448503],[-75.106149,5.44855],[-75.106164,5.448586],[-75.1062,5.448601],[-75.106146,5.448652],[-75.106185,5.448709],[-75.106299,5.44875],[-75.106263,5.448885],[-75.106333,5.449043],[-75.106362,5.448971],[-75.106389,5.449067],[-75.106542,5.449171],[-75.106563,5.449252],[-75.106719,5.449332],[-75.10682,5.44935],[-75.106883,5.4494],[-75.106946,5.449484],[-75.106958,5.449577],[-75.106951,5.449658],[-75.106743,5.449791],[-75.106752,5.449848],[-75.106638,5.449949],[-75.1065,5.45],[-75.106538,5.450141],[-75.106489,5.450254],[-75.106417,5.450276],[-75.106406,5.450312],[-75.106465,5.450343],[-75.106405,5.450393],[-75.10646,5.450678],[-75.10638,5.450821],[-75.106418,5.450993],[-75.106315,5.450984],[-75.106219,5.451022],[-75.106165,5.450972],[-75.106052,5.450957],[-75.106028,5.451109],[-75.106111,5.451101],[-75.106163,5.451202],[-75.106083,5.45123],[-75.105997,5.451434],[-75.106012,5.451485],[-75.106099,5.451446],[-75.106083,5.451501],[-75.106024,5.451549],[-75.106161,5.451546],[-75.106128,5.451612],[-75.106033,5.451654],[-75.106054,5.451812],[-75.106024,5.451867],[-75.105965,5.451884],[-75.105996,5.451918],[-75.105959,5.451984],[-75.105864,5.452002],[-75.105776,5.45197],[-75.105787,5.452067],[-75.105669,5.452222],[-75.105712,5.452281],[-75.105665,5.45231],[-75.105692,5.452382],[-75.105651,5.452433],[-75.10567,5.452501],[-75.105648,5.452573],[-75.105913,5.452522],[-75.106142,5.452449],[-75.107027,5.452776],[-75.107165,5.452747],[-75.107304,5.452756],[-75.107452,5.452727],[-75.10759,5.45264],[-75.107757,5.452587],[-75.10786,5.452517],[-75.108421,5.452527],[-75.108731,5.452406],[-75.108916,5.45237],[-75.109053,5.452375],[-75.109405,5.452314],[-75.109572,5.45235],[-75.109787,5.452307],[-75.110186,5.452054],[-75.110365,5.452012],[-75.110418,5.451952],[-75.110555,5.451983],[-75.11044,5.452017],[-75.11041,5.4521],[-75.110488,5.452167],[-75.110595,5.45221],[-75.110717,5.45224],[-75.110822,5.452172],[-75.111037,5.452146],[-75.11121,5.452183],[-75.11139,5.452175],[-75.111472,5.452238]]},"properties":{"tipo":"Camino","ruta":"Z2","descripcion":null,"longitud_km":2.8793}},{"type":"Feature","id":5,"geometry":{"type":"LineString","coordinates":[[-75.160836,5.387577],[-75.160504,5.387948],[-75.159507,5.387989],[-75.158434,5.387585],[-75.157731,5.38744],[-75.157587,5.388329],[-75.157922,5.389068],[-75.157725,5.389559],[-75.157668,5.390489],[-75.156883,5.390721],[-75.156481,5.391058],[-75.156448,5.391865],[-75.156282,5.392572],[-75.156619,5.393211],[-75.156955,5.393782],[-75.157462,5.393845],[-75.157828,5.394083],[-75.158098,5.394654],[-75.158066,5.395193],[-75.157058,5.394791],[-75.156353,5.394859],[-75.155749,5.394961],[-75.155146,5.395501],[-75.154743,5.395636],[-75.154301,5.39529],[-75.153669,5.395302],[-75.153199,5.395605],[-75.153034,5.39685],[-75.152465,5.397995],[-75.152466,5.398533],[-75.153239,5.399104],[-75.153597,5.39957],[-75.153005,5.399642],[-75.152469,5.400383],[-75.152604,5.401022],[-75.152604,5.401579],[-75.151352,5.401605],[-75.150198,5.401975],[-75.149048,5.402105],[-75.148915,5.402307],[-75.148884,5.404191],[-75.148146,5.404293],[-75.147444,5.405943],[-75.147432,5.406822],[-75.147313,5.407793],[-75.146985,5.407621],[-75.14644,5.407492],[-75.14587,5.408233],[-75.145774,5.408525],[-75.145788,5.40913],[-75.145772,5.409448],[-75.145477,5.410166],[-75.145316,5.410444],[-75.145173,5.410602],[-75.14513,5.410698],[-75.145073,5.411004],[-75.145078,5.411225],[-75.145127,5.411545],[-75.145051,5.411966],[-75.145013,5.412062],[-75.144894,5.412229],[-75.144799,5.412411],[-75.14468,5.412809],[-75.144457,5.413311],[-75.144443,5.413522],[-75.144467,5.413622],[-75.144524,5.413704],[-75.144558,5.413804],[-75.144544,5.413905],[-75.144486,5.413986],[-75.144253,5.414197],[-75.144077,5.414446],[-75.143939,5.414786],[-75.143634,5.415346],[-75.143449,5.415533],[-75.143263,5.415639],[-75.143186,5.415711],[-75.143139,5.415802],[-75.14313,5.416003],[-75.143149,5.416213],[-75.143331,5.416816],[-75.143336,5.416921],[-75.143313,5.417021],[-75.143255,5.417108],[-75.143175,5.417165],[-75.143074,5.41717],[-75.142979,5.417142],[-75.142897,5.417075],[-75.142773,5.416917],[-75.142548,5.416564],[-75.142333,5.416329],[-75.142285,5.416234],[-75.142198,5.415942],[-75.142155,5.415851],[-75.142088,5.415775],[-75.141797,5.415694],[-75.141592,5.415699],[-75.141396,5.415743],[-75.141134,5.415915],[-75.1407,5.41639],[-75.140581,5.416572],[-75.140424,5.416754],[-75.1402,5.416979],[-75.139599,5.417396],[-75.139533,5.417478],[-75.139494,5.417574],[-75.13949,5.417674],[-75.139552,5.417865],[-75.139638,5.417923],[-75.139839,5.417922],[-75.14003,5.41785],[-75.140106,5.417778],[-75.140282,5.417524],[-75.140563,5.417203],[-75.141355,5.416704],[-75.141455,5.41668],[-75.141656,5.416733],[-75.141746,5.41679],[-75.141794,5.416885],[-75.14179,5.417091],[-75.1417,5.417283],[-75.141604,5.417312],[-75.141408,5.41725],[-75.141308,5.41725],[-75.141213,5.417288],[-75.141155,5.417375],[-75.141127,5.41747],[-75.141123,5.41791],[-75.141094,5.418006],[-75.141028,5.418083],[-75.140932,5.418126],[-75.140627,5.418203],[-75.140455,5.418318],[-75.140212,5.418524],[-75.140064,5.418683],[-75.139888,5.418941],[-75.13986,5.419037],[-75.139932,5.419477],[-75.140095,5.41986],[-75.140267,5.420113],[-75.140416,5.420251],[-75.140526,5.420423],[-75.140636,5.42082],[-75.140608,5.420921],[-75.140517,5.420973],[-75.140422,5.420945],[-75.140245,5.420845],[-75.140044,5.420821],[-75.139877,5.420692],[-75.139781,5.420654],[-75.1397,5.420712],[-75.139515,5.420956],[-75.139414,5.420951],[-75.139271,5.420808],[-75.138941,5.420555],[-75.13885,5.420512],[-75.13875,5.420532],[-75.138311,5.420729],[-75.138049,5.420916],[-75.137935,5.421088],[-75.137897,5.421189],[-75.137854,5.42149],[-75.137678,5.421586],[-75.137368,5.42163],[-75.137287,5.421692],[-75.137167,5.421855],[-75.137067,5.421865],[-75.136976,5.421822],[-75.1369,5.421755],[-75.136823,5.421564],[-75.136822,5.421037],[-75.136798,5.420956],[-75.136741,5.42087],[-75.136588,5.420732],[-75.136521,5.420641],[-75.136358,5.420368],[-75.136233,5.420082],[-75.136166,5.420005],[-75.13599,5.419891],[-75.13555,5.419494],[-75.135511,5.419399],[-75.135525,5.419088],[-75.135506,5.418887],[-75.135486,5.418786],[-75.135429,5.4187],[-75.135047,5.418538],[-75.134641,5.418415],[-75.134555,5.418357],[-75.134416,5.418195],[-75.134248,5.417932],[-75.133957,5.417612],[-75.133894,5.417464],[-75.133908,5.417057],[-75.133893,5.416636],[-75.133864,5.416531],[-75.133668,5.416163],[-75.133644,5.416048],[-75.133667,5.415464],[-75.133747,5.415163],[-75.133709,5.415067],[-75.13346,5.414871],[-75.13336,5.41469],[-75.133293,5.414613],[-75.13291,5.41448],[-75.132819,5.414298],[-75.132638,5.414045],[-75.132623,5.41394],[-75.132694,5.413734],[-75.132761,5.413653],[-75.133286,5.413317],[-75.133471,5.413063],[-75.133509,5.412967],[-75.133514,5.412867],[-75.133428,5.41268],[-75.133203,5.41247],[-75.132935,5.412289],[-75.132715,5.412064],[-75.132404,5.411634],[-75.132098,5.411357],[-75.132046,5.411262],[-75.131969,5.41096],[-75.131916,5.410865],[-75.13184,5.410793],[-75.131749,5.410745],[-75.131648,5.410736],[-75.131553,5.41077],[-75.131491,5.410851],[-75.131368,5.411349],[-75.131216,5.411622],[-75.131011,5.411699],[-75.130848,5.411828],[-75.130806,5.411924],[-75.13083,5.412125],[-75.131227,5.412454],[-75.13127,5.412555],[-75.13128,5.41276],[-75.131371,5.412947],[-75.131543,5.413057],[-75.1317,5.413219],[-75.131749,5.413315],[-75.131821,5.413616],[-75.13194,5.413903],[-75.131884,5.414367],[-75.131708,5.414755],[-75.131565,5.414913],[-75.131031,5.415254],[-75.130964,5.415321],[-75.130921,5.415412],[-75.130898,5.415617],[-75.130936,5.415713],[-75.131243,5.416248],[-75.131381,5.416411],[-75.13142,5.416506],[-75.131415,5.416607],[-75.131344,5.416679],[-75.131105,5.41677],[-75.13058,5.416838],[-75.130485,5.416867],[-75.130418,5.416943],[-75.130385,5.417039],[-75.130328,5.417121],[-75.130118,5.417126],[-75.130017,5.417102],[-75.129841,5.416992],[-75.129611,5.416778],[-75.129511,5.416773],[-75.129344,5.417161],[-75.129249,5.417194],[-75.129144,5.417185],[-75.128547,5.416956],[-75.128337,5.416938],[-75.128141,5.41701],[-75.127697,5.417293],[-75.127612,5.417379],[-75.127607,5.41748],[-75.12765,5.417575],[-75.127741,5.417618],[-75.127841,5.417642],[-75.128261,5.417646],[-75.128352,5.417693],[-75.128372,5.417794],[-75.128348,5.418205],[-75.128358,5.418306],[-75.128401,5.418397],[-75.12864,5.418583],[-75.128908,5.418745],[-75.128994,5.418936],[-75.129094,5.418974],[-75.129304,5.418969],[-75.129667,5.418662],[-75.129767,5.418624],[-75.130077,5.418676],[-75.130441,5.418876],[-75.130541,5.418886],[-75.130732,5.418809],[-75.131151,5.418521],[-75.131356,5.418526],[-75.131447,5.418573],[-75.1315,5.418664],[-75.131519,5.41887],[-75.131448,5.419076],[-75.131267,5.419463],[-75.131239,5.419569],[-75.131258,5.419779],[-75.131349,5.419827],[-75.131655,5.419913],[-75.132085,5.419921],[-75.132276,5.420017],[-75.132305,5.420112],[-75.13229,5.420218],[-75.132243,5.420318],[-75.132157,5.42039],[-75.131856,5.420563],[-75.13148,5.42074],[-75.131399,5.420798],[-75.131327,5.42099],[-75.131257,5.421535],[-75.131166,5.421722],[-75.131152,5.421822],[-75.131176,5.421928],[-75.131358,5.422023],[-75.131558,5.42207],[-75.131654,5.422118],[-75.131711,5.422199],[-75.131731,5.4223],[-75.131721,5.4224],[-75.131588,5.422678],[-75.13125,5.423057],[-75.131136,5.423559],[-75.131008,5.423846],[-75.130994,5.423957],[-75.131003,5.424162],[-75.131099,5.424339],[-75.131128,5.42444],[-75.131105,5.424679],[-75.131115,5.424985],[-75.131153,5.42508],[-75.131397,5.425267],[-75.131454,5.425372],[-75.13144,5.425472],[-75.131345,5.425654],[-75.131221,5.425812],[-75.131145,5.426004],[-75.131145,5.426104],[-75.131179,5.4262],[-75.131289,5.426382],[-75.131299,5.426482],[-75.13128,5.426583],[-75.131218,5.426664],[-75.131132,5.426722],[-75.130927,5.426794],[-75.130722,5.426828],[-75.130555,5.426895],[-75.130302,5.427063],[-75.130202,5.427072],[-75.130101,5.427068],[-75.129791,5.426791],[-75.129609,5.426691],[-75.129404,5.426705],[-75.129222,5.426811],[-75.129118,5.426816],[-75.129017,5.426797],[-75.128731,5.426664],[-75.128015,5.426684],[-75.127823,5.426617],[-75.127632,5.426508],[-75.127537,5.426479],[-75.127236,5.426508],[-75.127045,5.42659],[-75.126969,5.426657],[-75.126902,5.426858],[-75.126922,5.426959],[-75.127094,5.427221],[-75.127171,5.427418],[-75.127305,5.42757],[-75.127472,5.427699],[-75.127525,5.42779],[-75.127554,5.427895],[-75.12753,5.428115],[-75.127554,5.428216],[-75.127612,5.428302],[-75.127812,5.428316],[-75.128118,5.428287],[-75.128433,5.428286],[-75.128934,5.428443],[-75.12903,5.428481],[-75.129269,5.428691],[-75.129555,5.428829],[-75.129775,5.429059],[-75.129833,5.42914],[-75.129809,5.429346],[-75.129743,5.429422],[-75.12948,5.429586],[-75.129428,5.429672],[-75.129462,5.429868],[-75.129514,5.429959],[-75.129591,5.430035],[-75.129687,5.430073],[-75.13004,5.430096],[-75.130436,5.430282],[-75.130852,5.430301],[-75.130952,5.430329],[-75.131224,5.430463],[-75.131291,5.430539],[-75.131315,5.430649],[-75.131311,5.430755],[-75.131202,5.431037],[-75.131183,5.431138],[-75.131179,5.431559],[-75.131223,5.432219],[-75.131333,5.432616],[-75.131353,5.433037],[-75.131335,5.433582],[-75.131216,5.433774],[-75.13103,5.433874],[-75.130868,5.434004],[-75.130835,5.4341],[-75.130863,5.4342]]},"properties":{"tipo":"Via terciaria","ruta":"V","descripcion":null,"longitud_km":13.701}},{"type":"Feature","id":6,"geometry":{"type":"LineString","coordinates":[[-75.130863,5.4342],[-75.130651,5.434415],[-75.130403,5.434616],[-75.130002,5.434837],[-75.129935,5.434923],[-75.129841,5.43522],[-75.129822,5.435545],[-75.12965,5.435679],[-75.128811,5.436169],[-75.12863,5.436322],[-75.128354,5.436907],[-75.12824,5.437098],[-75.128144,5.437156],[-75.12803,5.437185],[-75.12781,5.437195],[-75.12761,5.43729],[-75.127362,5.437501],[-75.127267,5.43754],[-75.127047,5.43754],[-75.126942,5.437579],[-75.126713,5.437809],[-75.126666,5.437905],[-75.12658,5.437972],[-75.126389,5.438058],[-75.126284,5.438087],[-75.126179,5.438087],[-75.126083,5.438059],[-75.125978,5.437868],[-75.12592,5.437657],[-75.125853,5.437581],[-75.125519,5.43761],[-75.125424,5.437562],[-75.125213,5.43718],[-75.125136,5.437104],[-75.125031,5.437094],[-75.124936,5.437161],[-75.124765,5.43743],[-75.124631,5.437592],[-75.124259,5.437813],[-75.124097,5.437957],[-75.124069,5.438053],[-75.124003,5.438627],[-75.123879,5.438933],[-75.123632,5.439431],[-75.123556,5.439508],[-75.12325,5.439595],[-75.123155,5.439662],[-75.123021,5.439815],[-75.122926,5.439873],[-75.122621,5.439959],[-75.122458,5.440084],[-75.122363,5.440113],[-75.121867,5.440362],[-75.121705,5.440506],[-75.121648,5.440612],[-75.121639,5.440822],[-75.121694,5.441181],[-75.121612,5.441244],[-75.121437,5.441236],[-75.121314,5.441257],[-75.121187,5.441329],[-75.121104,5.441488],[-75.120974,5.441576],[-75.120867,5.44162],[-75.120724,5.441625],[-75.12059,5.441744],[-75.120587,5.441995],[-75.120722,5.44244],[-75.120652,5.442496],[-75.120323,5.44262],[-75.120224,5.442732],[-75.120181,5.442867],[-75.120166,5.443078],[-75.120215,5.443177],[-75.12024,5.443533],[-75.120402,5.44381],[-75.120498,5.44402],[-75.120537,5.444116],[-75.120537,5.444221],[-75.120403,5.444394],[-75.120156,5.444585],[-75.120089,5.444672],[-75.12006,5.444777],[-75.120089,5.444882],[-75.120156,5.444959],[-75.120176,5.445064],[-75.120166,5.445169],[-75.12009,5.445246],[-75.119994,5.445284],[-75.119889,5.445284],[-75.119698,5.445189],[-75.119622,5.445122],[-75.119401,5.44474],[-75.119334,5.444663],[-75.119239,5.444616],[-75.118809,5.444597],[-75.118504,5.444521],[-75.118217,5.444388],[-75.118045,5.444273],[-75.117997,5.444178],[-75.117997,5.444072],[-75.118025,5.443967],[-75.118082,5.443871],[-75.118158,5.443565],[-75.118129,5.443326],[-75.118071,5.443135],[-75.117919,5.443001],[-75.117813,5.442972],[-75.117269,5.442964],[-75.117059,5.442935],[-75.116963,5.442754],[-75.116963,5.442438],[-75.116905,5.442333],[-75.116819,5.442027],[-75.116819,5.441921],[-75.116849,5.441801],[-75.116981,5.441712],[-75.117449,5.441731],[-75.117566,5.441711],[-75.117661,5.441682],[-75.117728,5.441606],[-75.117709,5.441501],[-75.117585,5.441424],[-75.117241,5.441387],[-75.11684,5.441292],[-75.11662,5.441292],[-75.11635,5.441482],[-75.116064,5.441645],[-75.116016,5.441751],[-75.116131,5.442037],[-75.116313,5.442315],[-75.116332,5.44242],[-75.116323,5.442745],[-75.116247,5.442831],[-75.116056,5.442918],[-75.115885,5.443033],[-75.115808,5.44311],[-75.115628,5.443397],[-75.115523,5.443703],[-75.115466,5.44379],[-75.115151,5.443854],[-75.115008,5.444017],[-75.114941,5.444051],[-75.114672,5.44433],[-75.114067,5.444584],[-75.113609,5.444871],[-75.113514,5.44491],[-75.113409,5.44491],[-75.113281,5.44476],[-75.113279,5.444648],[-75.11346,5.444399],[-75.113576,5.444348],[-75.113843,5.444166],[-75.114005,5.444031],[-75.114054,5.443928],[-75.114721,5.4436],[-75.114763,5.443528],[-75.114778,5.443412],[-75.114763,5.443299],[-75.114931,5.443095],[-75.114917,5.442912],[-75.114953,5.442797],[-75.11505,5.442664],[-75.115015,5.44247],[-75.114957,5.442384],[-75.114862,5.442355],[-75.114642,5.442356],[-75.114432,5.442318],[-75.114021,5.442137],[-75.113868,5.442003],[-75.113801,5.441687],[-75.11382,5.441582],[-75.113867,5.441486],[-75.114029,5.441314],[-75.114335,5.441179],[-75.11443,5.440997],[-75.114401,5.440902],[-75.1142,5.440663],[-75.11419,5.440452],[-75.114161,5.440347],[-75.114094,5.440271],[-75.113999,5.440223],[-75.113789,5.440185],[-75.113388,5.440349],[-75.113073,5.440406],[-75.11293,5.440254],[-75.112901,5.440158],[-75.112881,5.440043],[-75.112881,5.439612],[-75.112814,5.439536],[-75.112709,5.439498],[-75.112604,5.439489],[-75.112384,5.439546],[-75.112269,5.439537],[-75.112174,5.439509],[-75.112107,5.439432],[-75.112011,5.439375],[-75.111916,5.439346],[-75.111811,5.439337],[-75.111706,5.439366],[-75.111515,5.439471],[-75.111372,5.439625],[-75.111267,5.439912],[-75.111115,5.440046],[-75.110924,5.440142],[-75.110543,5.440392],[-75.110142,5.440507],[-75.110037,5.440517],[-75.109941,5.440479],[-75.109865,5.440412],[-75.109788,5.440211],[-75.109434,5.439982],[-75.109291,5.439829],[-75.109185,5.439533],[-75.10909,5.439476],[-75.108975,5.439476],[-75.10887,5.439543],[-75.10867,5.43962],[-75.108202,5.43964],[-75.107954,5.439726],[-75.107839,5.439784],[-75.107716,5.439947],[-75.107601,5.440157],[-75.107516,5.440378],[-75.10744,5.440674],[-75.107354,5.440866],[-75.107231,5.441038],[-75.106944,5.441211],[-75.10683,5.44123],[-75.10662,5.441221],[-75.106515,5.441183],[-75.106438,5.441107],[-75.106361,5.440896],[-75.106208,5.440619],[-75.106065,5.440466],[-75.105883,5.440371],[-75.105673,5.440343],[-75.105577,5.440304],[-75.105357,5.440085],[-75.105262,5.440037],[-75.105166,5.440066],[-75.10508,5.440133],[-75.105014,5.440219],[-75.104957,5.44043],[-75.104795,5.440813],[-75.104795,5.440918],[-75.1047,5.441119],[-75.104519,5.441368],[-75.1043,5.441589],[-75.103842,5.441867],[-75.103747,5.441896],[-75.103642,5.441896],[-75.103546,5.441868],[-75.103365,5.441772],[-75.103202,5.441619],[-75.103011,5.441371],[-75.102925,5.441304],[-75.102447,5.441085],[-75.102342,5.441075],[-75.102275,5.441152],[-75.102342,5.441238],[-75.102648,5.441324],[-75.102925,5.441467],[-75.10304,5.441735],[-75.102973,5.441955],[-75.102964,5.442271],[-75.10305,5.442337],[-75.103146,5.442395],[-75.103557,5.44249],[-75.103996,5.442518],[-75.104636,5.442497],[-75.104703,5.442574],[-75.104713,5.442679],[-75.104675,5.442784],[-75.104608,5.44288],[-75.10435,5.443081],[-75.104035,5.443101],[-75.103844,5.443034],[-75.10351,5.442958],[-75.103004,5.442912],[-75.102555,5.442912],[-75.102459,5.442941],[-75.102307,5.443095],[-75.102278,5.44319],[-75.102298,5.443295],[-75.102288,5.443401],[-75.102193,5.44343],[-75.102088,5.44343],[-75.101992,5.443401],[-75.101743,5.443048],[-75.101667,5.442971],[-75.101495,5.442857],[-75.101075,5.442752],[-75.100711,5.442542],[-75.100654,5.442456],[-75.100625,5.442236],[-75.100587,5.442141],[-75.100501,5.442074],[-75.100405,5.442036],[-75.09964,5.441482],[-75.09943,5.441243],[-75.099334,5.441195],[-75.099229,5.441186],[-75.099019,5.441186],[-75.098952,5.441273],[-75.098895,5.441474],[-75.098915,5.441789],[-75.098839,5.441856],[-75.098648,5.44178],[-75.098504,5.441637],[-75.098399,5.441656],[-75.098361,5.441752],[-75.098352,5.441962],[-75.098295,5.442049],[-75.09798,5.442193],[-75.097913,5.442269],[-75.097818,5.442451],[-75.097742,5.442519],[-75.097666,5.442529],[-75.097466,5.442478],[-75.09695,5.442521],[-75.096852,5.442503],[-75.096592,5.442345],[-75.096487,5.442345],[-75.096189,5.442447],[-75.095787,5.442499],[-75.09567,5.442542]]},"properties":{"tipo":"Via terciaria","ruta":"V","descripcion":null,"longitud_km":7.9637}},{"type":"Feature","id":7,"geometry":{"type":"LineString","coordinates":[[-75.130863,5.4342],[-75.131064,5.434429],[-75.131155,5.434472],[-75.131355,5.434453],[-75.131752,5.434342],[-75.132587,5.434269],[-75.132792,5.434273],[-75.132988,5.43433],[-75.133079,5.434383],[-75.133103,5.434488],[-75.133041,5.434569],[-75.132845,5.434623],[-75.13254,5.434623],[-75.13244,5.434652],[-75.132258,5.434748],[-75.131934,5.435007],[-75.131782,5.435285],[-75.131682,5.435691],[-75.13185,5.436323],[-75.131903,5.436414],[-75.13198,5.436485],[-75.13208,5.436504],[-75.13218,5.436466],[-75.132276,5.436422],[-75.132428,5.436293],[-75.1327,5.43613],[-75.132891,5.436058],[-75.132991,5.436058],[-75.133091,5.436072],[-75.133187,5.436115],[-75.133273,5.436167],[-75.133335,5.436248],[-75.133388,5.436334],[-75.133393,5.436435],[-75.133345,5.436531],[-75.133264,5.436588],[-75.133164,5.436622],[-75.132959,5.436641],[-75.13252,5.436853],[-75.132439,5.43691],[-75.132248,5.437274],[-75.13211,5.437432],[-75.131576,5.437778],[-75.131166,5.437821],[-75.131094,5.437893],[-75.131008,5.438085],[-75.131013,5.438185],[-75.131047,5.438281],[-75.131186,5.438429],[-75.131396,5.438433],[-75.131706,5.438395],[-75.131926,5.438394],[-75.13248,5.438455],[-75.132604,5.438522],[-75.132743,5.438675],[-75.132786,5.438771],[-75.132776,5.438871],[-75.132714,5.438957],[-75.132528,5.439053],[-75.132318,5.439087],[-75.131793,5.439093],[-75.131588,5.439122],[-75.131326,5.439285],[-75.131273,5.439371],[-75.13125,5.439577],[-75.131293,5.439673],[-75.131661,5.439878],[-75.131747,5.439935],[-75.131809,5.440016],[-75.13179,5.440117],[-75.131728,5.440203],[-75.131633,5.440237],[-75.131151,5.440281],[-75.130945,5.440319],[-75.130855,5.440367],[-75.130722,5.440521],[-75.130535,5.440607],[-75.13043,5.440583],[-75.130244,5.440483],[-75.130144,5.440483],[-75.130048,5.440517],[-75.129967,5.440575],[-75.129925,5.440666],[-75.12992,5.440977],[-75.129993,5.441393],[-75.129998,5.441603],[-75.13007,5.441924],[-75.13008,5.442029],[-75.130056,5.442134],[-75.129989,5.442211],[-75.129808,5.442302],[-75.129708,5.442293],[-75.129412,5.442188],[-75.129206,5.442183],[-75.129106,5.442207],[-75.129025,5.44227],[-75.128982,5.442361],[-75.128921,5.442657],[-75.128911,5.442782],[-75.128955,5.443212],[-75.129204,5.443399],[-75.12928,5.44348],[-75.129357,5.44369],[-75.129338,5.443805],[-75.129205,5.443978],[-75.128632,5.444447],[-75.12858,5.444534],[-75.128514,5.444735],[-75.1285,5.445146],[-75.1284,5.445333],[-75.128291,5.445448],[-75.128214,5.445515],[-75.128119,5.445549],[-75.127493,5.445536],[-75.127298,5.445598],[-75.127002,5.445737],[-75.126845,5.445867],[-75.126692,5.446149],[-75.126736,5.446436],[-75.126832,5.446618],[-75.126856,5.446718],[-75.126789,5.446795],[-75.126689,5.446833],[-75.126278,5.446892],[-75.126173,5.44693],[-75.126083,5.446997],[-75.126011,5.447184],[-75.126016,5.447289],[-75.126131,5.447453],[-75.126298,5.447558],[-75.12689,5.447686],[-75.127096,5.447685],[-75.127287,5.447608],[-75.127573,5.447431],[-75.127768,5.447407],[-75.127893,5.447445],[-75.12794,5.447488],[-75.128089,5.447707],[-75.128065,5.447837],[-75.127936,5.44798],[-75.127259,5.448446],[-75.127117,5.448713],[-75.127093,5.448813],[-75.127122,5.449019],[-75.127055,5.449096],[-75.126893,5.449216],[-75.126722,5.449589],[-75.126579,5.449742],[-75.126546,5.449838],[-75.126603,5.449924],[-75.126804,5.449957],[-75.127029,5.450029],[-75.127072,5.450105],[-75.127067,5.450206],[-75.12701,5.450302],[-75.126767,5.450484],[-75.126724,5.450584],[-75.126691,5.450685],[-75.126715,5.45079],[-75.126763,5.450881],[-75.126777,5.450981],[-75.126725,5.451068],[-75.126543,5.451164],[-75.126443,5.451164],[-75.126348,5.451121],[-75.126104,5.450935],[-75.126003,5.450901],[-75.125908,5.450945],[-75.12576,5.451088],[-75.125665,5.451117],[-75.125445,5.451127],[-75.125278,5.451257],[-75.125131,5.451429],[-75.125088,5.451539],[-75.125079,5.451946],[-75.125008,5.452142],[-75.124927,5.452205],[-75.124826,5.452205],[-75.124731,5.452172],[-75.124578,5.452038],[-75.124435,5.45195],[-75.124369,5.451944],[-75.124232,5.45201],[-75.124137,5.452112],[-75.124065,5.452244],[-75.123935,5.45277],[-75.123702,5.453022],[-75.12347,5.453381],[-75.123423,5.453423],[-75.123357,5.453441],[-75.122808,5.45343],[-75.122689,5.453508],[-75.122617,5.453616],[-75.122606,5.453753],[-75.122648,5.453807],[-75.122928,5.45401],[-75.122994,5.454028],[-75.123841,5.454054],[-75.124161,5.454183],[-75.124295,5.454178],[-75.124357,5.454154],[-75.124491,5.454158],[-75.124734,5.454258],[-75.12483,5.454344],[-75.124859,5.454407],[-75.124792,5.454665],[-75.124493,5.455282],[-75.124493,5.455387],[-75.124541,5.455478],[-75.124713,5.455602],[-75.124766,5.455688],[-75.124671,5.45587],[-75.124499,5.456014],[-75.124332,5.456086],[-75.12417,5.45622],[-75.124151,5.456431],[-75.1242,5.456842],[-75.124128,5.457029],[-75.123976,5.457163],[-75.123623,5.457365],[-75.123336,5.457456],[-75.123131,5.457456],[-75.122936,5.457504],[-75.122835,5.457562],[-75.122688,5.45772],[-75.122597,5.457768],[-75.122492,5.457783],[-75.122306,5.457859],[-75.12212,5.458113],[-75.122039,5.458171],[-75.121743,5.458282],[-75.121662,5.458349],[-75.121605,5.45844],[-75.121562,5.458641],[-75.121572,5.458842],[-75.121601,5.458942],[-75.121745,5.459119],[-75.121788,5.45921],[-75.121774,5.459315],[-75.121693,5.459372],[-75.121392,5.459349],[-75.121187,5.459373],[-75.121034,5.459503],[-75.120915,5.459785],[-75.120815,5.459781],[-75.120676,5.459494],[-75.120642,5.459393],[-75.120632,5.458934],[-75.120594,5.458834],[-75.120469,5.458671],[-75.120307,5.458547],[-75.120106,5.458509],[-75.119896,5.458519],[-75.119505,5.458668],[-75.119228,5.458827],[-75.119023,5.45886],[-75.118708,5.458842],[-75.118383,5.458794],[-75.118202,5.458891],[-75.11814,5.459163],[-75.11816,5.459264],[-75.118207,5.459355],[-75.118289,5.459412],[-75.118571,5.459531],[-75.118876,5.459598],[-75.119063,5.459712],[-75.119225,5.459984],[-75.119269,5.46019],[-75.119255,5.460544],[-75.119231,5.460645],[-75.119107,5.460807],[-75.119017,5.460851],[-75.118816,5.460899],[-75.118411,5.460876],[-75.11832,5.460828],[-75.118253,5.460752],[-75.118157,5.460718],[-75.118052,5.460685],[-75.117957,5.460723],[-75.117876,5.460915],[-75.11788,5.461045],[-75.117955,5.46125],[-75.117875,5.461504],[-75.117771,5.461668],[-75.117735,5.461803],[-75.117738,5.461938],[-75.117768,5.461997],[-75.117983,5.462149],[-75.118112,5.462137],[-75.118565,5.461954],[-75.119131,5.461807],[-75.119266,5.461821],[-75.119326,5.461935],[-75.119296,5.462066],[-75.119147,5.462285],[-75.119034,5.462575],[-75.119014,5.46277],[-75.119092,5.463083],[-75.119092,5.463221],[-75.119074,5.463284],[-75.118954,5.463483],[-75.118913,5.463886],[-75.118957,5.464101],[-75.119043,5.464316],[-75.119129,5.46446],[-75.11918,5.464646],[-75.119194,5.46489],[-75.119166,5.464962],[-75.119073,5.465063],[-75.118608,5.465394],[-75.118429,5.465581],[-75.118284,5.465783],[-75.11829,5.465847],[-75.118338,5.465943],[-75.118787,5.46621],[-75.118869,5.466276],[-75.118979,5.466453],[-75.11896,5.466554],[-75.118903,5.466654],[-75.11876,5.466808],[-75.118726,5.466904],[-75.118731,5.467004],[-75.11877,5.4671],[-75.118846,5.467167],[-75.118947,5.467185],[-75.119128,5.467085],[-75.119271,5.466936],[-75.119361,5.466893],[-75.119567,5.466816],[-75.119676,5.466797],[-75.119991,5.466786],[-75.120178,5.46669],[-75.120325,5.466537],[-75.120535,5.466173],[-75.120606,5.466097],[-75.120797,5.466024],[-75.121002,5.465995],[-75.121184,5.465885],[-75.121236,5.465794],[-75.121336,5.465488],[-75.121498,5.465368],[-75.12166,5.465104],[-75.121736,5.465037]]},"properties":{"tipo":"Via terciaria","ruta":"V","descripcion":null,"longitud_km":7.9845}},{"type":"Feature","id":8,"geometry":{"type":"LineString","coordinates":[[-75.114078,5.459085],[-75.11359,5.458822],[-75.113453,5.45871],[-75.113303,5.458452],[-75.11323,5.45842],[-75.113195,5.458438],[-75.113178,5.458482],[-75.113152,5.458423],[-75.11317,5.458353],[-75.11308,5.458373],[-75.113045,5.458352],[-75.113048,5.458302],[-75.113082,5.458283],[-75.113103,5.45821],[-75.113092,5.45815],[-75.112995,5.457987],[-75.113062,5.457907],[-75.11289,5.457675],[-75.112902,5.457615],[-75.113005,5.45763],[-75.113053,5.457518],[-75.112997,5.457422],[-75.113003,5.457322],[-75.113045,5.45728],[-75.113032,5.457263],[-75.113068,5.457248],[-75.113025,5.45724],[-75.113018,5.4572],[-75.112974,5.457174],[-75.113045,5.45715],[-75.113045,5.457058],[-75.112948,5.456845],[-75.11283,5.456778]]},"properties":{"tipo":"Camino","ruta":"Z1","descripcion":null,"longitud_km":0.4033}},{"type":"Feature","id":9,"geometry":{"type":"LineString","coordinates":[[-75.11283,5.456778],[-75.112735,5.456758],[-75.112642,5.45666],[-75.11256,5.456632],[-75.112528,5.45657],[-75.112405,5.456553],[-75.1124,5.456518],[-75.112458,5.45652],[-75.112452,5.456538],[-75.112482,5.456512],[-75.112268,5.456432],[-75.112292,5.456398],[-75.11233,5.456412],[-75.11236,5.45634],[-75.112383,5.45633],[-75.112385,5.456248],[-75.112345,5.456192],[-75.112377,5.456143],[-75.112348,5.456118],[-75.112328,5.455967],[-75.112293,5.455957],[-75.112307,5.455792],[-75.112215,5.455712],[-75.11225,5.455688],[-75.112243,5.45562],[-75.112208,5.455605],[-75.112188,5.455435],[-75.11202,5.455305],[-75.112037,5.455288],[-75.111958,5.455235],[-75.11197,5.45521],[-75.11186,5.455188],[-75.111663,5.455005],[-75.111462,5.45489],[-75.111428,5.454807],[-75.111485,5.45467],[-75.111268,5.454552],[-75.111128,5.454502],[-75.110615,5.454544],[-75.11052,5.454612]]},"properties":{"tipo":"Camino","ruta":"Z1","descripcion":null,"longitud_km":0.4883}},{"type":"Feature","id":10,"geometry":{"type":"LineString","coordinates":[[-75.1138,5.454621],[-75.113792,5.454547],[-75.11388,5.454565],[-75.11384,5.454513],[-75.113845,5.454472],[-75.114003,5.454447],[-75.113953,5.454392],[-75.114083,5.454432],[-75.113933,5.454173],[-75.113967,5.45413],[-75.113954,5.454042],[-75.113923,5.454007],[-75.113928,5.453957],[-75.114,5.453917],[-75.114053,5.453828],[-75.114102,5.453658]]},"properties":{"tipo":"Camino","ruta":"Z1","descripcion":null,"longitud_km":0.1724}},{"type":"Feature","id":11,"geometry":{"type":"LineString","coordinates":[[-75.112881,5.439612],[-75.112931,5.439512],[-75.11293,5.439438],[-75.113028,5.439475],[-75.112991,5.439353],[-75.1129,5.439347],[-75.112893,5.439268],[-75.11296,5.439171],[-75.112929,5.439012],[-75.112953,5.438884],[-75.113043,5.438744],[-75.113043,5.438653],[-75.112867,5.438617],[-75.112581,5.438447],[-75.112393,5.438552],[-75.112161,5.43837],[-75.112252,5.438296],[-75.112319,5.438278],[-75.112367,5.438168],[-75.112446,5.438204],[-75.112908,5.438123],[-75.113144,5.437885],[-75.11321,5.437721],[-75.113337,5.437592],[-75.113647,5.437609],[-75.113634,5.437457],[-75.113731,5.437372],[-75.113705,5.436939],[-75.113662,5.436794],[-75.113723,5.436757],[-75.113869,5.43686],[-75.113979,5.436835],[-75.114081,5.436652],[-75.114178,5.436646],[-75.114294,5.436694],[-75.114342,5.436438],[-75.114445,5.436371],[-75.114536,5.436376],[-75.114609,5.436309],[-75.114766,5.436254],[-75.114893,5.43612],[-75.114918,5.436235],[-75.115021,5.436192],[-75.115173,5.436222],[-75.115295,5.436197],[-75.115221,5.43607],[-75.11541,5.436148],[-75.115494,5.436038],[-75.115652,5.435971],[-75.115652,5.435873],[-75.11559,5.43566],[-75.115663,5.435569],[-75.115681,5.435477],[-75.115784,5.435447],[-75.115972,5.435288],[-75.115935,5.435184],[-75.116013,5.435032],[-75.116171,5.43505],[-75.116105,5.435135],[-75.116221,5.435329],[-75.116361,5.435432],[-75.116465,5.435469],[-75.116549,5.435389],[-75.117055,5.435852],[-75.117254,5.43589],[-75.117018,5.436176],[-75.117085,5.436347],[-75.117475,5.436574],[-75.117551,5.436659],[-75.117229,5.436727],[-75.117419,5.436831],[-75.117543,5.437011],[-75.11754,5.437322],[-75.117371,5.437426],[-75.117492,5.437456],[-75.117571,5.43751],[-75.117517,5.437578],[-75.117633,5.437742],[-75.117736,5.43779],[-75.117761,5.437906],[-75.117688,5.437991],[-75.117665,5.438113],[-75.117817,5.438356],[-75.117714,5.438405],[-75.117721,5.43849],[-75.117848,5.438539],[-75.117928,5.438593],[-75.117861,5.438678],[-75.117867,5.43877],[-75.117722,5.438892],[-75.117837,5.438892],[-75.118154,5.438988],[-75.118293,5.438926],[-75.118378,5.438963],[-75.118348,5.439048],[-75.118409,5.439127],[-75.118398,5.439249],[-75.118538,5.439279],[-75.118623,5.439254],[-75.118702,5.439309],[-75.118781,5.439321],[-75.118896,5.439241],[-75.119011,5.439241],[-75.119103,5.439405],[-75.119188,5.439325],[-75.119267,5.439313],[-75.119448,5.439185],[-75.119803,5.438726],[-75.119833,5.438403],[-75.119904,5.438216],[-75.119949,5.438326],[-75.120057,5.438426],[-75.120206,5.438689],[-75.120243,5.43884],[-75.12014,5.438896],[-75.12036,5.439096],[-75.120507,5.439521],[-75.120605,5.439722],[-75.120775,5.439892],[-75.120894,5.440238],[-75.120819,5.44047]]},"properties":{"tipo":"Camino","ruta":"Z3","descripcion":null,"longitud_km":2.3664}},{"type":"Feature","id":12,"geometry":{"type":"LineString","coordinates":[[-75.124041,5.438407],[-75.123904,5.438476],[-75.123772,5.438512],[-75.123624,5.438489],[-75.123146,5.438526],[-75.123056,5.438596],[-75.122968,5.43876],[-75.122878,5.438866],[-75.122805,5.439014],[-75.122697,5.439143],[-75.122507,5.439436],[-75.122371,5.439479],[-75.122352,5.4396],[-75.12224,5.439639],[-75.122081,5.439761],[-75.121944,5.439738],[-75.12186,5.439906],[-75.121793,5.439933],[-75.121743,5.440027],[-75.121476,5.44016],[-75.121386,5.440164],[-75.12113,5.440278],[-75.121056,5.440411],[-75.120819,5.44047],[-75.12082,5.440615],[-75.120684,5.440557],[-75.120669,5.440681],[-75.120548,5.440717],[-75.12042,5.440667],[-75.120171,5.440617],[-75.120011,5.440516],[-75.120011,5.440423],[-75.119902,5.440443],[-75.119809,5.440501],[-75.11975,5.440466],[-75.119793,5.440381],[-75.119862,5.440338],[-75.119858,5.440291],[-75.119769,5.44026],[-75.119715,5.440315],[-75.11952,5.440378],[-75.119497,5.44044],[-75.119365,5.440499],[-75.119109,5.440496],[-75.118957,5.440461],[-75.118553,5.440626],[-75.118483,5.440724],[-75.118188,5.440792],[-75.118103,5.440784],[-75.118048,5.440839],[-75.118045,5.440936],[-75.117846,5.440832],[-75.117337,5.440814],[-75.117461,5.440872],[-75.117679,5.440906],[-75.117843,5.44096],[-75.11777,5.441206],[-75.117762,5.441331],[-75.117899,5.441447],[-75.117989,5.441568],[-75.11779,5.441568],[-75.117728,5.441606],[-75.117709,5.441501],[-75.117585,5.441424],[-75.117241,5.441387],[-75.11684,5.441292],[-75.11662,5.441292],[-75.11635,5.441482],[-75.116064,5.441645],[-75.116016,5.441751],[-75.116131,5.442037],[-75.116313,5.442315],[-75.116332,5.44242],[-75.116323,5.442745],[-75.116247,5.442831],[-75.116056,5.442918],[-75.115885,5.443033],[-75.115808,5.44311],[-75.115628,5.443397],[-75.115523,5.443703],[-75.115466,5.44379],[-75.115151,5.443854],[-75.115008,5.444017],[-75.114941,5.444051],[-75.114846,5.444145]]},"properties":{"tipo":"Camino","ruta":"Z3","descripcion":null,"longitud_km":1.72}},{"type":"Feature","id":13,"geometry":{"type":"LineString","coordinates":[[-75.107695,5.452607],[-75.1077,5.452888],[-75.107584,5.453095],[-75.107433,5.453248],[-75.10694,5.453449],[-75.106788,5.453593],[-75.106978,5.453649],[-75.107501,5.453647],[-75.108477,5.453263],[-75.109379,5.45326],[-75.109787,5.453363],[-75.11013,5.453495],[-75.1105,5.453599],[-75.110928,5.453654],[-75.111279,5.453815],[-75.111451,5.453928],[-75.111414,5.454185],[-75.111453,5.45448],[-75.111603,5.454642],[-75.111632,5.454978]]},"properties":{"tipo":"Camino","ruta":"Z1","descripcion":null,"longitud_km":0.826}},{"type":"Feature","id":14,"geometry":{"type":"LineString","coordinates":[[-75.107695,5.452607],[-75.10773,5.452465],[-75.107917,5.45239],[-75.108007,5.452312],[-75.108108,5.452288],[-75.108228,5.452222],[-75.108212,5.452125],[-75.108257,5.452038],[-75.108407,5.451933],[-75.108642,5.451587],[-75.108732,5.451575],[-75.108925,5.45163],[-75.10909,5.451527],[-75.109157,5.451457],[-75.109227,5.451253],[-75.109193,5.451145],[-75.109308,5.450988],[-75.109278,5.450895],[-75.10917,5.450748],[-75.10919,5.450648],[-75.10949,5.450368],[-75.109562,5.450645],[-75.109892,5.450887],[-75.110038,5.451037],[-75.11012,5.451087],[-75.110217,5.451107],[-75.110335,5.451278],[-75.110402,5.45146],[-75.110603,5.451677],[-75.11063,5.451787],[-75.110618,5.451893],[-75.110557,5.45198]]},"properties":{"tipo":"Camino","ruta":"Z1","descripcion":null,"longitud_km":0.6147}},{"type":"Feature","id":15,"geometry":{"type":"LineString","coordinates":[[-75.111408,5.452188],[-75.111412,5.452152],[-75.111595,5.452057],[-75.111707,5.452075],[-75.111802,5.452123],[-75.112035,5.452152],[-75.112113,5.452102],[-75.11218,5.45201],[-75.112287,5.451975],[-75.112467,5.451832],[-75.112562,5.451837],[-75.112618,5.451647],[-75.112602,5.451528],[-75.112533,5.451468],[-75.11262,5.4514],[-75.112812,5.45147],[-75.11294,5.451487],[-75.113022,5.451428],[-75.113047,5.4513],[-75.113125,5.451325],[-75.113133,5.451437],[-75.113083,5.451648],[-75.112997,5.451705],[-75.112943,5.451785],[-75.112977,5.451997],[-75.112933,5.452307],[-75.11285,5.452498],[-75.112747,5.452557],[-75.112613,5.452533],[-75.112568,5.452604]]},"properties":{"tipo":"Camino","ruta":"Z1","descripcion":null,"longitud_km":0.4574}},{"type":"Feature","id":16,"geometry":{"type":"LineString","coordinates":[[-75.115657,5.454328],[-75.115807,5.454381],[-75.115961,5.45447],[-75.116116,5.454469],[-75.116235,5.45438],[-75.11619,5.454181],[-75.115823,5.453585],[-75.115902,5.453328],[-75.115888,5.453127],[-75.116025,5.45299],[-75.116175,5.452925],[-75.116147,5.452578],[-75.116248,5.45247],[-75.116243,5.452303],[-75.116147,5.452133],[-75.116152,5.452022],[-75.116042,5.45187],[-75.116132,5.451855],[-75.116235,5.451887],[-75.116349,5.451856],[-75.116537,5.4519],[-75.116615,5.451772],[-75.116898,5.451908],[-75.117062,5.45193],[-75.117208,5.451915],[-75.117165,5.452077],[-75.117205,5.452183],[-75.11726,5.452312],[-75.117348,5.452395],[-75.117443,5.452693],[-75.11753,5.452765],[-75.117753,5.452635],[-75.117968,5.452418],[-75.118176,5.452445],[-75.118364,5.452534],[-75.118466,5.452615],[-75.118679,5.452709],[-75.118883,5.452716],[-75.118978,5.451959],[-75.118977,5.451677],[-75.11891,5.450801],[-75.118967,5.450532],[-75.118978,5.450258],[-75.119041,5.449944],[-75.119039,5.449535],[-75.118994,5.449299],[-75.118885,5.449159],[-75.118707,5.449108],[-75.118509,5.449218],[-75.118357,5.449518],[-75.118103,5.449698],[-75.117836,5.449923],[-75.117575,5.450032],[-75.117307,5.449944],[-75.117064,5.449708],[-75.116966,5.449121],[-75.116652,5.448822],[-75.116574,5.448349],[-75.116599,5.44817],[-75.11656,5.448036],[-75.116382,5.4481],[-75.11605,5.447987],[-75.11569,5.447959]]},"properties":{"tipo":"Camino","ruta":"Z1","descripcion":null,"longitud_km":1.7706}},{"type":"Feature","id":17,"geometry":{"type":"LineString","coordinates":[[-75.118014,5.457872],[-75.118038,5.457756],[-75.118022,5.457635],[-75.118072,5.457567],[-75.118053,5.457498],[-75.118065,5.457437],[-75.118047,5.457418],[-75.117922,5.457405],[-75.117912,5.457385],[-75.117987,5.457307],[-75.11811,5.457283],[-75.118123,5.457268],[-75.118063,5.45724],[-75.118062,5.457195],[-75.118102,5.45714],[-75.118188,5.457102],[-75.11826,5.457032],[-75.118245,5.456973],[-75.118265,5.45689],[-75.11832,5.456793],[-75.118305,5.456532],[-75.118382,5.45641],[-75.118368,5.456388],[-75.118328,5.456388],[-75.118278,5.456435],[-75.11828,5.456412],[-75.118347,5.456203],[-75.11838,5.456207],[-75.118423,5.456122],[-75.118378,5.45599],[-75.118405,5.455892],[-75.118303,5.45586],[-75.118313,5.455818],[-75.118352,5.455808],[-75.118328,5.455757],[-75.11835,5.455728],[-75.11829,5.455668],[-75.1183,5.455585],[-75.118272,5.455532],[-75.11833,5.455525],[-75.118355,5.45561],[-75.118445,5.455531],[-75.118487,5.455563],[-75.118578,5.45557],[-75.118668,5.45563],[-75.118765,5.455587],[-75.118798,5.45561],[-75.118783,5.455632],[-75.118917,5.455702],[-75.118875,5.455628],[-75.118923,5.455595],[-75.118708,5.455438],[-75.118792,5.455359],[-75.118904,5.455314],[-75.118841,5.455227],[-75.118832,5.45508],[-75.118702,5.455091],[-75.118505,5.454993],[-75.118355,5.454988],[-75.118325,5.45461],[-75.118414,5.454415],[-75.118576,5.454275],[-75.118705,5.45405],[-75.118727,5.453928],[-75.118678,5.453776],[-75.118574,5.453608],[-75.11856,5.453268],[-75.118597,5.453118],[-75.118752,5.452979],[-75.118883,5.452716]]},"properties":{"tipo":"Camino","ruta":"Z1","descripcion":null,"longitud_km":0.8972}},{"type":"Feature","id":18,"geometry":{"type":"LineString","coordinates":[[-75.114846,5.444145],[-75.114769,5.444247],[-75.114672,5.44433],[-75.114067,5.444584],[-75.113609,5.444871],[-75.113514,5.44491],[-75.113409,5.44491],[-75.113281,5.44476],[-75.113279,5.444648],[-75.11346,5.444399],[-75.113719,5.444252]]},"properties":{"tipo":"Camino","ruta":"Z2","descripcion":null,"longitud_km":0.2858}},{"type":"Feature","id":19,"geometry":{"type":"LineString","coordinates":[[-75.106765,5.441231],[-75.106604,5.441437],[-75.106607,5.441579],[-75.106565,5.441663],[-75.10657,5.441702],[-75.106396,5.441791],[-75.106344,5.441863],[-75.106297,5.441875],[-75.106262,5.441914],[-75.106264,5.441936],[-75.106319,5.441973],[-75.106306,5.441991],[-75.10633,5.442024],[-75.10631,5.442048],[-75.106348,5.442074],[-75.106365,5.442119],[-75.106325,5.442172],[-75.106399,5.442207],[-75.106371,5.442234],[-75.106372,5.442292],[-75.106409,5.442303],[-75.106406,5.442332],[-75.106473,5.442337],[-75.106432,5.442353],[-75.106578,5.442444],[-75.106555,5.442478],[-75.106613,5.442451],[-75.106656,5.442458],[-75.106584,5.442538],[-75.106619,5.442605],[-75.106771,5.442716],[-75.106785,5.442779],[-75.10678,5.442841],[-75.106747,5.44286],[-75.10676,5.442923],[-75.10678,5.44293],[-75.106782,5.442871],[-75.106853,5.442864],[-75.1069,5.442778],[-75.106965,5.442785],[-75.107056,5.442861],[-75.107128,5.442837],[-75.107134,5.442812],[-75.10719,5.44278],[-75.107253,5.442833],[-75.107336,5.442779],[-75.107406,5.442798],[-75.107439,5.442739],[-75.107488,5.442731],[-75.107526,5.442771],[-75.10749,5.4428],[-75.107546,5.442837],[-75.107624,5.442835]]},"properties":{"tipo":"Camino","ruta":"Z3","descripcion":null,"longitud_km":0.4302}},{"type":"Feature","id":20,"geometry":{"type":"LineString","coordinates":[[-75.117195,5.441719],[-75.117207,5.441762],[-75.117275,5.441811],[-75.117366,5.441822],[-75.117406,5.441789],[-75.11749,5.441789],[-75.11762,5.441895],[-75.117637,5.441944],[-75.117732,5.441873],[-75.11786,5.441846],[-75.117927,5.441847],[-75.117951,5.44188],[-75.118056,5.441926],[-75.118171,5.44191],[-75.118248,5.441969],[-75.118236,5.442107],[-75.118264,5.442161],[-75.118264,5.442222],[-75.118302,5.442283],[-75.118308,5.44241],[-75.118344,5.442462],[-75.118429,5.442398],[-75.118449,5.442429],[-75.11846,5.442413],[-75.118498,5.442428],[-75.118546,5.442482],[-75.118657,5.442473],[-75.118736,5.442368],[-75.118863,5.442286],[-75.118933,5.442315],[-75.118961,5.442485],[-75.119014,5.442336],[-75.119085,5.442331],[-75.119063,5.442253],[-75.119076,5.442221],[-75.119189,5.442219],[-75.119326,5.442253],[-75.119404,5.442236],[-75.119366,5.442128],[-75.119411,5.441974],[-75.119527,5.441989],[-75.119577,5.442006],[-75.119568,5.442031],[-75.119587,5.442031],[-75.11963,5.442011],[-75.119681,5.441947],[-75.119752,5.44195],[-75.119775,5.441929],[-75.119743,5.441907],[-75.119843,5.441857],[-75.120005,5.441962],[-75.120065,5.44193],[-75.120069,5.44181],[-75.12005,5.441822],[-75.120072,5.441716],[-75.120047,5.441599],[-75.120034,5.441614],[-75.120003,5.441582],[-75.119999,5.441488],[-75.119971,5.441515],[-75.120034,5.44137],[-75.120016,5.44129],[-75.11999,5.441262],[-75.11982,5.441232],[-75.119775,5.44117],[-75.119822,5.441075],[-75.119884,5.441015],[-75.119816,5.440712],[-75.11987,5.440598],[-75.119866,5.440558],[-75.119967,5.440543],[-75.120003,5.440601],[-75.120154,5.44063],[-75.1202,5.440677],[-75.120259,5.440687],[-75.120319,5.440754],[-75.120446,5.440733],[-75.120531,5.440776],[-75.120574,5.440774],[-75.120636,5.440704],[-75.120624,5.440694]]},"properties":{"tipo":"Camino","ruta":"Z3","descripcion":null,"longitud_km":0.8285}},{"type":"Feature","id":21,"geometry":{"type":"LineString","coordinates":[[-75.120372,5.443765],[-75.120358,5.443752],[-75.120292,5.443846],[-75.120393,5.443946],[-75.120352,5.443954],[-75.120366,5.443996],[-75.120304,5.444029],[-75.120311,5.444007],[-75.120273,5.444007],[-75.120151,5.443944],[-75.120057,5.443962],[-75.119964,5.443941],[-75.119779,5.443846],[-75.119769,5.443814],[-75.119667,5.443795],[-75.119641,5.443762],[-75.119583,5.443765],[-75.119573,5.443706],[-75.11953,5.443707],[-75.119508,5.443646],[-75.119433,5.44359],[-75.119394,5.443458],[-75.119403,5.443372]]},"properties":{"tipo":"Camino","ruta":"Z3","descripcion":null,"longitud_km":0.1994}},{"type":"Feature","id":22,"geometry":{"type":"LineString","coordinates":[[-75.12009,5.445246],[-75.1202,5.445229],[-75.120226,5.445345],[-75.120176,5.445387],[-75.12021,5.445463],[-75.120273,5.44551],[-75.12031,5.445637],[-75.120372,5.445631],[-75.120425,5.445696],[-75.12045,5.445682],[-75.12049,5.445748],[-75.120566,5.445752],[-75.120618,5.445827],[-75.120741,5.445842],[-75.120799,5.445893],[-75.120876,5.445884],[-75.120964,5.44593],[-75.120979,5.445895],[-75.12102,5.445882],[-75.120999,5.445873],[-75.121022,5.445843],[-75.121117,5.445867],[-75.121147,5.445907],[-75.12118,5.445901],[-75.121199,5.44584],[-75.121219,5.445842],[-75.121237,5.445897],[-75.121264,5.445864],[-75.12131,5.445876],[-75.121356,5.445843],[-75.121284,5.445789],[-75.1213,5.445664],[-75.12135,5.445643],[-75.121387,5.445585],[-75.121554,5.445569],[-75.121549,5.445476],[-75.121607,5.445498],[-75.121605,5.445597],[-75.121656,5.44557],[-75.121702,5.445519],[-75.121726,5.445428],[-75.121765,5.445441],[-75.121853,5.44534]]},"properties":{"tipo":"Camino","ruta":"Z4","descripcion":null,"longitud_km":0.3649}},{"type":"Feature","id":23,"geometry":{"type":"LineString","coordinates":[[-75.121612,5.441244],[-75.12168,5.441518],[-75.121718,5.441534],[-75.121706,5.441549],[-75.121736,5.441664],[-75.121773,5.441718],[-75.121645,5.441879],[-75.12164,5.441917],[-75.121719,5.442088],[-75.121591,5.442062],[-75.121546,5.442029],[-75.121456,5.44204],[-75.121489,5.442076],[-75.121647,5.442298],[-75.121637,5.442397],[-75.121595,5.442509],[-75.121661,5.442696],[-75.121631,5.442935],[-75.121651,5.442856],[-75.121661,5.442696],[-75.121628,5.442586],[-75.121595,5.442509],[-75.121608,5.442456],[-75.121637,5.442397],[-75.121647,5.442298],[-75.121456,5.44204],[-75.121546,5.442029],[-75.121591,5.442062],[-75.121719,5.442088],[-75.121683,5.442007],[-75.12164,5.441917],[-75.121645,5.441879],[-75.121689,5.441826],[-75.121773,5.441718],[-75.121797,5.441683],[-75.121872,5.441682],[-75.121865,5.441664],[-75.121931,5.441598],[-75.122019,5.441655],[-75.122102,5.441672],[-75.122099,5.441621],[-75.122161,5.441568],[-75.122154,5.441551],[-75.122135,5.441557],[-75.122205,5.441505],[-75.12244,5.441583],[-75.122531,5.441674],[-75.122554,5.441679],[-75.122608,5.44161],[-75.12256,5.44158],[-75.122466,5.4414],[-75.122461,5.441355],[-75.122363,5.441262],[-75.122306,5.441237],[-75.122287,5.441123],[-75.122226,5.441069],[-75.122157,5.440953],[-75.12213,5.440828],[-75.122154,5.440799],[-75.122272,5.440841],[-75.122381,5.440796],[-75.122494,5.440798],[-75.122613,5.44076],[-75.12278,5.440764],[-75.122848,5.440696],[-75.12295,5.440682]]},"properties":{"tipo":"Camino","ruta":"Z4","descripcion":null,"longitud_km":0.7733}},{"type":"Feature","id":24,"geometry":{"type":"LineString","coordinates":[[-75.11354,5.456554],[-75.113551,5.456426],[-75.113675,5.456285],[-75.113633,5.456239],[-75.113576,5.456058],[-75.113521,5.456017],[-75.113537,5.455929],[-75.113493,5.455831],[-75.113429,5.455852],[-75.113372,5.455788],[-75.113282,5.455764],[-75.113305,5.45568],[-75.113272,5.455629],[-75.113364,5.455399],[-75.113294,5.455345],[-75.113206,5.455321],[-75.113126,5.455245],[-75.113091,5.455153],[-75.113142,5.4551],[-75.113124,5.455021],[-75.113166,5.454979],[-75.113179,5.454997],[-75.11321,5.454974],[-75.113264,5.454977],[-75.113301,5.454826],[-75.113321,5.454839],[-75.113313,5.45486],[-75.113338,5.454863],[-75.113433,5.454822],[-75.113474,5.454929],[-75.113495,5.454934],[-75.113508,5.454835],[-75.113554,5.454781],[-75.113568,5.454864],[-75.113638,5.45486],[-75.113659,5.45489],[-75.113679,5.45486],[-75.113723,5.454885],[-75.113719,5.454843],[-75.113765,5.454794],[-75.113757,5.454766],[-75.11381,5.454689],[-75.113809,5.454631]]},"properties":{"tipo":"Camino","ruta":"Z1","descripcion":null,"longitud_km":0.3897}},{"type":"Feature","id":25,"geometry":{"type":"LineString","coordinates":[[-75.114042,5.45913],[-75.113982,5.459136],[-75.113937,5.459214],[-75.113845,5.459296],[-75.113804,5.459287],[-75.113723,5.45935],[-75.11368,5.459352],[-75.113591,5.459432],[-75.113476,5.459389],[-75.113484,5.459428],[-75.113459,5.459442],[-75.11342,5.459439],[-75.113355,5.459476],[-75.113238,5.459483],[-75.113161,5.459641],[-75.112979,5.45976],[-75.112884,5.459589],[-75.112707,5.459497],[-75.112613,5.459354],[-75.11255,5.459337],[-75.112502,5.45929],[-75.112433,5.459271],[-75.112379,5.459286],[-75.112358,5.459263],[-75.112376,5.459268],[-75.112371,5.45925],[-75.112274,5.45921],[-75.112195,5.459064],[-75.112224,5.458963],[-75.112215,5.458904],[-75.112235,5.458905],[-75.112229,5.45882],[-75.112197,5.458801],[-75.11219,5.458764],[-75.112105,5.458715],[-75.112022,5.458745],[-75.111992,5.458707],[-75.111875,5.458681],[-75.111809,5.458585],[-75.111786,5.458578],[-75.111783,5.458599],[-75.111745,5.458611],[-75.111704,5.458594],[-75.111654,5.458619],[-75.111649,5.458595],[-75.111561,5.45856],[-75.111498,5.458605],[-75.111526,5.458675],[-75.11148,5.458693],[-75.111457,5.458729],[-75.111366,5.458761],[-75.111346,5.458796],[-75.111362,5.458809],[-75.111306,5.458799],[-75.111368,5.458863],[-75.111327,5.458887],[-75.111251,5.458872],[-75.111248,5.45889],[-75.111235,5.458877],[-75.111207,5.458896],[-75.11116,5.458848],[-75.111091,5.458839],[-75.111041,5.458729],[-75.111022,5.458734],[-75.110918,5.458659],[-75.110876,5.458694],[-75.110821,5.458669],[-75.110814,5.458625],[-75.110796,5.458636],[-75.110791,5.458716],[-75.110765,5.458768],[-75.110738,5.458718],[-75.11068,5.458722],[-75.110689,5.458605],[-75.110718,5.458583],[-75.110684,5.458579]]},"properties":{"tipo":"Camino","ruta":"Z1","descripcion":null,"longitud_km":0.6227}},{"type":"Feature","id":26,"geometry":{"type":"LineString","coordinates":[[-75.126845,5.445867],[-75.126566,5.445839],[-75.126288,5.44588],[-75.126114,5.446009],[-75.126132,5.446074],[-75.126227,5.446174],[-75.12635,5.446254],[-75.126369,5.446422],[-75.126198,5.446447],[-75.125871,5.44639],[-75.125568,5.446437],[-75.125167,5.446368],[-75.124994,5.446543],[-75.124707,5.446624],[-75.124459,5.446597],[-75.124045,5.44625],[-75.123757,5.446064]]},"properties":{"tipo":"Camino","ruta":"RP","descripcion":null,"longitud_km":0.4647}},{"type":"Feature","id":27,"geometry":{"type":"LineString","coordinates":[[-75.126131,5.447453],[-75.125922,5.447395],[-75.125788,5.447276],[-75.125596,5.447166],[-75.125462,5.447148],[-75.125176,5.447206],[-75.124952,5.447336],[-75.124781,5.447557],[-75.124595,5.447749],[-75.124405,5.447879],[-75.123921,5.447689],[-75.123822,5.447847]]},"properties":{"tipo":"Camino","ruta":"RP","descripcion":null,"longitud_km":0.3086}},{"type":"Feature","id":28,"geometry":{"type":"LineString","coordinates":[[-75.11101,5.455195],[-75.111,5.455296],[-75.111057,5.455327],[-75.11103,5.455385],[-75.110988,5.455394],[-75.111076,5.45539],[-75.111115,5.455404],[-75.111108,5.455421],[-75.111149,5.455379],[-75.111136,5.455462],[-75.111164,5.455491],[-75.111221,5.455464],[-75.111239,5.45541],[-75.111274,5.455444],[-75.111314,5.455565],[-75.111282,5.455621],[-75.111295,5.455609],[-75.111366,5.455639],[-75.111336,5.455695],[-75.111383,5.455805],[-75.111347,5.455829],[-75.111343,5.455871],[-75.111293,5.455902],[-75.111294,5.455942],[-75.111313,5.455953],[-75.11138,5.455907],[-75.11141,5.455957],[-75.111455,5.455949],[-75.111483,5.455975],[-75.111504,5.455945],[-75.111562,5.455921],[-75.111615,5.455943],[-75.111618,5.455992],[-75.111563,5.456076],[-75.111573,5.456092],[-75.11165,5.45605],[-75.111709,5.456074],[-75.11169,5.45611],[-75.111734,5.456134],[-75.111781,5.456201],[-75.111833,5.456222],[-75.111865,5.456265],[-75.111948,5.456277],[-75.11197,5.456334],[-75.112023,5.456316],[-75.112087,5.456393],[-75.112124,5.456382],[-75.11215,5.456431],[-75.112213,5.456453],[-75.112268,5.456505],[-75.112318,5.456579],[-75.112405,5.456553]]},"properties":{"tipo":"Camino","ruta":"Z1","descripcion":null,"longitud_km":0.362}},{"type":"Feature","id":29,"geometry":{"type":"LineString","coordinates":[[-75.12636,5.438066],[-75.12639,5.438159],[-75.126383,5.438222],[-75.126325,5.438376],[-75.126238,5.438471],[-75.12623,5.438511],[-75.126267,5.438589],[-75.126235,5.438592],[-75.126197,5.43864],[-75.126221,5.438718],[-75.126184,5.438731]]},"properties":{"tipo":"Camino","ruta":"Z4","descripcion":null,"longitud_km":0.0941}},{"type":"Feature","id":30,"geometry":{"type":"LineString","coordinates":[[-75.1135,5.44491],[-75.113422,5.444954],[-75.113462,5.445066],[-75.113343,5.445206],[-75.113231,5.445225],[-75.113136,5.445168],[-75.113066,5.445222],[-75.112998,5.445193],[-75.112981,5.445204]]},"properties":{"tipo":"Camino","ruta":"Z2","descripcion":null,"longitud_km":0.0917}},{"type":"Feature","id":31,"geometry":{"type":"LineString","coordinates":[[-75.101974,5.447635],[-75.101841,5.447792],[-75.101891,5.447934],[-75.101869,5.447976],[-75.101888,5.448035],[-75.10187,5.448037],[-75.101837,5.448156],[-75.101835,5.448343],[-75.101777,5.448361],[-75.101751,5.448277],[-75.101675,5.448302],[-75.101603,5.448277],[-75.10153,5.448281],[-75.101538,5.448338],[-75.101513,5.448343],[-75.101489,5.448306],[-75.101456,5.448331],[-75.101522,5.448377],[-75.101516,5.448412],[-75.101451,5.448433],[-75.101473,5.448438],[-75.101493,5.448493],[-75.101429,5.448489],[-75.101352,5.448419],[-75.101335,5.448437],[-75.101308,5.44842],[-75.101298,5.44846],[-75.101256,5.448497],[-75.101223,5.448489],[-75.101226,5.44852],[-75.101231,5.448492],[-75.101247,5.448502]]},"properties":{"tipo":"Camino","ruta":"Z2","descripcion":null,"longitud_km":0.2344}},{"type":"Feature","id":32,"geometry":{"type":"LineString","coordinates":[[-75.122803,5.439919],[-75.122799,5.439973],[-75.122854,5.44003],[-75.122896,5.440123],[-75.12293,5.440328]]},"properties":{"tipo":"Camino","ruta":"Z4","descripcion":null,"longitud_km":0.05}},{"type":"Feature","id":33,"geometry":{"type":"LineString","coordinates":[[-75.133393,5.436435],[-75.13359,5.436602],[-75.133878,5.436572],[-75.134327,5.436363],[-75.134448,5.435898],[-75.134456,5.435626],[-75.134139,5.435223]]},"properties":{"tipo":"Camino","ruta":"Z4","descripcion":null,"longitud_km":0.2555}},{"type":"Feature","id":34,"geometry":{"type":"LineString","coordinates":[[-75.130993,5.434353],[-75.13098,5.434751],[-75.13103,5.435116],[-75.130843,5.435483],[-75.130893,5.435757],[-75.1309,5.436062],[-75.130821,5.436239],[-75.130718,5.436362],[-75.130123,5.436638],[-75.129861,5.436724],[-75.129673,5.436859],[-75.129632,5.43714],[-75.129792,5.437768],[-75.129359,5.437617]]},"properties":{"tipo":"Camino","ruta":"Z4","descripcion":null,"longitud_km":0.5169}},{"type":"Feature","id":35,"geometry":{"type":"LineString","coordinates":[[-75.136405,5.4343],[-75.136402,5.434412],[-75.13636,5.434424],[-75.136346,5.434487],[-75.136374,5.434488],[-75.136342,5.434588],[-75.13637,5.434718],[-75.136249,5.434762],[-75.136254,5.434806],[-75.13622,5.434896],[-75.136245,5.434936],[-75.136242,5.434992],[-75.136191,5.435066],[-75.136145,5.435072],[-75.136153,5.435112],[-75.136024,5.435206],[-75.135939,5.435184],[-75.135899,5.435261],[-75.135973,5.435309],[-75.135913,5.435412],[-75.135862,5.435417],[-75.135856,5.435458],[-75.135652,5.435553],[-75.135586,5.435502],[-75.135552,5.435543],[-75.135304,5.435542],[-75.135296,5.435612],[-75.135102,5.435642],[-75.135024,5.435739],[-75.134974,5.435843],[-75.134721,5.435872],[-75.134701,5.435923],[-75.134674,5.435907],[-75.134652,5.435932],[-75.134625,5.435916],[-75.134588,5.435959],[-75.134528,5.435951],[-75.134401,5.436085],[-75.134337,5.436077],[-75.134303,5.436118],[-75.134242,5.43614],[-75.134196,5.436129],[-75.133961,5.436267],[-75.133875,5.436298],[-75.133819,5.436282],[-75.133804,5.436247],[-75.133636,5.436253],[-75.133535,5.436191],[-75.133491,5.436133],[-75.133454,5.436129],[-75.133411,5.436062],[-75.133393,5.436068],[-75.133346,5.435925],[-75.13322,5.435892],[-75.133206,5.43593],[-75.133255,5.43595],[-75.133254,5.435998],[-75.133284,5.436016],[-75.133293,5.436109],[-75.133279,5.436125],[-75.133232,5.436151],[-75.133176,5.436143],[-75.133158,5.436174],[-75.133036,5.436186],[-75.132822,5.436294],[-75.132782,5.436294],[-75.132688,5.436375],[-75.132639,5.436378],[-75.132622,5.436414],[-75.132501,5.436438],[-75.132467,5.436481],[-75.13243,5.436471],[-75.132361,5.436539],[-75.132311,5.436559],[-75.132237,5.436552],[-75.132068,5.436667],[-75.132041,5.436653],[-75.131957,5.436711],[-75.131907,5.436678],[-75.131792,5.436822],[-75.131704,5.436876],[-75.131677,5.436858],[-75.131627,5.436874],[-75.131514,5.437037],[-75.131445,5.437075],[-75.131388,5.437086],[-75.131353,5.437055],[-75.131255,5.437102],[-75.131214,5.437075],[-75.131136,5.437104],[-75.131044,5.437108],[-75.13103,5.437078],[-75.130878,5.437058],[-75.130798,5.437093],[-75.130597,5.437037],[-75.130566,5.437056],[-75.130544,5.437019],[-75.130514,5.437018],[-75.130429,5.437068],[-75.130388,5.437029],[-75.13031,5.437001],[-75.130289,5.437021],[-75.13023,5.437018],[-75.130191,5.43698],[-75.130055,5.436961],[-75.129988,5.43691],[-75.130003,5.436877],[-75.129968,5.436802],[-75.129977,5.436694],[-75.130078,5.436496],[-75.130217,5.436468],[-75.130341,5.43637],[-75.130483,5.436307],[-75.13067,5.436076],[-75.13076,5.435939],[-75.1308,5.435823],[-75.130908,5.43573],[-75.130924,5.435622],[-75.130893,5.435542],[-75.130936,5.435364],[-75.131054,5.435241],[-75.131277,5.435229],[-75.131374,5.435132],[-75.131405,5.435066],[-75.131367,5.435052],[-75.131338,5.434995],[-75.131356,5.434948],[-75.131352,5.434922],[-75.131322,5.434922],[-75.131327,5.434844],[-75.131372,5.434728],[-75.131463,5.434609],[-75.131508,5.434576],[-75.131636,5.434583],[-75.131684,5.434563],[-75.131739,5.434469],[-75.131876,5.434424],[-75.131916,5.434384],[-75.131996,5.434361],[-75.132064,5.43438],[-75.132145,5.434364],[-75.132236,5.434303],[-75.132392,5.434345],[-75.132659,5.434364],[-75.132785,5.434237],[-75.132897,5.434022],[-75.13292,5.433749],[-75.133108,5.433554],[-75.133101,5.433452],[-75.133131,5.433379],[-75.133291,5.433285],[-75.133319,5.433175],[-75.13338,5.433083],[-75.133482,5.433054],[-75.133571,5.433067],[-75.133642,5.433028],[-75.133771,5.433059],[-75.133853,5.433032],[-75.133838,5.432977],[-75.133897,5.432929],[-75.133965,5.432945],[-75.133976,5.432972],[-75.134074,5.43286]]},"properties":{"tipo":"Camino","ruta":"Z4","descripcion":null,"longitud_km":1.8061}},{"type":"Feature","id":36,"geometry":{"type":"LineString","coordinates":[[-75.12397,5.45242],[-75.123817,5.452422],[-75.123767,5.452475],[-75.123683,5.452483],[-75.123593,5.452375],[-75.123461,5.452417],[-75.123402,5.452333],[-75.12339,5.452259],[-75.123234,5.452202],[-75.123137,5.452228],[-75.123092,5.452142],[-75.123025,5.452079],[-75.122934,5.452051],[-75.122901,5.451978],[-75.122789,5.451904],[-75.122622,5.4519],[-75.122542,5.451825],[-75.122522,5.451723],[-75.12225,5.451667],[-75.122141,5.451408],[-75.122151,5.451327],[-75.122124,5.451201],[-75.121959,5.451234],[-75.121872,5.451193],[-75.121572,5.451182],[-75.121422,5.45108],[-75.12115,5.451174],[-75.12088,5.451142],[-75.12083,5.451212],[-75.120763,5.451221],[-75.120668,5.451165],[-75.120534,5.451018],[-75.120446,5.451011],[-75.120351,5.451076],[-75.120268,5.451102],[-75.12032,5.450998],[-75.120283,5.450928],[-75.120184,5.451063],[-75.120131,5.451201],[-75.120076,5.451267],[-75.120009,5.451295],[-75.119983,5.451411],[-75.120012,5.451532],[-75.119942,5.45158],[-75.119913,5.451753],[-75.119696,5.45196],[-75.119726,5.452026],[-75.119723,5.4522],[-75.119845,5.452379],[-75.119865,5.452459],[-75.11979,5.452508],[-75.119792,5.45271],[-75.119762,5.452805],[-75.119818,5.453074],[-75.119748,5.4533],[-75.119761,5.453398],[-75.119899,5.453447],[-75.119949,5.453509],[-75.119903,5.453728],[-75.119941,5.453802],[-75.120068,5.453838],[-75.120053,5.453887],[-75.120067,5.453951],[-75.120122,5.454],[-75.120171,5.4541],[-75.120183,5.454179],[-75.12024,5.454197],[-75.120229,5.45432],[-75.120164,5.454342],[-75.12015,5.454383],[-75.120187,5.454449],[-75.120103,5.454628],[-75.120082,5.454807],[-75.120093,5.454951],[-75.120067,5.455042],[-75.120092,5.455108],[-75.120059,5.455283],[-75.119834,5.455666],[-75.119756,5.455721],[-75.119646,5.4559],[-75.119657,5.456046],[-75.119698,5.456112],[-75.11956,5.456201],[-75.119485,5.456447],[-75.11939,5.456637],[-75.119428,5.456702],[-75.119418,5.456804],[-75.119362,5.456841],[-75.119309,5.456932],[-75.119252,5.456962],[-75.119208,5.456937],[-75.119183,5.457026],[-75.119255,5.457057],[-75.119252,5.457091],[-75.119127,5.457246],[-75.119114,5.457411],[-75.119138,5.457529],[-75.118841,5.457971],[-75.118758,5.458039],[-75.118729,5.45819],[-75.118595,5.458253],[-75.11848,5.458415],[-75.118501,5.458466],[-75.118462,5.458547],[-75.118346,5.458591]]},"properties":{"tipo":"Camino","ruta":"Z1","descripcion":null,"longitud_km":1.577}},{"type":"Feature","id":37,"geometry":{"type":"LineString","coordinates":[[-75.110154,5.444774],[-75.110505,5.444828],[-75.110582,5.44487],[-75.110679,5.444979],[-75.110853,5.44502],[-75.110931,5.44521],[-75.111008,5.445207],[-75.111341,5.445028],[-75.111529,5.445331],[-75.111501,5.445472],[-75.11152,5.445567]]},"properties":{"tipo":"Camino","ruta":"Z2","descripcion":null,"longitud_km":0.2245}},{"type":"Feature","id":38,"geometry":{"type":"LineString","coordinates":[[-75.114565,5.444161],[-75.114495,5.444177],[-75.114485,5.444285],[-75.114371,5.444325],[-75.114248,5.444409],[-75.114094,5.444456],[-75.11367,5.44468],[-75.113618,5.444671],[-75.113568,5.44455],[-75.113617,5.444367]]},"properties":{"tipo":"Camino","ruta":"Z2","descripcion":null,"longitud_km":0.1634}},{"type":"Feature","id":39,"geometry":{"type":"LineString","coordinates":[[-75.115609,5.443674],[-75.115707,5.443662],[-75.115984,5.443689],[-75.115978,5.443745],[-75.115569,5.44401],[-75.115298,5.444117],[-75.115189,5.444103],[-75.115253,5.44403],[-75.115225,5.44391]]},"properties":{"tipo":"Camino","ruta":"Z2","descripcion":null,"longitud_km":0.171}}]}