{"type":"FeatureCollection","features":[{"type":"Feature","id":0,"geometry":{"type":"Polygon","coordinates":[[[-75.114582,5.454897],[-75.114423,5.454884],[-75.114269,5.454842],[-75.114057,5.454731],[-75.113936,5.454627],[-75.113834,5.454504],[-75.113726,5.45429],[-75.113687,5.454136],[-75.113676,5.453976],[-75.113693,5.453817],[-75.11377,5.453591],[-75.113854,5.453454],[-75.11396,5.453335],[-75.114085,5.453236],[-75.114226,5.453161],[-75.114378,5.453111],[-75.114615,5.453089],[-75.114774,5.45311],[-75.114926,5.453158],[-75.115132,5.453279],[-75.115249,5.453387],[-75.115345,5.453515],[-75.115417,5.453658],[-75.115463,5.453811],[-75.115481,5.45397],[-75.115471,5.454129],[-75.115433,5.454284],[-75.115368,5.454431],[-75.115226,5.454623],[-75.115105,5.454727],[-75.114894,5.45484],[-75.114741,5.454883],[-75.114582,5.454897]]]},"properties":{"area_ha":3.1375}},{"type":"Feature","id":1,"geometry":{"type":"Polygon","coordinates":[[[-75.129969,5.435665],[-75.12981,5.435652],[-75.129656,5.435611],[-75.129512,5.435543],[-75.129323,5.435396],[-75.129179,5.435204],[-75.129114,5.435059],[-75.129075,5.434904],[-75.129064,5.434744],[-75.129081,5.434585],[-75.129125,5.434432],[-75.129241,5.434222],[-75.129347,5.434103],[-75.129472,5.434004],[-75.129613,5.433929],[-75.129843,5.433865],[-75.130003,5.433857],[-75.130161,5.433878],[-75.130313,5.433926],[-75.130454,5.434],[-75.13058,5.434099],[-75.130687,5.434217],[-75.130771,5.434353],[-75.13083,5.434501],[-75.130868,5.434738],[-75.130858,5.434897],[-75.13082,5.435053],[-75.130755,5.435199],[-75.130613,5.435391],[-75.130492,5.435495],[-75.130355,5.435577],[-75.130206,5.435633],[-75.129969,5.435665]]]},"properties":{"area_ha":3.1375}},{"type":"Feature","id":2,"geometry":{"type":"Polygon","coordinates":[[[-75.115392,5.446848],[-75.115233,5.446835],[-75.115079,5.446793],[-75.114935,5.446726],[-75.114805,5.446633],[-75.114693,5.446519],[-75.114602,5.446387],[-75.114537,5.446242],[-75.114489,5.446007],[-75.114492,5.445847],[-75.114523,5.445691],[-75.114619,5.445472],[-75.114715,5.445343],[-75.11483,5.445234],[-75.114964,5.445146],[-75.115188,5.445062],[-75.115346,5.445041],[-75.115505,5.445047],[-75.115736,5.445109],[-75.115877,5.445183],[-75.116003,5.445281],[-75.11611,5.4454],[-75.116194,5.445536],[-75.116253,5.445684],[-75.116291,5.445921],[-75.116281,5.44608],[-75.116243,5.446236],[-75.116137,5.44645],[-75.116036,5.446574],[-75.115849,5.446722],[-75.115705,5.446791],[-75.115551,5.446834],[-75.115392,5.446848]]]},"properties":{"area_ha":3.1375}},{"type":"Feature","id":3,"geometry":{"type":"Polygon","coordinates":[[[-75.104143,5.446721],[-75.103984,5.446708],[-75.10383,5.446666],[-75.103686,5.446598],[-75.103497,5.446452],[-75.103353,5.44626],[-75.103288,5.446115],[-75.103249,5.44596],[-75.103238,5.4458],[-75.103255,5.445641],[-75.103332,5.445415],[-75.103415,5.445278],[-75.103521,5.445159],[-75.103646,5.44506],[-75.103787,5.444985],[-75.103939,5.444935],[-75.104177,5.444913],[-75.104335,5.444934],[-75.104487,5.444982],[-75.104628,5.445056],[-75.104754,5.445155],[-75.104861,5.445273],[-75.104945,5.445409],[-75.105005,5.445557],[-75.105042,5.445794],[-75.105032,5.445953],[-75.104994,5.446109],[-75.104888,5.446323],[-75.104787,5.446447],[-75.1046,5.446595],[-75.104456,5.446664],[-75.104302,5.446707],[-75.104143,5.446721]]]},"properties":{"area_ha":3.1375}},{"type":"Feature","id":4,"geometry":{"type":"Polygon","coordinates":[[[-75.103086,5.447876],[-75.102927,5.447863],[-75.102773,5.447821],[-75.102629,5.447753],[-75.10244,5.447607],[-75.102296,5.447415],[-75.102231,5.44727],[-75.102192,5.447115],[-75.102181,5.446955],[-75.102198,5.446796],[-75.102275,5.44657],[-75.102358,5.446433],[-75.102464,5.446314],[-75.102589,5.446215],[-75.10273,5.44614],[-75.102882,5.44609],[-75.10312,5.446068],[-75.103278,5.446089],[-75.10343,5.446137],[-75.103571,5.446211],[-75.103697,5.446309],[-75.103804,5.446428],[-75.103888,5.446564],[-75.103948,5.446712],[-75.103985,5.446949],[-75.103975,5.447108],[-75.103937,5.447264],[-75.103831,5.447478],[-75.10373,5.447602],[-75.103543,5.44775],[-75.103399,5.447819],[-75.103245,5.447862],[-75.103086,5.447876]]]},"properties":{"area_ha":3.1375}},{"type":"Feature","id":5,"geometry":{"type":"Polygon","coordinates":[[[-75.110392,5.459515],[-75.110233,5.459502],[-75.110005,5.45943],[-75.109868,5.459349],[-75.109746,5.459246],[-75.109645,5.459122],[-75.109566,5.458983],[-75.109514,5.458832],[-75.109489,5.458674],[-75.109504,5.458435],[-75.109548,5.458282],[-75.109619,5.458139],[-75.109714,5.45801],[-75.109831,5.457901],[-75.109964,5.457813],[-75.110188,5.457729],[-75.110346,5.457708],[-75.110505,5.457714],[-75.110736,5.457776],[-75.110877,5.45785],[-75.111003,5.457949],[-75.11111,5.458067],[-75.111194,5.458203],[-75.111254,5.458351],[-75.111291,5.458588],[-75.111281,5.458747],[-75.111243,5.458903],[-75.111137,5.459117],[-75.111036,5.459241],[-75.110849,5.459389],[-75.110705,5.459458],[-75.110551,5.459501],[-75.110392,5.459515]]]},"properties":{"area_ha":3.1375}},{"type":"Feature","id":6,"geometry":{"type":"Polygon","coordinates":[[[-75.105877,5.453405],[-75.105718,5.453392],[-75.10549,5.45332],[-75.105352,5.453239],[-75.105231,5.453136],[-75.105087,5.452944],[-75.105022,5.452799],[-75.104983,5.452644],[-75.104971,5.452484],[-75.104988,5.452325],[-75.105065,5.452099],[-75.105149,5.451962],[-75.105255,5.451843],[-75.105449,5.451703],[-75.105596,5.451641],[-75.105751,5.451605],[-75.10591,5.451598],[-75.106146,5.451639],[-75.106293,5.4517],[-75.106427,5.451787],[-75.106544,5.451896],[-75.10664,5.452023],[-75.106712,5.452166],[-75.106758,5.452319],[-75.106776,5.452478],[-75.106766,5.452637],[-75.106728,5.452793],[-75.106663,5.452939],[-75.106521,5.453131],[-75.106333,5.453279],[-75.106189,5.453348],[-75.106036,5.453391],[-75.105877,5.453405]]]},"properties":{"area_ha":3.1375}},{"type":"Feature","id":7,"geometry":{"type":"Polygon","coordinates":[[[-75.121681,5.442148],[-75.121522,5.442134],[-75.121368,5.442093],[-75.121156,5.441981],[-75.121035,5.441878],[-75.120933,5.441755],[-75.120855,5.441615],[-75.120802,5.441464],[-75.120775,5.441226],[-75.120811,5.44099],[-75.120869,5.440841],[-75.120953,5.440704],[-75.121059,5.440585],[-75.121184,5.440486],[-75.121325,5.440411],[-75.121476,5.440362],[-75.121634,5.44034],[-75.121794,5.440346],[-75.12195,5.440381],[-75.122166,5.440483],[-75.122292,5.440581],[-75.122399,5.440699],[-75.122483,5.440835],[-75.122542,5.440984],[-75.12258,5.44122],[-75.12257,5.44138],[-75.122532,5.441535],[-75.122467,5.441681],[-75.122325,5.441873],[-75.122137,5.442021],[-75.121993,5.44209],[-75.121839,5.442133],[-75.121681,5.442148]]]},"properties":{"area_ha":3.1375}}]}