{"type":"FeatureCollection","features":[{"type":"Feature","id":0,"geometry":{"type":"Polygon","coordinates":[[[-75.112598,5.452659],[-75.112439,5.452646],[-75.112285,5.452604],[-75.112073,5.452493],[-75.111952,5.452389],[-75.11185,5.452266],[-75.111742,5.452053],[-75.111703,5.451898],[-75.111692,5.451738],[-75.111709,5.451579],[-75.111786,5.451352],[-75.11187,5.451216],[-75.111975,5.451097],[-75.112101,5.450998],[-75.112242,5.450922],[-75.112393,5.450873],[-75.112631,5.450851],[-75.112789,5.450872],[-75.112942,5.45092],[-75.113083,5.450994],[-75.113209,5.451092],[-75.113316,5.451211],[-75.1134,5.451347],[-75.113459,5.451495],[-75.113497,5.451732],[-75.113471,5.45197],[-75.11342,5.452121],[-75.113342,5.452261],[-75.113242,5.452385],[-75.113121,5.452489],[-75.11291,5.452602],[-75.112757,5.452645],[-75.112598,5.452659]]]},"properties":{"area_ha":3.1375}}]}