{"type":"FeatureCollection","features":[{"type":"Feature","id":0,"geometry":{"type":"Polygon","coordinates":[[[-75.119243,5.467804],[-75.119084,5.467791],[-75.118856,5.467719],[-75.118719,5.467638],[-75.118597,5.467535],[-75.118496,5.467411],[-75.118417,5.467272],[-75.118365,5.467121],[-75.11834,5.466963],[-75.118355,5.466724],[-75.118399,5.466571],[-75.11847,5.466428],[-75.118565,5.466299],[-75.118681,5.46619],[-75.118815,5.466102],[-75.118962,5.46604],[-75.119197,5.465997],[-75.119356,5.466003],[-75.119587,5.466065],[-75.119728,5.466139],[-75.119854,5.466238],[-75.119961,5.466356],[-75.120045,5.466492],[-75.120104,5.46664],[-75.120142,5.466877],[-75.120132,5.467036],[-75.120094,5.467192],[-75.12003,5.467338],[-75.119887,5.46753],[-75.1197,5.467678],[-75.119556,5.467747],[-75.119402,5.46779],[-75.119243,5.467804]]]},"properties":{"area_ha":3.1375}},{"type":"Feature","id":1,"geometry":{"type":"Polygon","coordinates":[[[-75.232803,5.465084],[-75.232644,5.465071],[-75.232417,5.464999],[-75.232279,5.464918],[-75.232157,5.464815],[-75.232056,5.464691],[-75.231977,5.464552],[-75.231909,5.464323],[-75.231898,5.464163],[-75.231915,5.464004],[-75.231992,5.463778],[-75.232075,5.463641],[-75.232181,5.463522],[-75.232306,5.463423],[-75.232522,5.46332],[-75.232677,5.463284],[-75.232837,5.463276],[-75.232995,5.463297],[-75.233147,5.463345],[-75.233353,5.463466],[-75.23347,5.463574],[-75.233566,5.463702],[-75.233638,5.463845],[-75.233684,5.463998],[-75.233701,5.464237],[-75.233677,5.464395],[-75.233625,5.464546],[-75.233548,5.464686],[-75.233389,5.464865],[-75.23326,5.464958],[-75.233116,5.465027],[-75.232962,5.46507],[-75.232803,5.465084]]]},"properties":{"area_ha":3.1375}},{"type":"Feature","id":2,"geometry":{"type":"Polygon","coordinates":[[[-75.198953,5.421624],[-75.198794,5.421611],[-75.198567,5.421539],[-75.198429,5.421458],[-75.198307,5.421355],[-75.198206,5.421231],[-75.198098,5.421018],[-75.198059,5.420863],[-75.198048,5.420703],[-75.198065,5.420544],[-75.198142,5.420318],[-75.198225,5.420181],[-75.198331,5.420062],[-75.198525,5.419922],[-75.198672,5.41986],[-75.198827,5.419824],[-75.198987,5.419816],[-75.199145,5.419837],[-75.199297,5.419885],[-75.199438,5.419959],[-75.199564,5.420057],[-75.199671,5.420176],[-75.199755,5.420312],[-75.199814,5.42046],[-75.199852,5.420697],[-75.199842,5.420856],[-75.199775,5.421086],[-75.199698,5.421226],[-75.199597,5.42135],[-75.19941,5.421498],[-75.199266,5.421567],[-75.199112,5.42161],[-75.198953,5.421624]]]},"properties":{"area_ha":3.1375}},{"type":"Feature","id":3,"geometry":{"type":"Polygon","coordinates":[[[-75.198213,5.377694],[-75.198054,5.377681],[-75.1979,5.377639],[-75.197756,5.377572],[-75.197567,5.377425],[-75.197424,5.377233],[-75.197358,5.377088],[-75.197319,5.376933],[-75.197308,5.376773],[-75.197344,5.376537],[-75.197402,5.376388],[-75.197485,5.376251],[-75.197591,5.376132],[-75.197716,5.376033],[-75.197857,5.375958],[-75.198087,5.375894],[-75.198247,5.375886],[-75.198482,5.375928],[-75.198629,5.375989],[-75.198763,5.376076],[-75.19888,5.376184],[-75.198976,5.376312],[-75.199048,5.376455],[-75.199094,5.376608],[-75.199112,5.376767],[-75.199087,5.377005],[-75.199035,5.377156],[-75.198958,5.377296],[-75.198857,5.37742],[-75.198736,5.377524],[-75.198599,5.377606],[-75.19845,5.377662],[-75.198213,5.377694]]]},"properties":{"area_ha":3.1374}},{"type":"Feature","id":4,"geometry":{"type":"Polygon","coordinates":[[[-75.117383,5.470184],[-75.117224,5.470171],[-75.116996,5.470099],[-75.116859,5.470018],[-75.116737,5.469915],[-75.116636,5.469791],[-75.116557,5.469652],[-75.116505,5.469501],[-75.11648,5.469343],[-75.116495,5.469104],[-75.116539,5.468951],[-75.11661,5.468808],[-75.116705,5.468679],[-75.116822,5.46857],[-75.116955,5.468482],[-75.117102,5.46842],[-75.117337,5.468377],[-75.117496,5.468383],[-75.117727,5.468445],[-75.117868,5.468519],[-75.117994,5.468618],[-75.118101,5.468736],[-75.118185,5.468872],[-75.118245,5.46902],[-75.118282,5.469257],[-75.118272,5.469416],[-75.118234,5.469572],[-75.11817,5.469718],[-75.118027,5.46991],[-75.11784,5.470058],[-75.117696,5.470127],[-75.117542,5.47017],[-75.117383,5.470184]]]},"properties":{"area_ha":3.1375}},{"type":"Feature","id":5,"geometry":{"type":"Polygon","coordinates":[[[-75.228493,5.428844],[-75.228334,5.428831],[-75.228107,5.428759],[-75.227969,5.428678],[-75.227847,5.428575],[-75.227704,5.428384],[-75.227638,5.428238],[-75.227599,5.428083],[-75.227588,5.427923],[-75.227605,5.427764],[-75.227649,5.427611],[-75.22772,5.427468],[-75.227871,5.427282],[-75.227996,5.427183],[-75.228137,5.427108],[-75.228289,5.427058],[-75.228527,5.427036],[-75.228762,5.427078],[-75.228909,5.427139],[-75.229043,5.427226],[-75.22916,5.427334],[-75.229256,5.427462],[-75.229328,5.427605],[-75.229374,5.427758],[-75.229392,5.427917],[-75.229367,5.428155],[-75.229315,5.428306],[-75.229238,5.428446],[-75.229137,5.42857],[-75.229017,5.428674],[-75.228879,5.428756],[-75.22873,5.428812],[-75.228493,5.428844]]]},"properties":{"area_ha":3.1375}},{"type":"Feature","id":6,"geometry":{"type":"Polygon","coordinates":[[[-75.236933,5.471214],[-75.236774,5.471201],[-75.236547,5.471129],[-75.236409,5.471048],[-75.236287,5.470945],[-75.236186,5.470821],[-75.236108,5.470682],[-75.236039,5.470453],[-75.236028,5.470293],[-75.236045,5.470134],[-75.236122,5.469908],[-75.236205,5.469772],[-75.236311,5.469652],[-75.236436,5.469553],[-75.236652,5.46945],[-75.236807,5.469414],[-75.236967,5.469406],[-75.237125,5.469427],[-75.237277,5.469475],[-75.237483,5.469596],[-75.2376,5.469704],[-75.237696,5.469832],[-75.237768,5.469975],[-75.237814,5.470128],[-75.237831,5.470367],[-75.237807,5.470525],[-75.237755,5.470676],[-75.23763,5.47088],[-75.237519,5.470995],[-75.23739,5.471088],[-75.237246,5.471157],[-75.237092,5.4712],[-75.236933,5.471214]]]},"properties":{"area_ha":3.1375}},{"type":"Feature","id":7,"geometry":{"type":"Polygon","coordinates":[[[-75.117253,5.442624],[-75.117094,5.442611],[-75.11694,5.442569],[-75.116796,5.442501],[-75.116665,5.442409],[-75.116554,5.442295],[-75.116463,5.442163],[-75.116398,5.442018],[-75.11635,5.441783],[-75.116353,5.441623],[-75.116384,5.441467],[-75.11648,5.441248],[-75.116575,5.441119],[-75.116692,5.44101],[-75.116825,5.440922],[-75.117049,5.440838],[-75.117207,5.440817],[-75.117366,5.440823],[-75.117522,5.440858],[-75.117738,5.440959],[-75.117864,5.441057],[-75.117971,5.441176],[-75.118055,5.441312],[-75.118115,5.44146],[-75.118152,5.441697],[-75.118127,5.441935],[-75.118075,5.442086],[-75.117998,5.442226],[-75.117897,5.44235],[-75.11771,5.442498],[-75.117566,5.442567],[-75.117412,5.44261],[-75.117253,5.442624]]]},"properties":{"area_ha":3.1375}},{"type":"Feature","id":8,"geometry":{"type":"Polygon","coordinates":[[[-75.131253,5.422274],[-75.131094,5.422261],[-75.13094,5.422219],[-75.130729,5.422108],[-75.130607,5.422005],[-75.130506,5.421881],[-75.130427,5.421742],[-75.130375,5.421591],[-75.130348,5.421353],[-75.130384,5.421117],[-75.130442,5.420968],[-75.130525,5.420831],[-75.130631,5.420712],[-75.130756,5.420613],[-75.130897,5.420538],[-75.131049,5.420488],[-75.131207,5.420467],[-75.131366,5.420473],[-75.131522,5.420508],[-75.131738,5.420609],[-75.131864,5.420707],[-75.131971,5.420826],[-75.132088,5.421035],[-75.132134,5.421188],[-75.132152,5.421347],[-75.132142,5.421506],[-75.132075,5.421736],[-75.131998,5.421876],[-75.131897,5.422],[-75.131777,5.422105],[-75.131639,5.422186],[-75.13149,5.422242],[-75.131253,5.422274]]]},"properties":{"area_ha":3.1375}}]}