{"type":"FeatureCollection","features":[{"type":"Feature","id":0,"geometry":{"type":"Polygon","coordinates":[[[-75.118282,5.459524],[-75.118123,5.45951],[-75.117969,5.459469],[-75.117757,5.459358],[-75.117636,5.459254],[-75.117535,5.459131],[-75.117456,5.458992],[-75.117388,5.458762],[-75.117377,5.458603],[-75.117394,5.458444],[-75.117471,5.458217],[-75.117554,5.458081],[-75.11766,5.457961],[-75.117785,5.457863],[-75.117926,5.457787],[-75.118078,5.457738],[-75.118316,5.457716],[-75.118474,5.457737],[-75.118626,5.457785],[-75.118832,5.457905],[-75.118949,5.458014],[-75.119045,5.458142],[-75.119117,5.458285],[-75.119163,5.458438],[-75.119181,5.458596],[-75.119171,5.458756],[-75.119133,5.458911],[-75.119069,5.459057],[-75.118926,5.45925],[-75.118805,5.459354],[-75.118595,5.459467],[-75.118441,5.459509],[-75.118282,5.459524]]]},"properties":{"area_ha":3.1375}},{"type":"Feature","id":1,"geometry":{"type":"Polygon","coordinates":[[[-75.118219,5.460115],[-75.11806,5.460101],[-75.117906,5.460059],[-75.117694,5.459948],[-75.117573,5.459845],[-75.117471,5.459721],[-75.117363,5.459508],[-75.117324,5.459353],[-75.117313,5.459193],[-75.11733,5.459034],[-75.117375,5.458881],[-75.117446,5.458738],[-75.117597,5.458552],[-75.117722,5.458453],[-75.117863,5.458378],[-75.118015,5.458328],[-75.118252,5.458306],[-75.11841,5.458327],[-75.118563,5.458375],[-75.118704,5.458449],[-75.11883,5.458547],[-75.118937,5.458666],[-75.119021,5.458802],[-75.11908,5.458951],[-75.119118,5.459187],[-75.119108,5.459346],[-75.11907,5.459502],[-75.119005,5.459648],[-75.118863,5.45984],[-75.118742,5.459945],[-75.118531,5.460057],[-75.118378,5.4601],[-75.118219,5.460115]]]},"properties":{"area_ha":3.1375}}]}