{"type":"FeatureCollection","features":[{"type":"Feature","id":0,"geometry":{"type":"Polygon","coordinates":[[[-75.108913,5.460384],[-75.108755,5.460371],[-75.1086,5.460329],[-75.108456,5.460261],[-75.108267,5.460114],[-75.108166,5.459991],[-75.108058,5.459777],[-75.108019,5.459622],[-75.108008,5.459463],[-75.108025,5.459304],[-75.108102,5.459077],[-75.108185,5.458941],[-75.108291,5.458822],[-75.108417,5.458723],[-75.108557,5.458647],[-75.108788,5.458584],[-75.108947,5.458576],[-75.109105,5.458597],[-75.109257,5.458645],[-75.109399,5.458719],[-75.109525,5.458817],[-75.109631,5.458936],[-75.109716,5.459072],[-75.109775,5.45922],[-75.109813,5.459457],[-75.109803,5.459616],[-75.109765,5.459771],[-75.1097,5.459918],[-75.109558,5.46011],[-75.109437,5.460214],[-75.109226,5.460327],[-75.109072,5.460369],[-75.108913,5.460384]]]},"properties":{"area_ha":3.1375}},{"type":"Feature","id":1,"geometry":{"type":"Polygon","coordinates":[[[-75.107481,5.463102],[-75.107322,5.463088],[-75.107168,5.463047],[-75.107024,5.462979],[-75.106835,5.462832],[-75.106691,5.462641],[-75.106626,5.462495],[-75.106587,5.46234],[-75.106576,5.462181],[-75.106593,5.462022],[-75.106637,5.461868],[-75.106708,5.461725],[-75.106859,5.461539],[-75.106984,5.461441],[-75.107125,5.461365],[-75.107277,5.461316],[-75.107515,5.461294],[-75.107673,5.461315],[-75.107825,5.461363],[-75.107966,5.461437],[-75.108092,5.461535],[-75.108199,5.461654],[-75.108283,5.46179],[-75.108343,5.461938],[-75.10838,5.462174],[-75.10837,5.462334],[-75.108332,5.462489],[-75.108268,5.462635],[-75.108125,5.462828],[-75.107938,5.462976],[-75.107794,5.463045],[-75.10764,5.463087],[-75.107481,5.463102]]]},"properties":{"area_ha":3.1375}},{"type":"Feature","id":2,"geometry":{"type":"Polygon","coordinates":[[[-75.102687,5.46311],[-75.102528,5.463097],[-75.102374,5.463055],[-75.10223,5.462987],[-75.102041,5.46284],[-75.10194,5.462717],[-75.101832,5.462503],[-75.101793,5.462348],[-75.101782,5.462189],[-75.101799,5.46203],[-75.101844,5.461877],[-75.101915,5.461733],[-75.102065,5.461548],[-75.102191,5.461449],[-75.102331,5.461373],[-75.102483,5.461324],[-75.102721,5.461302],[-75.102879,5.461323],[-75.103031,5.461371],[-75.103238,5.461491],[-75.103354,5.4616],[-75.10345,5.461728],[-75.103522,5.461871],[-75.103568,5.462024],[-75.103586,5.462183],[-75.103576,5.462342],[-75.103538,5.462498],[-75.103432,5.462712],[-75.103331,5.462836],[-75.103144,5.462984],[-75.103,5.463053],[-75.102846,5.463096],[-75.102687,5.46311]]]},"properties":{"area_ha":3.1375}},{"type":"Feature","id":3,"geometry":{"type":"Polygon","coordinates":[[[-75.104712,5.461769],[-75.104553,5.461755],[-75.104325,5.461683],[-75.104187,5.461603],[-75.104066,5.461499],[-75.103964,5.461376],[-75.103886,5.461236],[-75.103834,5.461085],[-75.103806,5.460847],[-75.103824,5.460688],[-75.1039,5.460462],[-75.103984,5.460326],[-75.10409,5.460206],[-75.104215,5.460107],[-75.104356,5.460032],[-75.104508,5.459983],[-75.104746,5.459961],[-75.104904,5.459981],[-75.105056,5.460029],[-75.105197,5.460104],[-75.105323,5.460202],[-75.10543,5.46032],[-75.105514,5.460456],[-75.105573,5.460605],[-75.105611,5.460841],[-75.105601,5.461001],[-75.105563,5.461156],[-75.105457,5.46137],[-75.105356,5.461494],[-75.105169,5.461643],[-75.105025,5.461711],[-75.104871,5.461754],[-75.104712,5.461769]]]},"properties":{"area_ha":3.1375}},{"type":"Feature","id":4,"geometry":{"type":"Polygon","coordinates":[[[-75.10068,5.455811],[-75.100521,5.455797],[-75.100367,5.455756],[-75.100155,5.455645],[-75.100034,5.455541],[-75.09989,5.45535],[-75.099825,5.455204],[-75.099786,5.455049],[-75.099775,5.45489],[-75.099811,5.454653],[-75.099869,5.454504],[-75.099952,5.454368],[-75.100058,5.454248],[-75.100183,5.454149],[-75.100399,5.454046],[-75.100554,5.45401],[-75.100714,5.454003],[-75.100872,5.454023],[-75.101024,5.454072],[-75.101165,5.454146],[-75.101291,5.454244],[-75.101398,5.454363],[-75.101482,5.454498],[-75.101561,5.454725],[-75.101579,5.454883],[-75.101569,5.455043],[-75.101531,5.455198],[-75.101467,5.455344],[-75.101324,5.455537],[-75.101203,5.455641],[-75.100993,5.455754],[-75.100839,5.455796],[-75.10068,5.455811]]]},"properties":{"area_ha":3.1375}},{"type":"Feature","id":5,"geometry":{"type":"Polygon","coordinates":[[[-75.097648,5.452145],[-75.097489,5.452131],[-75.097335,5.45209],[-75.09719,5.452022],[-75.097002,5.451875],[-75.096858,5.451684],[-75.096792,5.451538],[-75.096753,5.451383],[-75.096742,5.451224],[-75.096759,5.451065],[-75.096836,5.450838],[-75.09692,5.450702],[-75.097026,5.450582],[-75.097151,5.450483],[-75.097292,5.450408],[-75.097522,5.450344],[-75.097681,5.450337],[-75.097917,5.450378],[-75.098064,5.45044],[-75.098198,5.450526],[-75.098315,5.450635],[-75.098411,5.450763],[-75.098483,5.450905],[-75.098529,5.451059],[-75.098547,5.451217],[-75.098537,5.451377],[-75.098499,5.451532],[-75.098434,5.451678],[-75.098292,5.451871],[-75.098171,5.451975],[-75.09796,5.452088],[-75.097807,5.45213],[-75.097648,5.452145]]]},"properties":{"area_ha":3.1375}},{"type":"Feature","id":6,"geometry":{"type":"Polygon","coordinates":[[[-75.096464,5.462769],[-75.096305,5.462756],[-75.096151,5.462714],[-75.096007,5.462646],[-75.095876,5.462554],[-75.095764,5.46244],[-75.095674,5.462308],[-75.095608,5.462163],[-75.09556,5.461928],[-75.095563,5.461768],[-75.095594,5.461611],[-75.095652,5.461463],[-75.095786,5.461264],[-75.095902,5.461155],[-75.096036,5.461067],[-75.096183,5.461004],[-75.096418,5.460961],[-75.096577,5.460968],[-75.096733,5.461003],[-75.096949,5.461104],[-75.097075,5.461202],[-75.097182,5.461321],[-75.097266,5.461457],[-75.097345,5.461683],[-75.097363,5.461842],[-75.097337,5.46208],[-75.097286,5.462231],[-75.097209,5.462371],[-75.097108,5.462495],[-75.09692,5.462643],[-75.096777,5.462712],[-75.096623,5.462755],[-75.096464,5.462769]]]},"properties":{"area_ha":3.1375}},{"type":"Feature","id":7,"geometry":{"type":"Polygon","coordinates":[[[-75.097353,5.466394],[-75.097194,5.46638],[-75.097039,5.466339],[-75.096895,5.466271],[-75.096706,5.466124],[-75.096563,5.465933],[-75.096497,5.465787],[-75.096458,5.465632],[-75.096447,5.465472],[-75.096464,5.465313],[-75.096509,5.46516],[-75.09658,5.465017],[-75.096731,5.464831],[-75.096856,5.464732],[-75.097071,5.464629],[-75.097227,5.464593],[-75.097386,5.464586],[-75.097544,5.464606],[-75.097696,5.464654],[-75.097838,5.464729],[-75.097964,5.464827],[-75.098071,5.464946],[-75.098188,5.465154],[-75.098234,5.465307],[-75.098252,5.465466],[-75.098242,5.465626],[-75.098204,5.465781],[-75.098139,5.465927],[-75.097997,5.46612],[-75.097876,5.466224],[-75.097665,5.466337],[-75.097511,5.466379],[-75.097353,5.466394]]]},"properties":{"area_ha":3.1375}}]}