{"type":"FeatureCollection","features":[{"type":"Feature","id":0,"geometry":{"type":"MultiPolygon","coordinates":[[[[-75.198213,5.377694],[-75.198054,5.377681],[-75.1979,5.377639],[-75.197756,5.377572],[-75.197567,5.377425],[-75.197424,5.377233],[-75.197358,5.377088],[-75.197319,5.376933],[-75.197308,5.376773],[-75.197344,5.376537],[-75.197402,5.376388],[-75.197485,5.376251],[-75.197591,5.376132],[-75.197716,5.376033],[-75.197857,5.375958],[-75.198087,5.375894],[-75.198247,5.375886],[-75.198482,5.375928],[-75.198629,5.375989],[-75.198763,5.376076],[-75.19888,5.376184],[-75.198976,5.376312],[-75.199048,5.376455],[-75.199094,5.376608],[-75.199112,5.376767],[-75.199087,5.377005],[-75.199035,5.377156],[-75.198958,5.377296],[-75.198857,5.37742],[-75.198736,5.377524],[-75.198599,5.377606],[-75.19845,5.377662],[-75.198213,5.377694]]],[[[-75.198953,5.421624],[-75.198794,5.421611],[-75.198567,5.421539],[-75.198429,5.421458],[-75.198307,5.421355],[-75.198206,5.421231],[-75.198098,5.421018],[-75.198059,5.420863],[-75.198048,5.420703],[-75.198065,5.420544],[-75.198142,5.420318],[-75.198225,5.420181],[-75.198331,5.420062],[-75.198525,5.419922],[-75.198672,5.41986],[-75.198827,5.419824],[-75.198987,5.419816],[-75.199145,5.419837],[-75.199297,5.419885],[-75.199438,5.419959],[-75.199564,5.420057],[-75.199671,5.420176],[-75.199755,5.420312],[-75.199814,5.42046],[-75.199852,5.420697],[-75.199842,5.420856],[-75.199775,5.421086],[-75.199698,5.421226],[-75.199597,5.42135],[-75.19941,5.421498],[-75.199266,5.421567],[-75.199112,5.42161],[-75.198953,5.421624]]],[[[-75.131253,5.422274],[-75.131094,5.422261],[-75.13094,5.422219],[-75.130729,5.422108],[-75.130607,5.422005],[-75.130506,5.421881],[-75.130427,5.421742],[-75.130375,5.421591],[-75.130348,5.421353],[-75.130384,5.421117],[-75.130442,5.420968],[-75.130525,5.420831],[-75.130631,5.420712],[-75.130756,5.420613],[-75.130897,5.420538],[-75.131049,5.420488],[-75.131207,5.420467],[-75.131366,5.420473],[-75.131522,5.420508],[-75.131738,5.420609],[-75.131864,5.420707],[-75.131971,5.420826],[-75.132088,5.421035],[-75.132134,5.421188],[-75.132152,5.421347],[-75.132142,5.421506],[-75.132075,5.421736],[-75.131998,5.421876],[-75.131897,5.422],[-75.131777,5.422105],[-75.131639,5.422186],[-75.13149,5.422242],[-75.131253,5.422274]]],[[[-75.228493,5.428844],[-75.228334,5.428831],[-75.228107,5.428759],[-75.227969,5.428678],[-75.227847,5.428575],[-75.227704,5.428384],[-75.227638,5.428238],[-75.227599,5.428083],[-75.227588,5.427923],[-75.227605,5.427764],[-75.227649,5.427611],[-75.22772,5.427468],[-75.227871,5.427282],[-75.227996,5.427183],[-75.228137,5.427108],[-75.228289,5.427058],[-75.228527,5.427036],[-75.228762,5.427078],[-75.228909,5.427139],[-75.229043,5.427226],[-75.22916,5.427334],[-75.229256,5.427462],[-75.229328,5.427605],[-75.229374,5.427758],[-75.229392,5.427917],[-75.229367,5.428155],[-75.229315,5.428306],[-75.229238,5.428446],[-75.229137,5.42857],[-75.229017,5.428674],[-75.228879,5.428756],[-75.22873,5.428812],[-75.228493,5.428844]]],[[[-75.13015,5.435646],[-75.130176,5.435878],[-75.130161,5.436034],[-75.130052,5.436324],[-75.129909,5.436509],[-75.129789,5.436608],[-75.129508,5.436739],[-75.129277,5.43677],[-75.129117,5.436757],[-75.128962,5.436715],[-75.128817,5.436646],[-75.128628,5.436497],[-75.128526,5.436372],[-75.128449,5.436231],[-75.128397,5.436079],[-75.128372,5.435839],[-75.128391,5.43568],[-75.128438,5.435526],[-75.128511,5.435383],[-75.128609,5.435255],[-75.128727,5.435146],[-75.128863,5.435061],[-75.12909,5.434981],[-75.129064,5.434744],[-75.12908,5.434586],[-75.129125,5.434433],[-75.129195,5.434291],[-75.129289,5.434163],[-75.129404,5.434053],[-75.129608,5.433931],[-75.129758,5.433881],[-75.129995,5.433857],[-75.130152,5.433876],[-75.130304,5.433923],[-75.130445,5.433995],[-75.130628,5.434147],[-75.130725,5.434273],[-75.130799,5.434413],[-75.130847,5.434565],[-75.130867,5.434723],[-75.130846,5.43496],[-75.130798,5.435111],[-75.130724,5.435252],[-75.130626,5.435377],[-75.130508,5.435484],[-75.130374,5.435568],[-75.13015,5.435646]]],[[[-75.124126,5.437075],[-75.124134,5.436917],[-75.124199,5.436688],[-75.124274,5.436549],[-75.124372,5.436424],[-75.124556,5.436275],[-75.124698,5.436204],[-75.12485,5.43616],[-75.125007,5.436142],[-75.125165,5.436152],[-75.125319,5.43619],[-75.125464,5.436254],[-75.125654,5.436395],[-75.125758,5.436515],[-75.125839,5.436651],[-75.125896,5.436799],[-75.12593,5.437034],[-75.125902,5.43727],[-75.12585,5.43742],[-75.125772,5.437558],[-75.125671,5.43768],[-75.125551,5.437783],[-75.125341,5.437894],[-75.125188,5.437936],[-75.124998,5.43795],[-75.124989,5.43811],[-75.124952,5.438266],[-75.124846,5.438482],[-75.124745,5.438607],[-75.124624,5.438712],[-75.124413,5.438826],[-75.124259,5.438869],[-75.124099,5.438883],[-75.123941,5.43887],[-75.123713,5.438798],[-75.123576,5.438718],[-75.123454,5.438615],[-75.123353,5.438492],[-75.123245,5.438279],[-75.123205,5.438125],[-75.123194,5.437966],[-75.12321,5.437807],[-75.123254,5.437654],[-75.123324,5.437511],[-75.123473,5.437325],[-75.123598,5.437225],[-75.123738,5.437149],[-75.123967,5.437084],[-75.124126,5.437075]]],[[[-75.118525,5.439921],[-75.118366,5.439907],[-75.118138,5.439835],[-75.118,5.439755],[-75.117879,5.439651],[-75.117778,5.439528],[-75.117699,5.439388],[-75.117647,5.439237],[-75.117622,5.43908],[-75.117637,5.438841],[-75.117681,5.438687],[-75.117752,5.438544],[-75.117847,5.438416],[-75.117963,5.438306],[-75.118097,5.438219],[-75.118244,5.438156],[-75.118479,5.438113],[-75.118638,5.43812],[-75.118794,5.438154],[-75.11901,5.438256],[-75.119136,5.438354],[-75.119243,5.438473],[-75.11936,5.438681],[-75.119406,5.438834],[-75.119424,5.438993],[-75.119399,5.439231],[-75.119347,5.439383],[-75.11927,5.439523],[-75.119169,5.439647],[-75.118982,5.439795],[-75.118838,5.439864],[-75.118684,5.439906],[-75.118525,5.439921]]],[[[-75.121681,5.442148],[-75.121522,5.442134],[-75.121368,5.442093],[-75.121156,5.441981],[-75.121035,5.441878],[-75.120933,5.441755],[-75.120855,5.441615],[-75.120802,5.441464],[-75.120775,5.441226],[-75.120811,5.44099],[-75.120869,5.440841],[-75.120953,5.440704],[-75.121059,5.440585],[-75.121184,5.440486],[-75.121325,5.440411],[-75.121476,5.440362],[-75.121634,5.44034],[-75.121794,5.440346],[-75.12195,5.440381],[-75.122166,5.440483],[-75.122292,5.440581],[-75.122399,5.440699],[-75.122483,5.440835],[-75.122542,5.440984],[-75.12258,5.44122],[-75.12257,5.44138],[-75.122532,5.441535],[-75.122467,5.441681],[-75.122325,5.441873],[-75.122137,5.442021],[-75.121993,5.44209],[-75.121839,5.442133],[-75.121681,5.442148]]],[[[-75.113934,5.442198],[-75.113776,5.442184],[-75.113621,5.442143],[-75.113477,5.442075],[-75.113288,5.441928],[-75.113187,5.441804],[-75.113079,5.441591],[-75.11304,5.441436],[-75.113029,5.441276],[-75.113046,5.441117],[-75.113091,5.440964],[-75.113206,5.440754],[-75.113312,5.440635],[-75.113438,5.440536],[-75.113578,5.440461],[-75.113809,5.440397],[-75.113968,5.440389],[-75.114126,5.44041],[-75.114278,5.440458],[-75.11442,5.440533],[-75.114546,5.440631],[-75.114652,5.440749],[-75.114737,5.440885],[-75.114796,5.441034],[-75.114834,5.44127],[-75.114808,5.441508],[-75.114756,5.441659],[-75.114679,5.441799],[-75.114579,5.441923],[-75.114458,5.442028],[-75.114247,5.44214],[-75.114093,5.442183],[-75.113934,5.442198]]],[[[-75.095869,5.443584],[-75.09571,5.44357],[-75.095482,5.443498],[-75.095344,5.443418],[-75.095223,5.443314],[-75.095079,5.443123],[-75.095013,5.442977],[-75.094974,5.442822],[-75.094963,5.442663],[-75.09498,5.442504],[-75.095057,5.442277],[-75.095141,5.442141],[-75.095247,5.442021],[-75.095441,5.441882],[-75.095587,5.441819],[-75.095743,5.441783],[-75.095902,5.441776],[-75.096138,5.441817],[-75.096285,5.441879],[-75.096419,5.441965],[-75.096536,5.442074],[-75.096632,5.442202],[-75.096704,5.442344],[-75.09675,5.442498],[-75.096768,5.442656],[-75.096758,5.442816],[-75.09672,5.442971],[-75.096655,5.443117],[-75.096513,5.44331],[-75.096392,5.443414],[-75.096181,5.443527],[-75.096028,5.443569],[-75.095869,5.443584]]],[[[-75.117023,5.442704],[-75.116879,5.442884],[-75.11676,5.442982],[-75.116482,5.44311],[-75.116174,5.443137],[-75.116018,5.44311],[-75.115869,5.443056],[-75.115732,5.442976],[-75.115611,5.442874],[-75.115509,5.442752],[-75.11543,5.442614],[-75.115377,5.442464],[-75.115351,5.442307],[-75.115352,5.442149],[-75.115381,5.441992],[-75.115437,5.441844],[-75.115518,5.441707],[-75.115681,5.441534],[-75.115813,5.441445],[-75.115957,5.441381],[-75.116111,5.441342],[-75.116269,5.441332],[-75.116427,5.441349],[-75.116504,5.441211],[-75.11666,5.441035],[-75.116788,5.440943],[-75.116929,5.440875],[-75.117081,5.440832],[-75.117237,5.440816],[-75.117471,5.440843],[-75.11769,5.44093],[-75.11782,5.441019],[-75.117933,5.441129],[-75.118025,5.441257],[-75.118118,5.441473],[-75.118148,5.441628],[-75.118141,5.441864],[-75.118291,5.441915],[-75.118429,5.441992],[-75.118552,5.442092],[-75.118699,5.442278],[-75.118768,5.44242],[-75.118811,5.442573],[-75.118824,5.44281],[-75.118799,5.442966],[-75.118746,5.443116],[-75.118668,5.443254],[-75.118568,5.443376],[-75.118447,5.443479],[-75.118311,5.443559],[-75.118162,5.443614],[-75.118007,5.443642],[-75.117775,5.443634],[-75.117626,5.443595],[-75.117421,5.443492],[-75.1172,5.443281],[-75.117062,5.443007],[-75.117023,5.442704]]],[[[-75.115863,5.444486],[-75.115615,5.444855],[-75.115396,5.44504],[-75.115635,5.445074],[-75.115786,5.445132],[-75.115924,5.445215],[-75.116097,5.445383],[-75.116186,5.445519],[-75.11627,5.445746],[-75.116291,5.445987],[-75.116269,5.446146],[-75.116219,5.4463],[-75.116095,5.446508],[-75.115983,5.446625],[-75.115853,5.44672],[-75.115708,5.44679],[-75.115553,5.446833],[-75.115392,5.446848],[-75.11516,5.446819],[-75.115012,5.446766],[-75.114876,5.446688],[-75.114702,5.446531],[-75.114575,5.446334],[-75.114491,5.446033],[-75.114498,5.445798],[-75.114566,5.445573],[-75.114741,5.445315],[-75.114924,5.445169],[-75.114765,5.445153],[-75.11461,5.445109],[-75.114399,5.444994],[-75.114278,5.444888],[-75.114178,5.444762],[-75.114102,5.44462],[-75.114052,5.444467],[-75.11403,5.444227],[-75.114072,5.44399],[-75.114175,5.443772],[-75.114443,5.443379],[-75.114625,5.443227],[-75.114765,5.443155],[-75.114915,5.443108],[-75.115072,5.443088],[-75.11523,5.443095],[-75.115384,5.44313],[-75.115597,5.443232],[-75.115722,5.443329],[-75.115873,5.443511],[-75.115944,5.443652],[-75.11599,5.443804],[-75.11601,5.44396],[-75.116001,5.444119],[-75.115965,5.444273],[-75.115863,5.444486]]],[[[-75.103279,5.446089],[-75.103245,5.445934],[-75.103246,5.445696],[-75.103281,5.445541],[-75.103342,5.445395],[-75.103428,5.445261],[-75.103598,5.445094],[-75.103732,5.44501],[-75.103879,5.444951],[-75.104035,5.444919],[-75.104272,5.444922],[-75.104426,5.444959],[-75.104572,5.445023],[-75.104704,5.445111],[-75.104868,5.445283],[-75.10495,5.445419],[-75.105007,5.445567],[-75.105042,5.445802],[-75.105031,5.445961],[-75.104963,5.446189],[-75.104885,5.446327],[-75.104726,5.446504],[-75.104597,5.446597],[-75.104454,5.446665],[-75.104222,5.446718],[-75.103944,5.4467],[-75.103985,5.446937],[-75.103962,5.447178],[-75.103876,5.447403],[-75.103734,5.447598],[-75.103546,5.447748],[-75.103325,5.447843],[-75.103086,5.447876],[-75.102849,5.447845],[-75.102628,5.447753],[-75.102498,5.447661],[-75.102386,5.447547],[-75.102296,5.447415],[-75.102231,5.447269],[-75.102192,5.447114],[-75.102181,5.446955],[-75.102217,5.446718],[-75.102314,5.446499],[-75.102409,5.44637],[-75.102525,5.446261],[-75.102659,5.446174],[-75.102806,5.446111],[-75.102962,5.446076],[-75.103121,5.446068],[-75.103279,5.446089]]],[[[-75.097648,5.452145],[-75.097489,5.452131],[-75.097335,5.45209],[-75.09719,5.452022],[-75.097002,5.451875],[-75.096858,5.451684],[-75.096792,5.451538],[-75.096753,5.451383],[-75.096742,5.451224],[-75.096759,5.451065],[-75.096836,5.450838],[-75.09692,5.450702],[-75.097026,5.450582],[-75.097151,5.450483],[-75.097292,5.450408],[-75.097522,5.450344],[-75.097681,5.450337],[-75.097917,5.450378],[-75.098064,5.45044],[-75.098198,5.450526],[-75.098315,5.450635],[-75.098411,5.450763],[-75.098483,5.450905],[-75.098529,5.451059],[-75.098547,5.451217],[-75.098537,5.451377],[-75.098499,5.451532],[-75.098434,5.451678],[-75.098292,5.451871],[-75.098171,5.451975],[-75.09796,5.452088],[-75.097807,5.45213],[-75.097648,5.452145]]],[[[-75.112598,5.452659],[-75.112439,5.452646],[-75.112285,5.452604],[-75.112073,5.452493],[-75.111952,5.452389],[-75.11185,5.452266],[-75.111742,5.452053],[-75.111703,5.451898],[-75.111692,5.451738],[-75.111709,5.451579],[-75.111786,5.451352],[-75.11187,5.451216],[-75.111975,5.451097],[-75.112101,5.450998],[-75.112242,5.450922],[-75.112393,5.450873],[-75.112631,5.450851],[-75.112789,5.450872],[-75.112942,5.45092],[-75.113083,5.450994],[-75.113209,5.451092],[-75.113316,5.451211],[-75.1134,5.451347],[-75.113459,5.451495],[-75.113497,5.451732],[-75.113471,5.45197],[-75.11342,5.452121],[-75.113342,5.452261],[-75.113242,5.452385],[-75.113121,5.452489],[-75.11291,5.452602],[-75.112757,5.452645],[-75.112598,5.452659]]],[[[-75.105877,5.453405],[-75.105718,5.453392],[-75.10549,5.45332],[-75.105352,5.453239],[-75.105231,5.453136],[-75.105087,5.452944],[-75.105022,5.452799],[-75.104983,5.452644],[-75.104971,5.452484],[-75.104988,5.452325],[-75.105065,5.452099],[-75.105149,5.451962],[-75.105255,5.451843],[-75.105449,5.451703],[-75.105596,5.451641],[-75.105751,5.451605],[-75.10591,5.451598],[-75.106146,5.451639],[-75.106293,5.4517],[-75.106427,5.451787],[-75.106544,5.451896],[-75.10664,5.452023],[-75.106712,5.452166],[-75.106758,5.452319],[-75.106776,5.452478],[-75.106766,5.452637],[-75.106728,5.452793],[-75.106663,5.452939],[-75.106521,5.453131],[-75.106333,5.453279],[-75.106189,5.453348],[-75.106036,5.453391],[-75.105877,5.453405]]],[[[-75.116642,5.454742],[-75.116405,5.454711],[-75.116255,5.454656],[-75.116117,5.454576],[-75.115995,5.454472],[-75.115894,5.454349],[-75.115816,5.45421],[-75.115763,5.454059],[-75.115738,5.453901],[-75.115753,5.453662],[-75.115798,5.453508],[-75.115869,5.453365],[-75.115964,5.453237],[-75.11608,5.453127],[-75.116213,5.45304],[-75.11636,5.452977],[-75.116595,5.452934],[-75.116755,5.452941],[-75.11691,5.452975],[-75.117127,5.453077],[-75.117253,5.453175],[-75.117359,5.453294],[-75.117444,5.453429],[-75.117503,5.453578],[-75.117541,5.453814],[-75.11753,5.453974],[-75.117493,5.454129],[-75.117386,5.454344],[-75.117286,5.454468],[-75.117098,5.454616],[-75.116954,5.454685],[-75.1168,5.454727],[-75.116642,5.454742]]],[[[-75.114582,5.454897],[-75.114423,5.454884],[-75.114269,5.454842],[-75.114057,5.454731],[-75.113936,5.454627],[-75.113834,5.454504],[-75.113726,5.45429],[-75.113687,5.454136],[-75.113676,5.453976],[-75.113693,5.453817],[-75.11377,5.453591],[-75.113854,5.453454],[-75.11396,5.453335],[-75.114085,5.453236],[-75.114226,5.453161],[-75.114378,5.453111],[-75.114615,5.453089],[-75.114774,5.45311],[-75.114926,5.453158],[-75.115132,5.453279],[-75.115249,5.453387],[-75.115345,5.453515],[-75.115417,5.453658],[-75.115463,5.453811],[-75.115481,5.45397],[-75.115471,5.454129],[-75.115433,5.454284],[-75.115368,5.454431],[-75.115226,5.454623],[-75.115105,5.454727],[-75.114894,5.45484],[-75.114741,5.454883],[-75.114582,5.454897]]],[[[-75.10068,5.455811],[-75.100521,5.455797],[-75.100367,5.455756],[-75.100155,5.455645],[-75.100034,5.455541],[-75.09989,5.45535],[-75.099825,5.455204],[-75.099786,5.455049],[-75.099775,5.45489],[-75.099811,5.454653],[-75.099869,5.454504],[-75.099952,5.454368],[-75.100058,5.454248],[-75.100183,5.454149],[-75.100399,5.454046],[-75.100554,5.45401],[-75.100714,5.454003],[-75.100872,5.454023],[-75.101024,5.454072],[-75.101165,5.454146],[-75.101291,5.454244],[-75.101398,5.454363],[-75.101482,5.454498],[-75.101561,5.454725],[-75.101579,5.454883],[-75.101569,5.455043],[-75.101531,5.455198],[-75.101467,5.455344],[-75.101324,5.455537],[-75.101203,5.455641],[-75.100993,5.455754],[-75.100839,5.455796],[-75.10068,5.455811]]],[[[-75.114714,5.459477],[-75.114555,5.459464],[-75.114327,5.459392],[-75.11419,5.459311],[-75.114068,5.459208],[-75.113967,5.459084],[-75.113888,5.458945],[-75.113836,5.458794],[-75.113811,5.458636],[-75.113826,5.458397],[-75.11387,5.458244],[-75.113941,5.458101],[-75.114036,5.457972],[-75.114153,5.457863],[-75.114286,5.457775],[-75.11451,5.457691],[-75.114668,5.45767],[-75.114827,5.457676],[-75.115058,5.457738],[-75.115199,5.457812],[-75.115325,5.45791],[-75.115432,5.458029],[-75.115516,5.458165],[-75.115576,5.458313],[-75.115613,5.45855],[-75.115603,5.458709],[-75.115565,5.458865],[-75.115501,5.459011],[-75.115358,5.459203],[-75.115171,5.459351],[-75.115027,5.45942],[-75.114873,5.459463],[-75.114714,5.459477]]],[[[-75.117457,5.458247],[-75.11726,5.458269],[-75.117101,5.458256],[-75.116947,5.458214],[-75.116802,5.458146],[-75.116672,5.458054],[-75.116512,5.457875],[-75.116434,5.457736],[-75.116381,5.457584],[-75.116357,5.457426],[-75.11636,5.457266],[-75.116417,5.457033],[-75.116489,5.45689],[-75.116585,5.456762],[-75.116701,5.456652],[-75.116908,5.456531],[-75.11706,5.456482],[-75.117218,5.456461],[-75.117457,5.456483],[-75.117681,5.456567],[-75.117815,5.456654],[-75.117931,5.456764],[-75.118026,5.456892],[-75.118123,5.457111],[-75.118154,5.457268],[-75.118157,5.457429],[-75.118132,5.457587],[-75.118079,5.457738],[-75.118239,5.457716],[-75.1184,5.457723],[-75.118557,5.457759],[-75.118706,5.457823],[-75.118901,5.457964],[-75.119007,5.458086],[-75.11909,5.458224],[-75.119148,5.458375],[-75.119181,5.458615],[-75.119168,5.458776],[-75.119095,5.459006],[-75.119118,5.459236],[-75.1191,5.45939],[-75.118989,5.459676],[-75.118788,5.459909],[-75.118661,5.459997],[-75.118448,5.460084],[-75.11814,5.460111],[-75.117984,5.460084],[-75.117765,5.459994],[-75.117636,5.459903],[-75.117524,5.459791],[-75.117397,5.459591],[-75.117343,5.459442],[-75.117316,5.459286],[-75.117328,5.459049],[-75.1174,5.458824],[-75.117381,5.458531],[-75.117457,5.458247]]],[[[-75.109507,5.458801],[-75.109487,5.458643],[-75.109495,5.458485],[-75.109559,5.458256],[-75.109634,5.458116],[-75.109732,5.457991],[-75.10985,5.457886],[-75.110057,5.45777],[-75.110209,5.457725],[-75.110366,5.457707],[-75.110602,5.457732],[-75.110752,5.457783],[-75.110891,5.457859],[-75.111014,5.457959],[-75.111162,5.458145],[-75.111232,5.458287],[-75.111275,5.45844],[-75.111289,5.458677],[-75.111264,5.458834],[-75.111211,5.458984],[-75.111133,5.459122],[-75.111033,5.459245],[-75.110846,5.459391],[-75.110627,5.459483],[-75.11032,5.459513],[-75.110038,5.459444],[-75.109793,5.45929],[-75.109812,5.459449],[-75.109788,5.459689],[-75.109738,5.459841],[-75.109661,5.459982],[-75.10956,5.460107],[-75.109439,5.460213],[-75.109301,5.460295],[-75.109151,5.460351],[-75.108994,5.46038],[-75.108756,5.460371],[-75.108529,5.4603],[-75.108329,5.460172],[-75.108217,5.460059],[-75.108127,5.459929],[-75.108061,5.459785],[-75.108011,5.459552],[-75.108012,5.459394],[-75.108041,5.459237],[-75.108097,5.459089],[-75.108226,5.45889],[-75.10834,5.458779],[-75.108471,5.45869],[-75.108692,5.458602],[-75.108848,5.458578],[-75.109006,5.458581],[-75.109162,5.458611],[-75.109379,5.458707],[-75.109507,5.458801]]],[[[-75.112853,5.461149],[-75.112694,5.461136],[-75.11254,5.461094],[-75.112328,5.460983],[-75.112207,5.46088],[-75.112105,5.460756],[-75.111997,5.460542],[-75.111958,5.460388],[-75.111947,5.460228],[-75.111983,5.459991],[-75.112041,5.459842],[-75.112125,5.459706],[-75.112231,5.459587],[-75.112356,5.459488],[-75.112497,5.459413],[-75.112727,5.459349],[-75.112886,5.459341],[-75.113045,5.459362],[-75.113197,5.45941],[-75.113338,5.459484],[-75.113464,5.459582],[-75.113571,5.459701],[-75.113688,5.45991],[-75.113734,5.460063],[-75.113752,5.460222],[-75.113726,5.46046],[-75.113675,5.460611],[-75.113598,5.460751],[-75.113497,5.460875],[-75.113376,5.460979],[-75.113165,5.461092],[-75.113012,5.461135],[-75.112853,5.461149]]],[[[-75.104712,5.461769],[-75.104553,5.461755],[-75.104325,5.461683],[-75.104187,5.461603],[-75.104066,5.461499],[-75.103964,5.461376],[-75.103886,5.461236],[-75.103834,5.461085],[-75.103806,5.460847],[-75.103824,5.460688],[-75.1039,5.460462],[-75.103984,5.460326],[-75.10409,5.460206],[-75.104215,5.460107],[-75.104356,5.460032],[-75.104508,5.459983],[-75.104746,5.459961],[-75.104904,5.459981],[-75.105056,5.460029],[-75.105197,5.460104],[-75.105323,5.460202],[-75.10543,5.46032],[-75.105514,5.460456],[-75.105573,5.460605],[-75.105611,5.460841],[-75.105601,5.461001],[-75.105563,5.461156],[-75.105457,5.46137],[-75.105356,5.461494],[-75.105169,5.461643],[-75.105025,5.461711],[-75.104871,5.461754],[-75.104712,5.461769]]],[[[-75.096464,5.462769],[-75.096305,5.462756],[-75.096151,5.462714],[-75.096007,5.462646],[-75.095876,5.462554],[-75.095764,5.46244],[-75.095674,5.462308],[-75.095608,5.462163],[-75.09556,5.461928],[-75.095563,5.461768],[-75.095594,5.461611],[-75.095652,5.461463],[-75.095786,5.461264],[-75.095902,5.461155],[-75.096036,5.461067],[-75.096183,5.461004],[-75.096418,5.460961],[-75.096577,5.460968],[-75.096733,5.461003],[-75.096949,5.461104],[-75.097075,5.461202],[-75.097182,5.461321],[-75.097266,5.461457],[-75.097345,5.461683],[-75.097363,5.461842],[-75.097337,5.46208],[-75.097286,5.462231],[-75.097209,5.462371],[-75.097108,5.462495],[-75.09692,5.462643],[-75.096777,5.462712],[-75.096623,5.462755],[-75.096464,5.462769]]],[[[-75.102687,5.46311],[-75.102528,5.463097],[-75.102374,5.463055],[-75.10223,5.462987],[-75.102041,5.46284],[-75.10194,5.462717],[-75.101832,5.462503],[-75.101793,5.462348],[-75.101782,5.462189],[-75.101799,5.46203],[-75.101844,5.461877],[-75.101915,5.461733],[-75.102065,5.461548],[-75.102191,5.461449],[-75.102331,5.461373],[-75.102483,5.461324],[-75.102721,5.461302],[-75.102879,5.461323],[-75.103031,5.461371],[-75.103238,5.461491],[-75.103354,5.4616],[-75.10345,5.461728],[-75.103522,5.461871],[-75.103568,5.462024],[-75.103586,5.462183],[-75.103576,5.462342],[-75.103538,5.462498],[-75.103432,5.462712],[-75.103331,5.462836],[-75.103144,5.462984],[-75.103,5.463053],[-75.102846,5.463096],[-75.102687,5.46311]]],[[[-75.107481,5.463102],[-75.107322,5.463088],[-75.107168,5.463047],[-75.107024,5.462979],[-75.106835,5.462832],[-75.106691,5.462641],[-75.106626,5.462495],[-75.106587,5.46234],[-75.106576,5.462181],[-75.106593,5.462022],[-75.106637,5.461868],[-75.106708,5.461725],[-75.106859,5.461539],[-75.106984,5.461441],[-75.107125,5.461365],[-75.107277,5.461316],[-75.107515,5.461294],[-75.107673,5.461315],[-75.107825,5.461363],[-75.107966,5.461437],[-75.108092,5.461535],[-75.108199,5.461654],[-75.108283,5.46179],[-75.108343,5.461938],[-75.10838,5.462174],[-75.10837,5.462334],[-75.108332,5.462489],[-75.108268,5.462635],[-75.108125,5.462828],[-75.107938,5.462976],[-75.107794,5.463045],[-75.10764,5.463087],[-75.107481,5.463102]]],[[[-75.232803,5.465084],[-75.232644,5.465071],[-75.232417,5.464999],[-75.232279,5.464918],[-75.232157,5.464815],[-75.232056,5.464691],[-75.231977,5.464552],[-75.231909,5.464323],[-75.231898,5.464163],[-75.231915,5.464004],[-75.231992,5.463778],[-75.232075,5.463641],[-75.232181,5.463522],[-75.232306,5.463423],[-75.232522,5.46332],[-75.232677,5.463284],[-75.232837,5.463276],[-75.232995,5.463297],[-75.233147,5.463345],[-75.233353,5.463466],[-75.23347,5.463574],[-75.233566,5.463702],[-75.233638,5.463845],[-75.233684,5.463998],[-75.233701,5.464237],[-75.233677,5.464395],[-75.233625,5.464546],[-75.233548,5.464686],[-75.233389,5.464865],[-75.23326,5.464958],[-75.233116,5.465027],[-75.232962,5.46507],[-75.232803,5.465084]]],[[[-75.097353,5.466394],[-75.097194,5.46638],[-75.097039,5.466339],[-75.096895,5.466271],[-75.096706,5.466124],[-75.096563,5.465933],[-75.096497,5.465787],[-75.096458,5.465632],[-75.096447,5.465472],[-75.096464,5.465313],[-75.096509,5.46516],[-75.09658,5.465017],[-75.096731,5.464831],[-75.096856,5.464732],[-75.097071,5.464629],[-75.097227,5.464593],[-75.097386,5.464586],[-75.097544,5.464606],[-75.097696,5.464654],[-75.097838,5.464729],[-75.097964,5.464827],[-75.098071,5.464946],[-75.098188,5.465154],[-75.098234,5.465307],[-75.098252,5.465466],[-75.098242,5.465626],[-75.098204,5.465781],[-75.098139,5.465927],[-75.097997,5.46612],[-75.097876,5.466224],[-75.097665,5.466337],[-75.097511,5.466379],[-75.097353,5.466394]]],[[[-75.119243,5.467804],[-75.119084,5.467791],[-75.118856,5.467719],[-75.118719,5.467638],[-75.118597,5.467535],[-75.118496,5.467411],[-75.118417,5.467272],[-75.118365,5.467121],[-75.11834,5.466963],[-75.118355,5.466724],[-75.118399,5.466571],[-75.11847,5.466428],[-75.118565,5.466299],[-75.118681,5.46619],[-75.118815,5.466102],[-75.118962,5.46604],[-75.119197,5.465997],[-75.119356,5.466003],[-75.119587,5.466065],[-75.119728,5.466139],[-75.119854,5.466238],[-75.119961,5.466356],[-75.120045,5.466492],[-75.120104,5.46664],[-75.120142,5.466877],[-75.120132,5.467036],[-75.120094,5.467192],[-75.12003,5.467338],[-75.119887,5.46753],[-75.1197,5.467678],[-75.119556,5.467747],[-75.119402,5.46779],[-75.119243,5.467804]]],[[[-75.117383,5.470184],[-75.117224,5.470171],[-75.116996,5.470099],[-75.116859,5.470018],[-75.116737,5.469915],[-75.116636,5.469791],[-75.116557,5.469652],[-75.116505,5.469501],[-75.11648,5.469343],[-75.116495,5.469104],[-75.116539,5.468951],[-75.11661,5.468808],[-75.116705,5.468679],[-75.116822,5.46857],[-75.116955,5.468482],[-75.117102,5.46842],[-75.117337,5.468377],[-75.117496,5.468383],[-75.117727,5.468445],[-75.117868,5.468519],[-75.117994,5.468618],[-75.118101,5.468736],[-75.118185,5.468872],[-75.118245,5.46902],[-75.118282,5.469257],[-75.118272,5.469416],[-75.118234,5.469572],[-75.11817,5.469718],[-75.118027,5.46991],[-75.11784,5.470058],[-75.117696,5.470127],[-75.117542,5.47017],[-75.117383,5.470184]]],[[[-75.236933,5.471214],[-75.236774,5.471201],[-75.236547,5.471129],[-75.236409,5.471048],[-75.236287,5.470945],[-75.236186,5.470821],[-75.236108,5.470682],[-75.236039,5.470453],[-75.236028,5.470293],[-75.236045,5.470134],[-75.236122,5.469908],[-75.236205,5.469772],[-75.236311,5.469652],[-75.236436,5.469553],[-75.236652,5.46945],[-75.236807,5.469414],[-75.236967,5.469406],[-75.237125,5.469427],[-75.237277,5.469475],[-75.237483,5.469596],[-75.2376,5.469704],[-75.237696,5.469832],[-75.237768,5.469975],[-75.237814,5.470128],[-75.237831,5.470367],[-75.237807,5.470525],[-75.237755,5.470676],[-75.23763,5.47088],[-75.237519,5.470995],[-75.23739,5.471088],[-75.237246,5.471157],[-75.237092,5.4712],[-75.236933,5.471214]]]]},"properties":{"area_ha":124.6191}}]}