{"type":"FeatureCollection","features":[{"type":"Feature","id":0,"geometry":{"type":"Polygon","coordinates":[[[-75.112551,5.450852],[-75.112711,5.450858],[-75.112866,5.450892],[-75.113014,5.450954],[-75.113209,5.451092],[-75.113316,5.451211],[-75.1134,5.451347],[-75.113459,5.451495],[-75.113497,5.451732],[-75.113471,5.45197],[-75.11342,5.452121],[-75.113342,5.452261],[-75.113242,5.452385],[-75.113121,5.452489],[-75.11291,5.452602],[-75.112757,5.452645],[-75.112598,5.452659],[-75.112439,5.452646],[-75.112285,5.452604],[-75.112073,5.452493],[-75.111952,5.452389],[-75.11185,5.452266],[-75.111742,5.452053],[-75.111703,5.451898],[-75.111692,5.451738],[-75.111709,5.451579],[-75.111786,5.451352],[-75.11187,5.451216],[-75.111975,5.451097],[-75.112101,5.450998],[-75.112242,5.450922],[-75.112393,5.450873],[-75.112551,5.450852]]]},"properties":{"observacion":null,"area_ha":3.1375}},{"type":"Feature","id":1,"geometry":{"type":"Polygon","coordinates":[[[-75.114536,5.45309],[-75.114774,5.45311],[-75.114926,5.453158],[-75.115067,5.453232],[-75.115193,5.45333],[-75.1153,5.453449],[-75.115384,5.453585],[-75.115443,5.453733],[-75.115481,5.45397],[-75.115471,5.454129],[-75.115433,5.454284],[-75.115368,5.454431],[-75.115226,5.454623],[-75.115105,5.454727],[-75.114968,5.454809],[-75.114818,5.454865],[-75.114661,5.454894],[-75.114423,5.454884],[-75.114269,5.454842],[-75.114124,5.454774],[-75.113994,5.454682],[-75.113882,5.454568],[-75.113792,5.454436],[-75.113726,5.45429],[-75.113678,5.454056],[-75.113681,5.453896],[-75.113712,5.453739],[-75.113809,5.45352],[-75.113904,5.453392],[-75.11402,5.453282],[-75.114154,5.453195],[-75.114378,5.453111],[-75.114536,5.45309]]]},"properties":{"observacion":"PERSONAS","area_ha":3.1375}},{"type":"Feature","id":2,"geometry":{"type":"Polygon","coordinates":[[[-75.129091,5.434981],[-75.129066,5.434824],[-75.129081,5.434585],[-75.129125,5.434432],[-75.129196,5.434289],[-75.129347,5.434103],[-75.129472,5.434004],[-75.129613,5.433929],[-75.129765,5.433879],[-75.130003,5.433857],[-75.130161,5.433878],[-75.130313,5.433926],[-75.130454,5.434],[-75.13058,5.434099],[-75.130732,5.434283],[-75.130804,5.434426],[-75.13085,5.434579],[-75.130868,5.434738],[-75.130858,5.434897],[-75.13082,5.435053],[-75.130755,5.435199],[-75.130613,5.435391],[-75.130492,5.435495],[-75.130355,5.435577],[-75.130206,5.435633],[-75.130148,5.435646],[-75.130081,5.435461],[-75.129946,5.435263],[-75.12983,5.435154],[-75.129696,5.435067],[-75.129549,5.435005],[-75.129393,5.43497],[-75.129091,5.434981]]]},"properties":{"observacion":"VACAS","area_ha":2.6082}},{"type":"Feature","id":3,"geometry":{"type":"Polygon","coordinates":[[[-75.114927,5.445168],[-75.115168,5.445137],[-75.115394,5.44504],[-75.115584,5.445061],[-75.115736,5.445109],[-75.115877,5.445183],[-75.116003,5.445281],[-75.116155,5.445466],[-75.116253,5.445684],[-75.116286,5.445841],[-75.11629,5.446001],[-75.116266,5.446159],[-75.116214,5.44631],[-75.116137,5.44645],[-75.115978,5.446629],[-75.115849,5.446722],[-75.115629,5.446816],[-75.115472,5.446845],[-75.115312,5.446845],[-75.115155,5.446817],[-75.115005,5.446763],[-75.114868,5.446682],[-75.114746,5.446579],[-75.114602,5.446387],[-75.114537,5.446242],[-75.114489,5.446007],[-75.114492,5.445847],[-75.114523,5.445691],[-75.114581,5.445542],[-75.114664,5.445405],[-75.11477,5.445286],[-75.114927,5.445168]]]},"properties":{"observacion":"PERROS","area_ha":3.1111}},{"type":"Feature","id":4,"geometry":{"type":"Polygon","coordinates":[[[-75.103943,5.446699],[-75.103849,5.446494],[-75.103697,5.446309],[-75.103502,5.446171],[-75.10328,5.44609],[-75.10324,5.44588],[-75.103255,5.445641],[-75.1033,5.445488],[-75.10337,5.445345],[-75.103521,5.445159],[-75.103646,5.44506],[-75.103787,5.444985],[-75.103939,5.444935],[-75.104177,5.444913],[-75.104335,5.444934],[-75.104487,5.444982],[-75.104628,5.445056],[-75.104754,5.445155],[-75.104906,5.445339],[-75.105005,5.445557],[-75.105037,5.445714],[-75.105041,5.445874],[-75.105017,5.446032],[-75.104965,5.446183],[-75.104888,5.446323],[-75.104729,5.446502],[-75.1046,5.446595],[-75.104456,5.446664],[-75.104302,5.446707],[-75.104143,5.446721],[-75.103943,5.446699]]]},"properties":{"observacion":"PERROS","area_ha":2.9585}},{"type":"Feature","id":5,"geometry":{"type":"Polygon","coordinates":[[[-75.10328,5.44609],[-75.103396,5.446328],[-75.103555,5.446506],[-75.103756,5.446636],[-75.103943,5.446699],[-75.103985,5.446949],[-75.10396,5.447187],[-75.103908,5.447338],[-75.103831,5.447478],[-75.103672,5.447657],[-75.103543,5.44775],[-75.103323,5.447844],[-75.103166,5.447873],[-75.103006,5.447873],[-75.102849,5.447846],[-75.102699,5.447791],[-75.102562,5.44771],[-75.10244,5.447607],[-75.102296,5.447415],[-75.102231,5.44727],[-75.102183,5.447035],[-75.102186,5.446875],[-75.102217,5.446719],[-75.102275,5.44657],[-75.102358,5.446433],[-75.102525,5.446262],[-75.102658,5.446174],[-75.102805,5.446112],[-75.10296,5.446076],[-75.10312,5.446068],[-75.10328,5.44609]]]},"properties":{"observacion":"PERROS","area_ha":2.9585}},{"type":"Feature","id":6,"geometry":{"type":"Polygon","coordinates":[[[-75.109792,5.459288],[-75.109677,5.459002],[-75.109508,5.458803],[-75.109489,5.458674],[-75.109504,5.458435],[-75.109548,5.458282],[-75.109619,5.458139],[-75.109714,5.45801],[-75.109831,5.457901],[-75.109964,5.457813],[-75.110188,5.457729],[-75.110346,5.457708],[-75.110505,5.457714],[-75.110736,5.457776],[-75.110877,5.45785],[-75.111003,5.457949],[-75.11111,5.458067],[-75.111194,5.458203],[-75.111254,5.458351],[-75.111291,5.458588],[-75.111281,5.458747],[-75.111243,5.458903],[-75.111137,5.459117],[-75.111036,5.459241],[-75.110849,5.459389],[-75.110705,5.459458],[-75.110551,5.459501],[-75.110392,5.459515],[-75.110233,5.459502],[-75.110079,5.45946],[-75.109935,5.459392],[-75.109792,5.459288]]]},"properties":{"observacion":"PERROS","area_ha":3.096}},{"type":"Feature","id":7,"geometry":{"type":"Polygon","coordinates":[[[-75.105831,5.451598],[-75.10599,5.451604],[-75.106146,5.451639],[-75.106293,5.4517],[-75.106488,5.451839],[-75.10664,5.452023],[-75.106712,5.452166],[-75.106758,5.452319],[-75.106776,5.452478],[-75.106766,5.452637],[-75.106728,5.452793],[-75.106663,5.452939],[-75.106521,5.453131],[-75.1064,5.453236],[-75.106263,5.453317],[-75.106114,5.453373],[-75.105957,5.453402],[-75.105797,5.453402],[-75.10564,5.453375],[-75.10549,5.45332],[-75.105289,5.45319],[-75.105177,5.453076],[-75.105087,5.452944],[-75.105022,5.452799],[-75.104973,5.452564],[-75.104976,5.452404],[-75.105007,5.452248],[-75.105104,5.452029],[-75.105199,5.4519],[-75.10538,5.451744],[-75.105521,5.451669],[-75.105673,5.45162],[-75.105831,5.451598]]]},"properties":{"observacion":"VACAS","area_ha":3.1375}},{"type":"Feature","id":8,"geometry":{"type":"Polygon","coordinates":[[[-75.121634,5.44034],[-75.121794,5.440346],[-75.12195,5.440381],[-75.122166,5.440483],[-75.122292,5.440581],[-75.122399,5.440699],[-75.122483,5.440835],[-75.122542,5.440984],[-75.12258,5.44122],[-75.12257,5.44138],[-75.122532,5.441535],[-75.122467,5.441681],[-75.122325,5.441873],[-75.122204,5.441978],[-75.122067,5.442059],[-75.121917,5.442115],[-75.12176,5.442144],[-75.121522,5.442134],[-75.121368,5.442093],[-75.121223,5.442025],[-75.121093,5.441932],[-75.120981,5.441818],[-75.120855,5.441615],[-75.120802,5.441464],[-75.120777,5.441306],[-75.12078,5.441146],[-75.120811,5.44099],[-75.120869,5.440841],[-75.121003,5.440642],[-75.121119,5.440533],[-75.121253,5.440445],[-75.121399,5.440383],[-75.121634,5.44034]]]},"properties":{"observacion":"VACAS","area_ha":3.1375}},{"type":"Feature","id":9,"geometry":{"type":"Polygon","coordinates":[[[-75.124998,5.437949],[-75.124935,5.437647],[-75.124864,5.437504],[-75.124768,5.437376],[-75.124652,5.437267],[-75.124518,5.43718],[-75.124294,5.437097],[-75.124127,5.437076],[-75.124126,5.437026],[-75.124143,5.436867],[-75.124188,5.436714],[-75.12426,5.436571],[-75.124411,5.436386],[-75.124537,5.436287],[-75.124678,5.436213],[-75.124908,5.43615],[-75.125068,5.436143],[-75.125226,5.436164],[-75.125378,5.436213],[-75.125584,5.436334],[-75.1257,5.436443],[-75.125795,5.436571],[-75.125893,5.43679],[-75.125924,5.436946],[-75.125928,5.437106],[-75.125903,5.437264],[-75.125851,5.437415],[-75.125774,5.437555],[-75.125614,5.437733],[-75.125485,5.437826],[-75.12534,5.437894],[-75.125187,5.437936],[-75.124998,5.437949]]]},"properties":{"observacion":null,"area_ha":2.6311}},{"type":"Feature","id":10,"geometry":{"type":"Polygon","coordinates":[[[-75.116428,5.44135],[-75.116365,5.441544],[-75.116348,5.441703],[-75.116359,5.441863],[-75.116427,5.442092],[-75.116506,5.442231],[-75.116665,5.442409],[-75.116866,5.442539],[-75.117035,5.442598],[-75.117024,5.4427],[-75.116837,5.442923],[-75.116637,5.443053],[-75.116409,5.443126],[-75.11625,5.44314],[-75.116091,5.443126],[-75.115938,5.443084],[-75.115793,5.443016],[-75.115605,5.442868],[-75.115504,5.442745],[-75.115427,5.442605],[-75.115375,5.442454],[-75.115348,5.442216],[-75.115366,5.442057],[-75.115411,5.441904],[-75.115483,5.441761],[-75.115578,5.441633],[-75.115759,5.441477],[-75.1159,5.441402],[-75.116052,5.441354],[-75.11621,5.441333],[-75.116428,5.44135]]]},"properties":{"observacion":null,"area_ha":2.3146}},{"type":"Feature","id":11,"geometry":{"type":"Polygon","coordinates":[[[-75.113812,5.440397],[-75.113971,5.44039],[-75.114129,5.440411],[-75.114281,5.44046],[-75.114487,5.440581],[-75.114604,5.44069],[-75.114699,5.440818],[-75.114771,5.440961],[-75.114828,5.441193],[-75.114832,5.441353],[-75.114807,5.441511],[-75.114755,5.441662],[-75.11463,5.441866],[-75.114518,5.44198],[-75.114318,5.44211],[-75.114168,5.442166],[-75.114011,5.442194],[-75.113851,5.442194],[-75.113694,5.442166],[-75.113545,5.44211],[-75.113344,5.44198],[-75.113233,5.441866],[-75.113143,5.441734],[-75.113078,5.441588],[-75.11304,5.441433],[-75.113034,5.441193],[-75.113066,5.441037],[-75.113125,5.440888],[-75.113208,5.440752],[-75.113315,5.440633],[-75.113509,5.440494],[-75.113656,5.440432],[-75.113812,5.440397]]]},"properties":{"observacion":null,"area_ha":3.1367}},{"type":"Feature","id":12,"geometry":{"type":"Polygon","coordinates":[[[-75.114274,5.443646],[-75.114385,5.44345],[-75.114491,5.443331],[-75.114617,5.443233],[-75.114758,5.443158],[-75.114988,5.443095],[-75.115148,5.443088],[-75.115306,5.443109],[-75.115458,5.443158],[-75.115599,5.443232],[-75.115724,5.443331],[-75.115876,5.443516],[-75.115947,5.443659],[-75.115992,5.443812],[-75.11601,5.443971],[-75.115999,5.444131],[-75.115932,5.44436],[-75.115764,5.44461],[-75.115823,5.444404],[-75.115834,5.444244],[-75.115816,5.444085],[-75.115771,5.443932],[-75.115655,5.443723],[-75.115548,5.443604],[-75.115423,5.443506],[-75.115282,5.443431],[-75.11513,5.443382],[-75.114972,5.443361],[-75.114734,5.443382],[-75.11451,5.443465],[-75.114274,5.443646]]]},"properties":{"observacion":null,"area_ha":0.7144}},{"type":"Feature","id":13,"geometry":{"type":"Polygon","coordinates":[[[-75.095746,5.441783],[-75.095906,5.441776],[-75.096064,5.441797],[-75.096215,5.441846],[-75.096422,5.441967],[-75.096538,5.442076],[-75.096672,5.442274],[-75.096731,5.442423],[-75.096762,5.44258],[-75.096766,5.442739],[-75.096741,5.442897],[-75.096689,5.443049],[-75.096564,5.443252],[-75.096452,5.443366],[-75.096252,5.443497],[-75.096102,5.443552],[-75.095945,5.44358],[-75.095786,5.44358],[-75.095629,5.443552],[-75.095479,5.443497],[-75.095342,5.443416],[-75.09522,5.443312],[-75.095078,5.44312],[-75.095012,5.442974],[-75.094974,5.442819],[-75.094964,5.442659],[-75.095,5.442423],[-75.095059,5.442274],[-75.095143,5.442138],[-75.09531,5.441967],[-75.095444,5.44188],[-75.095591,5.441818],[-75.095746,5.441783]]]},"properties":{"observacion":null,"area_ha":3.1366}},{"type":"Feature","id":14,"geometry":{"type":"Polygon","coordinates":[[[-75.118079,5.457738],[-75.117926,5.457787],[-75.117721,5.457909],[-75.117554,5.458081],[-75.117458,5.458246],[-75.117177,5.458266],[-75.11702,5.458238],[-75.116871,5.458182],[-75.116733,5.458101],[-75.116612,5.457997],[-75.116469,5.457806],[-75.116404,5.45766],[-75.116365,5.457505],[-75.116355,5.457345],[-75.116392,5.457108],[-75.11645,5.45696],[-75.116534,5.456824],[-75.11664,5.456705],[-75.116835,5.456566],[-75.116982,5.456504],[-75.117138,5.456469],[-75.117297,5.456462],[-75.117532,5.456504],[-75.117679,5.456566],[-75.117813,5.456653],[-75.117929,5.456762],[-75.118064,5.45696],[-75.118122,5.457109],[-75.118154,5.457265],[-75.118157,5.457425],[-75.118133,5.457583],[-75.118079,5.457738]]]},"properties":{"observacion":null,"area_ha":3.0125}},{"type":"Feature","id":15,"geometry":{"type":"Polygon","coordinates":[[[-75.114592,5.457677],[-75.114751,5.45767],[-75.114909,5.457691],[-75.115061,5.457739],[-75.115202,5.457814],[-75.115328,5.457913],[-75.115434,5.458032],[-75.115518,5.458168],[-75.115596,5.458394],[-75.115613,5.458553],[-75.115603,5.458712],[-75.115535,5.458942],[-75.115457,5.459082],[-75.115356,5.459205],[-75.115235,5.459309],[-75.115097,5.45939],[-75.11487,5.459463],[-75.114711,5.459477],[-75.114552,5.459463],[-75.114325,5.45939],[-75.114187,5.459309],[-75.114066,5.459205],[-75.113923,5.459014],[-75.113858,5.458868],[-75.113819,5.458713],[-75.113809,5.458553],[-75.113826,5.458394],[-75.113904,5.458168],[-75.113988,5.458032],[-75.114094,5.457913],[-75.114289,5.457774],[-75.114436,5.457712],[-75.114592,5.457677]]]},"properties":{"observacion":null,"area_ha":3.1367}},{"type":"Feature","id":16,"geometry":{"type":"Polygon","coordinates":[[[-75.129091,5.434981],[-75.129143,5.435133],[-75.129221,5.435272],[-75.129323,5.435396],[-75.129444,5.435499],[-75.129582,5.43558],[-75.129732,5.435635],[-75.129969,5.435665],[-75.130148,5.435646],[-75.130158,5.435687],[-75.130174,5.435926],[-75.13015,5.436084],[-75.130098,5.436235],[-75.13002,5.436375],[-75.129919,5.436498],[-75.129798,5.436602],[-75.12966,5.436683],[-75.129433,5.436756],[-75.129274,5.43677],[-75.129115,5.436756],[-75.128888,5.436683],[-75.12875,5.436602],[-75.128629,5.436498],[-75.128528,5.436375],[-75.12845,5.436235],[-75.128383,5.436006],[-75.128372,5.435846],[-75.128409,5.435609],[-75.128467,5.435461],[-75.128551,5.435325],[-75.128658,5.435206],[-75.128783,5.435107],[-75.128924,5.435033],[-75.129091,5.434981]]]},"properties":{"observacion":null,"area_ha":2.6075}},{"type":"Feature","id":17,"geometry":{"type":"Polygon","coordinates":[[[-75.124127,5.437076],[-75.124152,5.437264],[-75.124204,5.437415],[-75.124282,5.437555],[-75.124383,5.437679],[-75.124504,5.437782],[-75.124641,5.437863],[-75.124791,5.437919],[-75.124998,5.437959],[-75.124988,5.438119],[-75.12492,5.438348],[-75.124842,5.438488],[-75.124741,5.438611],[-75.12462,5.438715],[-75.124482,5.438796],[-75.124255,5.438869],[-75.124096,5.438883],[-75.123937,5.438869],[-75.12371,5.438796],[-75.123572,5.438715],[-75.123451,5.438611],[-75.12335,5.438488],[-75.123272,5.438348],[-75.123204,5.438118],[-75.123194,5.437959],[-75.123231,5.437723],[-75.123289,5.437574],[-75.123373,5.437438],[-75.12348,5.437319],[-75.123605,5.43722],[-75.123746,5.437146],[-75.123898,5.437097],[-75.124127,5.437076]]]},"properties":{"observacion":null,"area_ha":2.6311}},{"type":"Feature","id":18,"geometry":{"type":"Polygon","coordinates":[[[-75.118402,5.43812],[-75.118562,5.438113],[-75.11872,5.438134],[-75.118944,5.438217],[-75.119078,5.438304],[-75.119194,5.438413],[-75.11929,5.438541],[-75.119361,5.438684],[-75.119406,5.438837],[-75.119424,5.438996],[-75.119413,5.439156],[-75.119346,5.439385],[-75.119268,5.439525],[-75.119167,5.439649],[-75.119046,5.439753],[-75.118835,5.439865],[-75.118681,5.439907],[-75.118522,5.439921],[-75.118363,5.439907],[-75.118135,5.439834],[-75.117998,5.439753],[-75.117877,5.439649],[-75.117734,5.439457],[-75.117669,5.439311],[-75.11763,5.439156],[-75.11762,5.438996],[-75.117657,5.43876],[-75.117715,5.438611],[-75.117799,5.438475],[-75.117905,5.438356],[-75.1181,5.438217],[-75.118247,5.438155],[-75.118402,5.43812]]]},"properties":{"observacion":null,"area_ha":3.1367}},{"type":"Feature","id":19,"geometry":{"type":"Polygon","coordinates":[[[-75.114274,5.443646],[-75.114211,5.443891],[-75.114216,5.444131],[-75.114255,5.444286],[-75.11432,5.444432],[-75.114463,5.444624],[-75.114584,5.444727],[-75.114721,5.444808],[-75.114871,5.444864],[-75.115108,5.444896],[-75.115344,5.444864],[-75.115494,5.444809],[-75.115632,5.444728],[-75.115764,5.44461],[-75.115678,5.444773],[-75.115577,5.444897],[-75.115394,5.44504],[-75.115188,5.445062],[-75.114927,5.445168],[-75.114695,5.445137],[-75.114545,5.445082],[-75.114408,5.445001],[-75.114287,5.444897],[-75.114186,5.444773],[-75.114108,5.444633],[-75.11404,5.444404],[-75.11403,5.444244],[-75.114047,5.444085],[-75.114092,5.443932],[-75.114164,5.443789],[-75.114274,5.443646]]]},"properties":{"observacion":null,"area_ha":0.688}},{"type":"Feature","id":20,"geometry":{"type":"Polygon","coordinates":[[[-75.116519,5.452941],[-75.116678,5.452934],[-75.116836,5.452955],[-75.11706,5.453038],[-75.117194,5.453125],[-75.117311,5.453234],[-75.117445,5.453432],[-75.117504,5.453581],[-75.117535,5.453738],[-75.117539,5.453897],[-75.117514,5.454055],[-75.117426,5.454278],[-75.117337,5.45441],[-75.117225,5.454525],[-75.117025,5.454655],[-75.116875,5.45471],[-75.116718,5.454738],[-75.116558,5.454738],[-75.116401,5.45471],[-75.116181,5.454617],[-75.116051,5.454524],[-75.11594,5.45441],[-75.11585,5.454278],[-75.115785,5.454132],[-75.115747,5.453977],[-75.115736,5.453818],[-75.115754,5.453659],[-75.115832,5.453432],[-75.115915,5.453296],[-75.116022,5.453177],[-75.116216,5.453038],[-75.116363,5.452976],[-75.116519,5.452941]]]},"properties":{"observacion":null,"area_ha":3.1367}},{"type":"Feature","id":21,"geometry":{"type":"Polygon","coordinates":[[[-75.117024,5.4427],[-75.117074,5.442606],[-75.117253,5.442624],[-75.117412,5.44261],[-75.117566,5.442567],[-75.117777,5.442454],[-75.117897,5.44235],[-75.117998,5.442226],[-75.118075,5.442086],[-75.11814,5.441864],[-75.118415,5.441983],[-75.118541,5.442081],[-75.118647,5.442201],[-75.118731,5.442337],[-75.11879,5.442485],[-75.118821,5.442642],[-75.118825,5.442802],[-75.118778,5.443036],[-75.118713,5.443182],[-75.118623,5.443314],[-75.118511,5.443429],[-75.118381,5.443522],[-75.118161,5.443614],[-75.118004,5.443643],[-75.117845,5.443642],[-75.117688,5.443614],[-75.117468,5.443522],[-75.117338,5.443429],[-75.117226,5.443314],[-75.117136,5.443182],[-75.117071,5.443036],[-75.117033,5.442881],[-75.117024,5.4427]]]},"properties":{"observacion":null,"area_ha":2.4795}},{"type":"Feature","id":22,"geometry":{"type":"Polygon","coordinates":[[[-75.1174,5.458824],[-75.117382,5.458523],[-75.117458,5.458246],[-75.117643,5.458182],[-75.117844,5.458052],[-75.117955,5.457938],[-75.118079,5.457738],[-75.118316,5.457716],[-75.118474,5.457737],[-75.118626,5.457785],[-75.118767,5.457859],[-75.118949,5.458014],[-75.119045,5.458142],[-75.119117,5.458285],[-75.119163,5.458438],[-75.119181,5.458596],[-75.119171,5.458756],[-75.119094,5.459006],[-75.118982,5.458732],[-75.11883,5.458547],[-75.118635,5.458409],[-75.118488,5.458348],[-75.118332,5.458313],[-75.118173,5.458307],[-75.118015,5.458328],[-75.117791,5.458412],[-75.117657,5.4585],[-75.117541,5.458609],[-75.1174,5.458824]]]},"properties":{"observacion":null,"area_ha":1.164}},{"type":"Feature","id":23,"geometry":{"type":"Polygon","coordinates":[[[-75.1174,5.458824],[-75.117492,5.459063],[-75.117583,5.459195],[-75.117694,5.459309],[-75.117825,5.459401],[-75.117969,5.459469],[-75.118202,5.459521],[-75.118362,5.45952],[-75.118519,5.459492],[-75.118739,5.459398],[-75.118926,5.45925],[-75.119094,5.459006],[-75.119116,5.459267],[-75.119092,5.459425],[-75.119041,5.459576],[-75.118964,5.459716],[-75.118863,5.45984],[-75.118742,5.459945],[-75.118531,5.460057],[-75.118378,5.4601],[-75.118219,5.460115],[-75.11806,5.460101],[-75.117832,5.460029],[-75.117631,5.459899],[-75.117519,5.459785],[-75.117429,5.459653],[-75.117363,5.459508],[-75.117324,5.459353],[-75.117313,5.459193],[-75.11733,5.459034],[-75.1174,5.458824]]]},"properties":{"observacion":null,"area_ha":1.2882}},{"type":"Feature","id":24,"geometry":{"type":"Polygon","coordinates":[[[-75.109508,5.458803],[-75.109602,5.459054],[-75.109792,5.459288],[-75.109807,5.459377],[-75.109803,5.459616],[-75.109765,5.459771],[-75.1097,5.459918],[-75.109611,5.46005],[-75.1095,5.460165],[-75.1093,5.460296],[-75.10915,5.460352],[-75.108993,5.46038],[-75.108755,5.460371],[-75.1086,5.460329],[-75.108456,5.460261],[-75.108326,5.460169],[-75.108214,5.460055],[-75.108124,5.459923],[-75.108058,5.459777],[-75.10801,5.459543],[-75.108025,5.459304],[-75.10807,5.45915],[-75.108141,5.459007],[-75.108236,5.458879],[-75.108352,5.458769],[-75.108485,5.458682],[-75.108709,5.458598],[-75.108867,5.458576],[-75.109027,5.458583],[-75.109182,5.458617],[-75.10933,5.458679],[-75.109508,5.458803]]]},"properties":{"observacion":null,"area_ha":3.096}},{"type":"Feature","id":25,"geometry":{"type":"Polygon","coordinates":[[[-75.107435,5.461294],[-75.107673,5.461315],[-75.107825,5.461363],[-75.107966,5.461437],[-75.108092,5.461535],[-75.108199,5.461654],[-75.108283,5.46179],[-75.108343,5.461938],[-75.10838,5.462174],[-75.10837,5.462334],[-75.108332,5.462489],[-75.108268,5.462635],[-75.108125,5.462828],[-75.108005,5.462932],[-75.107867,5.463013],[-75.107718,5.46307],[-75.107561,5.463098],[-75.107322,5.463088],[-75.107168,5.463047],[-75.107024,5.462979],[-75.106893,5.462887],[-75.106782,5.462773],[-75.106691,5.462641],[-75.106626,5.462495],[-75.106578,5.462261],[-75.106593,5.462022],[-75.106637,5.461868],[-75.106708,5.461725],[-75.106803,5.461597],[-75.10692,5.461487],[-75.107053,5.4614],[-75.107277,5.461316],[-75.107435,5.461294]]]},"properties":{"observacion":null,"area_ha":3.1375}},{"type":"Feature","id":26,"geometry":{"type":"Polygon","coordinates":[[[-75.102641,5.461302],[-75.102879,5.461323],[-75.103031,5.461371],[-75.103172,5.461445],[-75.103298,5.461543],[-75.10345,5.461728],[-75.103522,5.461871],[-75.103568,5.462024],[-75.103586,5.462183],[-75.103576,5.462342],[-75.103538,5.462498],[-75.103432,5.462712],[-75.103331,5.462836],[-75.103211,5.46294],[-75.103073,5.463022],[-75.102924,5.463078],[-75.102767,5.463106],[-75.102528,5.463097],[-75.102374,5.463055],[-75.10223,5.462987],[-75.1021,5.462895],[-75.101988,5.462781],[-75.101898,5.462649],[-75.101832,5.462503],[-75.101784,5.462269],[-75.101799,5.46203],[-75.101844,5.461877],[-75.101915,5.461733],[-75.102009,5.461605],[-75.102126,5.461495],[-75.102259,5.461408],[-75.102483,5.461324],[-75.102641,5.461302]]]},"properties":{"observacion":null,"area_ha":3.1375}},{"type":"Feature","id":27,"geometry":{"type":"Polygon","coordinates":[[[-75.104666,5.459961],[-75.104825,5.459967],[-75.105056,5.460029],[-75.105197,5.460104],[-75.105323,5.460202],[-75.10543,5.46032],[-75.105514,5.460456],[-75.105573,5.460605],[-75.105611,5.460841],[-75.105601,5.461001],[-75.105563,5.461156],[-75.105457,5.46137],[-75.105356,5.461494],[-75.105235,5.461599],[-75.105098,5.46168],[-75.104949,5.461736],[-75.104792,5.461765],[-75.104553,5.461755],[-75.104399,5.461714],[-75.104254,5.461646],[-75.104124,5.461553],[-75.104012,5.461439],[-75.103886,5.461236],[-75.103834,5.461085],[-75.103808,5.460927],[-75.103811,5.460768],[-75.103868,5.460535],[-75.103939,5.460392],[-75.104034,5.460263],[-75.10415,5.460154],[-75.104284,5.460066],[-75.104508,5.459983],[-75.104666,5.459961]]]},"properties":{"observacion":null,"area_ha":3.1375}},{"type":"Feature","id":28,"geometry":{"type":"Polygon","coordinates":[[[-75.100634,5.454003],[-75.100793,5.45401],[-75.100949,5.454044],[-75.101096,5.454106],[-75.101291,5.454244],[-75.101398,5.454363],[-75.101482,5.454498],[-75.101561,5.454725],[-75.101579,5.454883],[-75.101569,5.455043],[-75.101531,5.455198],[-75.101467,5.455344],[-75.101324,5.455537],[-75.101203,5.455641],[-75.100993,5.455754],[-75.100839,5.455796],[-75.10068,5.455811],[-75.100521,5.455797],[-75.100367,5.455756],[-75.100223,5.455688],[-75.100093,5.455596],[-75.099981,5.455482],[-75.09989,5.45535],[-75.099825,5.455204],[-75.099777,5.45497],[-75.09978,5.45481],[-75.099811,5.454653],[-75.099869,5.454504],[-75.100002,5.454306],[-75.100118,5.454196],[-75.100252,5.454109],[-75.100476,5.454025],[-75.100634,5.454003]]]},"properties":{"observacion":null,"area_ha":3.1375}},{"type":"Feature","id":29,"geometry":{"type":"Polygon","coordinates":[[[-75.097601,5.450337],[-75.097761,5.450344],[-75.097917,5.450378],[-75.098064,5.45044],[-75.098259,5.450578],[-75.098411,5.450763],[-75.098483,5.450905],[-75.098529,5.451059],[-75.098547,5.451217],[-75.098537,5.451377],[-75.098499,5.451532],[-75.098434,5.451678],[-75.098292,5.451871],[-75.098171,5.451975],[-75.09796,5.452088],[-75.097807,5.45213],[-75.097648,5.452145],[-75.097489,5.452131],[-75.097335,5.45209],[-75.09719,5.452022],[-75.09706,5.45193],[-75.096948,5.451816],[-75.096858,5.451684],[-75.096792,5.451538],[-75.096744,5.451304],[-75.096747,5.451144],[-75.096778,5.450987],[-75.096875,5.450768],[-75.09697,5.45064],[-75.097151,5.450483],[-75.097292,5.450408],[-75.097443,5.450359],[-75.097601,5.450337]]]},"properties":{"observacion":null,"area_ha":3.1375}},{"type":"Feature","id":30,"geometry":{"type":"Polygon","coordinates":[[[-75.096418,5.460961],[-75.096577,5.460968],[-75.096733,5.461003],[-75.096949,5.461104],[-75.097075,5.461202],[-75.097182,5.461321],[-75.097266,5.461457],[-75.097345,5.461683],[-75.097363,5.461842],[-75.097353,5.462001],[-75.097315,5.462157],[-75.09725,5.462303],[-75.097161,5.462435],[-75.096987,5.462599],[-75.09685,5.462681],[-75.096701,5.462737],[-75.096544,5.462765],[-75.096384,5.462766],[-75.096227,5.462738],[-75.096077,5.462684],[-75.095876,5.462554],[-75.095764,5.46244],[-75.095674,5.462308],[-75.095608,5.462163],[-75.09556,5.461928],[-75.095563,5.461768],[-75.095594,5.461611],[-75.095652,5.461463],[-75.095786,5.461264],[-75.095902,5.461155],[-75.096036,5.461067],[-75.096183,5.461004],[-75.096418,5.460961]]]},"properties":{"observacion":null,"area_ha":3.1375}},{"type":"Feature","id":31,"geometry":{"type":"Polygon","coordinates":[[[-75.097306,5.464586],[-75.097466,5.464592],[-75.097622,5.464627],[-75.097769,5.464688],[-75.097964,5.464827],[-75.098071,5.464946],[-75.098155,5.465081],[-75.098214,5.46523],[-75.098246,5.465386],[-75.09825,5.465546],[-75.098226,5.465704],[-75.098139,5.465927],[-75.09805,5.46606],[-75.097876,5.466224],[-75.097739,5.466305],[-75.097589,5.466361],[-75.097432,5.46639],[-75.097194,5.46638],[-75.097039,5.466339],[-75.096895,5.466271],[-75.096765,5.466178],[-75.096653,5.466065],[-75.096563,5.465933],[-75.096497,5.465787],[-75.096449,5.465553],[-75.096464,5.465313],[-75.096509,5.46516],[-75.09658,5.465017],[-75.096675,5.464889],[-75.096856,5.464732],[-75.096997,5.464657],[-75.097148,5.464608],[-75.097306,5.464586]]]},"properties":{"observacion":null,"area_ha":3.1375}},{"type":"Feature","id":32,"geometry":{"type":"Polygon","coordinates":[[[-75.119197,5.465997],[-75.119356,5.466003],[-75.119587,5.466065],[-75.119728,5.466139],[-75.119854,5.466238],[-75.119961,5.466356],[-75.120045,5.466492],[-75.120104,5.46664],[-75.120142,5.466877],[-75.120132,5.467036],[-75.120094,5.467192],[-75.12003,5.467338],[-75.119887,5.46753],[-75.119767,5.467634],[-75.119629,5.467716],[-75.11948,5.467772],[-75.119323,5.467801],[-75.119084,5.467791],[-75.11893,5.467749],[-75.118786,5.467682],[-75.118656,5.467589],[-75.118544,5.467475],[-75.118453,5.467343],[-75.118388,5.467198],[-75.11834,5.466963],[-75.118355,5.466724],[-75.118399,5.466571],[-75.11847,5.466428],[-75.118565,5.466299],[-75.118681,5.46619],[-75.118815,5.466102],[-75.118962,5.46604],[-75.119197,5.465997]]]},"properties":{"observacion":null,"area_ha":3.1375}},{"type":"Feature","id":33,"geometry":{"type":"Polygon","coordinates":[[[-75.232757,5.463277],[-75.232916,5.463283],[-75.233147,5.463345],[-75.233288,5.463419],[-75.233414,5.463517],[-75.233521,5.463636],[-75.233605,5.463772],[-75.233684,5.463998],[-75.233702,5.464157],[-75.233692,5.464316],[-75.233654,5.464472],[-75.233548,5.464686],[-75.233447,5.46481],[-75.233327,5.464914],[-75.233189,5.464996],[-75.23304,5.465052],[-75.232883,5.46508],[-75.232644,5.465071],[-75.23249,5.465029],[-75.232346,5.464962],[-75.232216,5.464869],[-75.232104,5.464755],[-75.232013,5.464624],[-75.231948,5.464478],[-75.2319,5.464243],[-75.231915,5.464004],[-75.231959,5.463851],[-75.23203,5.463708],[-75.232125,5.463579],[-75.232241,5.46347],[-75.232447,5.463348],[-75.232599,5.463298],[-75.232757,5.463277]]]},"properties":{"observacion":null,"area_ha":3.1375}},{"type":"Feature","id":34,"geometry":{"type":"Polygon","coordinates":[[[-75.198907,5.419817],[-75.199066,5.419823],[-75.199222,5.419858],[-75.199369,5.419919],[-75.199564,5.420057],[-75.199671,5.420176],[-75.199755,5.420312],[-75.199814,5.42046],[-75.199852,5.420697],[-75.199842,5.420856],[-75.199775,5.421086],[-75.199698,5.421226],[-75.199597,5.42135],[-75.199477,5.421454],[-75.199339,5.421536],[-75.19919,5.421592],[-75.199033,5.42162],[-75.198794,5.421611],[-75.19864,5.421569],[-75.198496,5.421502],[-75.198366,5.421409],[-75.198254,5.421295],[-75.198164,5.421163],[-75.198098,5.421018],[-75.19805,5.420783],[-75.198065,5.420544],[-75.19811,5.420391],[-75.19818,5.420248],[-75.198275,5.420119],[-75.198391,5.42001],[-75.198525,5.419922],[-75.198749,5.419838],[-75.198907,5.419817]]]},"properties":{"observacion":null,"area_ha":3.1375}},{"type":"Feature","id":35,"geometry":{"type":"Polygon","coordinates":[[[-75.198167,5.375887],[-75.198326,5.375893],[-75.198482,5.375928],[-75.198698,5.376029],[-75.198824,5.376127],[-75.198931,5.376246],[-75.199015,5.376382],[-75.199094,5.376608],[-75.199112,5.376767],[-75.199087,5.377005],[-75.199035,5.377156],[-75.198958,5.377296],[-75.198857,5.37742],[-75.198736,5.377524],[-75.198599,5.377606],[-75.19845,5.377662],[-75.198293,5.37769],[-75.198054,5.377681],[-75.1979,5.377639],[-75.197756,5.377572],[-75.197626,5.377479],[-75.197514,5.377365],[-75.197424,5.377233],[-75.197358,5.377088],[-75.19731,5.376853],[-75.197313,5.376693],[-75.197344,5.376537],[-75.19744,5.376318],[-75.197536,5.376189],[-75.197652,5.37608],[-75.197785,5.375992],[-75.198009,5.375908],[-75.198167,5.375887]]]},"properties":{"observacion":null,"area_ha":3.1374}},{"type":"Feature","id":36,"geometry":{"type":"Polygon","coordinates":[[[-75.117337,5.468377],[-75.117496,5.468383],[-75.117727,5.468445],[-75.117868,5.468519],[-75.117994,5.468618],[-75.118101,5.468736],[-75.118185,5.468872],[-75.118245,5.46902],[-75.118282,5.469257],[-75.118272,5.469416],[-75.118234,5.469572],[-75.11817,5.469718],[-75.118027,5.46991],[-75.117907,5.470014],[-75.117769,5.470096],[-75.11762,5.470152],[-75.117463,5.470181],[-75.117224,5.470171],[-75.11707,5.470129],[-75.116926,5.470061],[-75.116795,5.469969],[-75.116684,5.469855],[-75.116593,5.469723],[-75.116528,5.469578],[-75.11648,5.469343],[-75.116495,5.469104],[-75.116539,5.468951],[-75.11661,5.468808],[-75.116705,5.468679],[-75.116822,5.46857],[-75.116955,5.468482],[-75.117102,5.46842],[-75.117337,5.468377]]]},"properties":{"observacion":null,"area_ha":3.1375}},{"type":"Feature","id":37,"geometry":{"type":"Polygon","coordinates":[[[-75.228447,5.427037],[-75.228606,5.427043],[-75.228762,5.427078],[-75.228909,5.427139],[-75.229104,5.427277],[-75.229256,5.427462],[-75.229328,5.427605],[-75.229374,5.427758],[-75.229392,5.427917],[-75.229367,5.428155],[-75.229315,5.428306],[-75.229238,5.428446],[-75.229137,5.42857],[-75.229017,5.428674],[-75.228879,5.428756],[-75.22873,5.428812],[-75.228573,5.428841],[-75.228414,5.428841],[-75.228256,5.428813],[-75.228107,5.428759],[-75.227906,5.428629],[-75.227794,5.428515],[-75.227667,5.428312],[-75.227615,5.428161],[-75.22759,5.428003],[-75.227605,5.427764],[-75.227649,5.427611],[-75.22772,5.427468],[-75.227815,5.427339],[-75.227996,5.427183],[-75.228137,5.427108],[-75.228289,5.427058],[-75.228447,5.427037]]]},"properties":{"observacion":null,"area_ha":3.1375}},{"type":"Feature","id":38,"geometry":{"type":"Polygon","coordinates":[[[-75.236887,5.469407],[-75.237046,5.469413],[-75.237277,5.469475],[-75.237418,5.469549],[-75.237544,5.469647],[-75.237651,5.469766],[-75.237735,5.469902],[-75.237814,5.470128],[-75.237832,5.470287],[-75.237822,5.470446],[-75.237784,5.470601],[-75.23772,5.470748],[-75.237578,5.47094],[-75.237457,5.471044],[-75.237319,5.471126],[-75.23717,5.471182],[-75.237013,5.471211],[-75.236774,5.471201],[-75.23662,5.471159],[-75.236476,5.471091],[-75.236346,5.470999],[-75.236234,5.470885],[-75.236143,5.470754],[-75.236078,5.470608],[-75.23603,5.470373],[-75.236045,5.470134],[-75.236089,5.469981],[-75.23616,5.469838],[-75.236255,5.469709],[-75.236371,5.4696],[-75.236505,5.469512],[-75.236652,5.46945],[-75.236887,5.469407]]]},"properties":{"observacion":null,"area_ha":3.1375}},{"type":"Feature","id":39,"geometry":{"type":"Polygon","coordinates":[[[-75.116428,5.44135],[-75.116525,5.441181],[-75.116631,5.441062],[-75.116756,5.440963],[-75.116897,5.440888],[-75.117049,5.440838],[-75.117207,5.440817],[-75.117366,5.440823],[-75.117522,5.440858],[-75.117669,5.440919],[-75.117803,5.441006],[-75.11792,5.441115],[-75.118016,5.441242],[-75.118088,5.441385],[-75.118134,5.441538],[-75.118152,5.441697],[-75.11814,5.441864],[-75.117885,5.441838],[-75.117726,5.44186],[-75.117575,5.441908],[-75.117434,5.441983],[-75.117308,5.442081],[-75.117151,5.442277],[-75.117116,5.441979],[-75.117057,5.441831],[-75.116973,5.441695],[-75.116867,5.441576],[-75.116741,5.441477],[-75.1166,5.441402],[-75.116428,5.44135]]]},"properties":{"observacion":null,"area_ha":1.6809}},{"type":"Feature","id":40,"geometry":{"type":"Polygon","coordinates":[[[-75.131207,5.420467],[-75.131366,5.420473],[-75.131522,5.420508],[-75.131738,5.420609],[-75.131864,5.420707],[-75.131971,5.420826],[-75.132055,5.420962],[-75.132115,5.42111],[-75.132147,5.421267],[-75.132151,5.421427],[-75.132127,5.421585],[-75.132075,5.421736],[-75.13195,5.42194],[-75.131839,5.422055],[-75.13171,5.422148],[-75.13149,5.422242],[-75.131333,5.422271],[-75.131094,5.422261],[-75.13094,5.422219],[-75.130796,5.422152],[-75.130666,5.422059],[-75.130554,5.421945],[-75.130427,5.421742],[-75.130375,5.421591],[-75.13035,5.421433],[-75.130353,5.421273],[-75.130384,5.421117],[-75.130442,5.420968],[-75.130576,5.420769],[-75.130692,5.42066],[-75.130825,5.420572],[-75.130972,5.42051],[-75.131207,5.420467]]]},"properties":{"observacion":null,"area_ha":3.1375}},{"type":"Feature","id":41,"geometry":{"type":"Polygon","coordinates":[[[-75.129091,5.434981],[-75.129314,5.434963],[-75.129472,5.434984],[-75.129624,5.435032],[-75.129765,5.435107],[-75.129891,5.435206],[-75.129997,5.435325],[-75.130081,5.435461],[-75.130148,5.435646],[-75.129969,5.435665],[-75.12981,5.435652],[-75.129656,5.435611],[-75.129512,5.435543],[-75.129381,5.43545],[-75.129269,5.435336],[-75.129143,5.435133],[-75.129091,5.434981]]]},"properties":{"observacion":"VACAS","area_ha":0.5293}},{"type":"Feature","id":42,"geometry":{"type":"Polygon","coordinates":[[[-75.114927,5.445168],[-75.115188,5.445062],[-75.115394,5.44504],[-75.115168,5.445137],[-75.114927,5.445168]]]},"properties":{"observacion":"PERROS","area_ha":0.0264}},{"type":"Feature","id":43,"geometry":{"type":"Polygon","coordinates":[[[-75.10328,5.44609],[-75.103502,5.446171],[-75.103697,5.446309],[-75.103849,5.446494],[-75.103943,5.446699],[-75.103756,5.446636],[-75.103555,5.446506],[-75.103396,5.446328],[-75.10328,5.44609]]]},"properties":{"observacion":"PERROS","area_ha":0.179}},{"type":"Feature","id":44,"geometry":{"type":"Polygon","coordinates":[[[-75.10328,5.44609],[-75.103502,5.446171],[-75.103697,5.446309],[-75.103849,5.446494],[-75.103943,5.446699],[-75.103756,5.446636],[-75.103555,5.446506],[-75.103396,5.446328],[-75.10328,5.44609]]]},"properties":{"observacion":"PERROS","area_ha":0.179}},{"type":"Feature","id":45,"geometry":{"type":"Polygon","coordinates":[[[-75.109508,5.458803],[-75.109677,5.459002],[-75.109792,5.459288],[-75.109602,5.459054],[-75.109508,5.458803]]]},"properties":{"observacion":"PERROS","area_ha":0.0414}},{"type":"Feature","id":46,"geometry":{"type":"Polygon","coordinates":[[[-75.124127,5.437076],[-75.124294,5.437097],[-75.124446,5.437145],[-75.124587,5.43722],[-75.124713,5.437319],[-75.124819,5.437438],[-75.124903,5.437574],[-75.124961,5.437722],[-75.124998,5.437949],[-75.124791,5.437919],[-75.124641,5.437863],[-75.124504,5.437782],[-75.124383,5.437679],[-75.124282,5.437555],[-75.124204,5.437415],[-75.124152,5.437264],[-75.124127,5.437076]]]},"properties":{"observacion":null,"area_ha":0.5057}},{"type":"Feature","id":47,"geometry":{"type":"Polygon","coordinates":[[[-75.124127,5.437076],[-75.124294,5.437097],[-75.124446,5.437145],[-75.124587,5.43722],[-75.124713,5.437319],[-75.124819,5.437438],[-75.124903,5.437574],[-75.124961,5.437722],[-75.124998,5.437949],[-75.124791,5.437919],[-75.124641,5.437863],[-75.124504,5.437782],[-75.124383,5.437679],[-75.124282,5.437555],[-75.124204,5.437415],[-75.124152,5.437264],[-75.124127,5.437076]]]},"properties":{"observacion":null,"area_ha":0.5057}},{"type":"Feature","id":48,"geometry":{"type":"Polygon","coordinates":[[[-75.117035,5.442598],[-75.117074,5.442606],[-75.117024,5.4427],[-75.117028,5.442642],[-75.117035,5.442598]]]},"properties":{"observacion":null,"area_ha":0.0028}},{"type":"Feature","id":49,"geometry":{"type":"Polygon","coordinates":[[[-75.117035,5.442598],[-75.117074,5.442606],[-75.117024,5.4427],[-75.117028,5.442642],[-75.117035,5.442598]]]},"properties":{"observacion":null,"area_ha":0.0028}},{"type":"Feature","id":50,"geometry":{"type":"Polygon","coordinates":[[[-75.116428,5.44135],[-75.1166,5.441402],[-75.116806,5.441524],[-75.116923,5.441633],[-75.117057,5.441831],[-75.117135,5.442057],[-75.117151,5.442277],[-75.117085,5.44241],[-75.117035,5.442598],[-75.116866,5.442539],[-75.116665,5.442409],[-75.116506,5.442231],[-75.116427,5.442092],[-75.116359,5.441863],[-75.116348,5.441703],[-75.116365,5.441544],[-75.116428,5.44135]]]},"properties":{"observacion":null,"area_ha":0.8022}},{"type":"Feature","id":51,"geometry":{"type":"Polygon","coordinates":[[[-75.114274,5.443646],[-75.11451,5.443465],[-75.114657,5.443403],[-75.114812,5.443368],[-75.114972,5.443361],[-75.11513,5.443382],[-75.115282,5.443431],[-75.115423,5.443506],[-75.115548,5.443604],[-75.115655,5.443723],[-75.115738,5.443859],[-75.115797,5.444008],[-75.115829,5.444165],[-75.115832,5.444324],[-75.115764,5.44461],[-75.115565,5.444771],[-75.11542,5.444839],[-75.115267,5.444881],[-75.115108,5.444896],[-75.114949,5.444881],[-75.114795,5.44484],[-75.114651,5.444771],[-75.114521,5.444678],[-75.114409,5.444564],[-75.11432,5.444432],[-75.114255,5.444286],[-75.114216,5.444131],[-75.114205,5.443971],[-75.114223,5.443812],[-75.114274,5.443646]]]},"properties":{"observacion":null,"area_ha":2.4223}},{"type":"Feature","id":52,"geometry":{"type":"Polygon","coordinates":[[[-75.114274,5.443646],[-75.11451,5.443465],[-75.114657,5.443403],[-75.114812,5.443368],[-75.114972,5.443361],[-75.11513,5.443382],[-75.115282,5.443431],[-75.115423,5.443506],[-75.115548,5.443604],[-75.115655,5.443723],[-75.115738,5.443859],[-75.115797,5.444008],[-75.115829,5.444165],[-75.115832,5.444324],[-75.115764,5.44461],[-75.115565,5.444771],[-75.11542,5.444839],[-75.115267,5.444881],[-75.115108,5.444896],[-75.114949,5.444881],[-75.114795,5.44484],[-75.114651,5.444771],[-75.114521,5.444678],[-75.114409,5.444564],[-75.11432,5.444432],[-75.114255,5.444286],[-75.114216,5.444131],[-75.114205,5.443971],[-75.114223,5.443812],[-75.114274,5.443646]]]},"properties":{"observacion":null,"area_ha":2.4223}},{"type":"Feature","id":53,"geometry":{"type":"Polygon","coordinates":[[[-75.118079,5.457738],[-75.117955,5.457938],[-75.117844,5.458052],[-75.117643,5.458182],[-75.117458,5.458246],[-75.117554,5.458081],[-75.117721,5.457909],[-75.117926,5.457787],[-75.118079,5.457738]]]},"properties":{"observacion":null,"area_ha":0.1243}},{"type":"Feature","id":54,"geometry":{"type":"Polygon","coordinates":[[[-75.117074,5.442606],[-75.117126,5.442454],[-75.117157,5.442267],[-75.117308,5.442081],[-75.117434,5.441983],[-75.117649,5.441881],[-75.117805,5.441846],[-75.117964,5.441838],[-75.11814,5.441864],[-75.118075,5.442086],[-75.117998,5.442226],[-75.117897,5.44235],[-75.117777,5.442454],[-75.117566,5.442567],[-75.117412,5.44261],[-75.117253,5.442624],[-75.117074,5.442606]]]},"properties":{"observacion":null,"area_ha":0.6373}},{"type":"Feature","id":55,"geometry":{"type":"Polygon","coordinates":[[[-75.1174,5.458824],[-75.117541,5.458609],[-75.117657,5.4585],[-75.117791,5.458412],[-75.118015,5.458328],[-75.118173,5.458307],[-75.118332,5.458313],[-75.118488,5.458348],[-75.118635,5.458409],[-75.11883,5.458547],[-75.118982,5.458732],[-75.119094,5.459006],[-75.118926,5.45925],[-75.118739,5.459398],[-75.118519,5.459492],[-75.118362,5.45952],[-75.118202,5.459521],[-75.117969,5.459469],[-75.117825,5.459401],[-75.117694,5.459309],[-75.117583,5.459195],[-75.117492,5.459063],[-75.1174,5.458824]]]},"properties":{"observacion":null,"area_ha":1.8493}},{"type":"Feature","id":56,"geometry":{"type":"Polygon","coordinates":[[[-75.1174,5.458824],[-75.117541,5.458609],[-75.117657,5.4585],[-75.117791,5.458412],[-75.118015,5.458328],[-75.118173,5.458307],[-75.118332,5.458313],[-75.118488,5.458348],[-75.118635,5.458409],[-75.11883,5.458547],[-75.118982,5.458732],[-75.119094,5.459006],[-75.118926,5.45925],[-75.118739,5.459398],[-75.118519,5.459492],[-75.118362,5.45952],[-75.118202,5.459521],[-75.117969,5.459469],[-75.117825,5.459401],[-75.117694,5.459309],[-75.117583,5.459195],[-75.117492,5.459063],[-75.1174,5.458824]]]},"properties":{"observacion":null,"area_ha":1.8493}},{"type":"Feature","id":57,"geometry":{"type":"Polygon","coordinates":[[[-75.117035,5.442598],[-75.117085,5.44241],[-75.117151,5.442277],[-75.117104,5.442531],[-75.117074,5.442606],[-75.117035,5.442598]]]},"properties":{"observacion":null,"area_ha":0.0172}},{"type":"Feature","id":58,"geometry":{"type":"Polygon","coordinates":[[[-75.117035,5.442598],[-75.117085,5.44241],[-75.117151,5.442277],[-75.117104,5.442531],[-75.117074,5.442606],[-75.117035,5.442598]]]},"properties":{"observacion":null,"area_ha":0.0172}}]}