{"type":"FeatureCollection","features":[{"type":"Feature","id":0,"geometry":{"type":"MultiPolygon","coordinates":[[[[-75.198226,5.381312],[-75.197689,5.381282],[-75.197335,5.381226],[-75.196814,5.38109],[-75.196478,5.380965],[-75.195994,5.380729],[-75.195689,5.38054],[-75.1954,5.380327],[-75.195,5.379967],[-75.194758,5.379701],[-75.194437,5.379269],[-75.194169,5.378801],[-75.194023,5.378473],[-75.193902,5.378134],[-75.193809,5.377787],[-75.193722,5.377255],[-75.1937,5.376896],[-75.193719,5.376357],[-75.193768,5.376001],[-75.193844,5.37565],[-75.194011,5.375137],[-75.194237,5.374648],[-75.194419,5.374338],[-75.194625,5.374044],[-75.194977,5.373636],[-75.195374,5.373273],[-75.195662,5.373058],[-75.195966,5.372867],[-75.196448,5.372627],[-75.196955,5.372447],[-75.197303,5.372361],[-75.197835,5.372284],[-75.198194,5.372268],[-75.198731,5.372299],[-75.199085,5.372354],[-75.199606,5.37249],[-75.199942,5.372615],[-75.200426,5.372851],[-75.200731,5.37304],[-75.20102,5.373253],[-75.20142,5.373613],[-75.201775,5.374018],[-75.201983,5.374311],[-75.202168,5.374619],[-75.202397,5.375107],[-75.202518,5.375446],[-75.202647,5.375969],[-75.202698,5.376325],[-75.202721,5.376864],[-75.20268,5.377401],[-75.202618,5.377755],[-75.202527,5.378103],[-75.202409,5.378443],[-75.202183,5.378932],[-75.202001,5.379242],[-75.201795,5.379536],[-75.201443,5.379944],[-75.201046,5.380307],[-75.200758,5.380522],[-75.200454,5.380713],[-75.199972,5.380953],[-75.199465,5.381133],[-75.199117,5.381219],[-75.198585,5.381296],[-75.198226,5.381312]]],[[[-75.198966,5.425242],[-75.198608,5.425229],[-75.198075,5.425156],[-75.197726,5.425072],[-75.197218,5.424895],[-75.196892,5.424744],[-75.196429,5.42447],[-75.19614,5.424257],[-75.19574,5.423897],[-75.195385,5.423492],[-75.195177,5.423199],[-75.194992,5.422891],[-75.194832,5.422569],[-75.194699,5.422235],[-75.194549,5.421717],[-75.194484,5.421364],[-75.194439,5.420826],[-75.194459,5.420287],[-75.194507,5.419931],[-75.194584,5.41958],[-75.19475,5.419067],[-75.194895,5.418738],[-75.195159,5.418268],[-75.195477,5.417834],[-75.195717,5.417566],[-75.196114,5.417203],[-75.196402,5.416988],[-75.196706,5.416797],[-75.197188,5.416558],[-75.197523,5.41643],[-75.198043,5.416291],[-75.198575,5.416214],[-75.198934,5.416198],[-75.199292,5.416211],[-75.199825,5.416284],[-75.200346,5.41642],[-75.200682,5.416545],[-75.201166,5.416781],[-75.201471,5.41697],[-75.20176,5.417183],[-75.202161,5.417543],[-75.202515,5.417948],[-75.202723,5.418241],[-75.202991,5.418709],[-75.203138,5.419037],[-75.203258,5.419376],[-75.203387,5.419899],[-75.203438,5.420255],[-75.203461,5.420614],[-75.203441,5.421153],[-75.203393,5.421509],[-75.203316,5.42186],[-75.20315,5.422373],[-75.203006,5.422702],[-75.202741,5.423171],[-75.202535,5.423466],[-75.202183,5.423874],[-75.201786,5.424237],[-75.201498,5.424452],[-75.201037,5.424729],[-75.200712,5.424882],[-75.200377,5.42501],[-75.199857,5.425149],[-75.199325,5.425226],[-75.198966,5.425242]]],[[[-75.131266,5.425892],[-75.130729,5.425862],[-75.130374,5.425806],[-75.129854,5.42567],[-75.129517,5.425545],[-75.129192,5.425394],[-75.128728,5.42512],[-75.128439,5.424907],[-75.128039,5.424547],[-75.127685,5.424141],[-75.127476,5.423849],[-75.127291,5.42354],[-75.127062,5.423053],[-75.126942,5.422714],[-75.126849,5.422367],[-75.126784,5.422013],[-75.126739,5.421476],[-75.126759,5.420937],[-75.126807,5.420581],[-75.126932,5.420056],[-75.12705,5.419717],[-75.127276,5.419228],[-75.127459,5.418918],[-75.127777,5.418483],[-75.128017,5.418216],[-75.128277,5.417968],[-75.128702,5.417638],[-75.129164,5.417361],[-75.129488,5.417207],[-75.129995,5.417026],[-75.130343,5.41694],[-75.130876,5.416864],[-75.131234,5.416848],[-75.131771,5.416878],[-75.132126,5.416934],[-75.132646,5.41707],[-75.132983,5.417195],[-75.133466,5.417431],[-75.133771,5.41762],[-75.134061,5.417833],[-75.134461,5.418193],[-75.134703,5.418459],[-75.135024,5.418891],[-75.135208,5.4192],[-75.135368,5.419522],[-75.135502,5.419855],[-75.135651,5.420373],[-75.135738,5.420905],[-75.135761,5.421264],[-75.135741,5.421803],[-75.135693,5.422159],[-75.135616,5.422511],[-75.13545,5.423023],[-75.135224,5.423512],[-75.135041,5.423822],[-75.134835,5.424116],[-75.134483,5.424524],[-75.134086,5.424887],[-75.133798,5.425102],[-75.133336,5.425379],[-75.133012,5.425533],[-75.132505,5.425713],[-75.132157,5.4258],[-75.131624,5.425876],[-75.131266,5.425892]]],[[[-75.228507,5.432462],[-75.22797,5.432431],[-75.227615,5.432376],[-75.227095,5.43224],[-75.226758,5.432115],[-75.226275,5.431879],[-75.225969,5.43169],[-75.225542,5.431363],[-75.22528,5.431117],[-75.224925,5.430712],[-75.224717,5.430419],[-75.224449,5.429951],[-75.224302,5.429623],[-75.224182,5.429285],[-75.224053,5.428761],[-75.223987,5.428226],[-75.223979,5.427867],[-75.223999,5.427508],[-75.224082,5.426975],[-75.224228,5.426456],[-75.224359,5.426122],[-75.224516,5.425798],[-75.224799,5.42534],[-75.225134,5.424918],[-75.225384,5.42466],[-75.225796,5.424313],[-75.226092,5.42411],[-75.226564,5.423851],[-75.226894,5.423711],[-75.227234,5.423597],[-75.227759,5.423478],[-75.228115,5.423434],[-75.228473,5.423418],[-75.229011,5.423449],[-75.229365,5.423504],[-75.229885,5.42364],[-75.230222,5.423765],[-75.230705,5.424001],[-75.231011,5.42419],[-75.231438,5.424517],[-75.2317,5.424763],[-75.231942,5.425028],[-75.232263,5.425461],[-75.232531,5.425929],[-75.232677,5.426257],[-75.232798,5.426595],[-75.232927,5.427119],[-75.232978,5.427475],[-75.233001,5.428013],[-75.232981,5.428372],[-75.232898,5.428905],[-75.232752,5.429424],[-75.232621,5.429758],[-75.232464,5.430082],[-75.232181,5.43054],[-75.231846,5.430962],[-75.231596,5.43122],[-75.231326,5.431457],[-75.230888,5.43177],[-75.230416,5.432029],[-75.230086,5.432169],[-75.229746,5.432283],[-75.229221,5.432402],[-75.228865,5.432446],[-75.228507,5.432462]]],[[[-75.116211,5.463262],[-75.115961,5.46352],[-75.115691,5.463758],[-75.115403,5.463974],[-75.115098,5.464165],[-75.114615,5.464406],[-75.114279,5.464534],[-75.113934,5.464634],[-75.113404,5.464733],[-75.113045,5.464763],[-75.112695,5.464764],[-75.112015,5.464689],[-75.111355,5.464512],[-75.111054,5.464956],[-75.110825,5.465231],[-75.110575,5.465487],[-75.110163,5.465832],[-75.109714,5.466125],[-75.109397,5.46629],[-75.1089,5.466489],[-75.108556,5.466589],[-75.108029,5.466686],[-75.107673,5.466715],[-75.107325,5.466717],[-75.10682,5.466671],[-75.106324,5.466569],[-75.105842,5.466412],[-75.105381,5.466201],[-75.105088,5.466033],[-75.104615,5.466293],[-75.104284,5.466434],[-75.103942,5.466548],[-75.103416,5.466668],[-75.103059,5.466712],[-75.102535,5.466725],[-75.102206,5.466702],[-75.101718,5.466623],[-75.101552,5.467137],[-75.101408,5.467466],[-75.101238,5.467784],[-75.100938,5.468232],[-75.100708,5.468509],[-75.100458,5.468767],[-75.100046,5.469115],[-75.099596,5.469411],[-75.099277,5.469578],[-75.098947,5.469719],[-75.098433,5.469879],[-75.098081,5.469952],[-75.097724,5.469996],[-75.097185,5.470008],[-75.096647,5.469956],[-75.096118,5.46984],[-75.095608,5.469661],[-75.095122,5.469422],[-75.094669,5.469127],[-75.094254,5.46878],[-75.094002,5.468521],[-75.093771,5.468244],[-75.093468,5.467795],[-75.09322,5.467313],[-75.093088,5.466977],[-75.092983,5.466631],[-75.092878,5.466099],[-75.092837,5.465559],[-75.092861,5.465018],[-75.092913,5.46466],[-75.092608,5.46422],[-75.092357,5.463747],[-75.092164,5.463247],[-75.092069,5.462903],[-75.092001,5.462552],[-75.091951,5.462018],[-75.091953,5.461661],[-75.092009,5.461128],[-75.092081,5.460778],[-75.09218,5.460435],[-75.092306,5.4601],[-75.092544,5.45962],[-75.092733,5.459317],[-75.09306,5.458893],[-75.093304,5.458633],[-75.093569,5.458393],[-75.093852,5.458175],[-75.09415,5.45798],[-75.094464,5.45781],[-75.094956,5.457601],[-75.095297,5.457496],[-75.095821,5.457389],[-75.096176,5.457352],[-75.096532,5.457344],[-75.096889,5.457363],[-75.096706,5.457054],[-75.09648,5.456566],[-75.096312,5.456055],[-75.096207,5.455527],[-75.095707,5.455324],[-75.095234,5.455063],[-75.094796,5.454747],[-75.094398,5.454381],[-75.094047,5.453971],[-75.093748,5.45352],[-75.093504,5.453038],[-75.093319,5.452529],[-75.093197,5.452003],[-75.09315,5.451645],[-75.093132,5.451284],[-75.093143,5.450924],[-75.093213,5.450387],[-75.093295,5.450036],[-75.093405,5.449693],[-75.093541,5.449359],[-75.093704,5.449037],[-75.093995,5.448581],[-75.094218,5.448298],[-75.094463,5.448034],[-75.094728,5.44779],[-75.095012,5.447568],[-75.095312,5.447369],[-75.095628,5.447195],[-75.095092,5.447135],[-75.094568,5.447011],[-75.094062,5.446825],[-75.093582,5.44658],[-75.093134,5.446279],[-75.092726,5.445927],[-75.092362,5.445529],[-75.092048,5.44509],[-75.091788,5.444617],[-75.091587,5.444116],[-75.091447,5.443595],[-75.091388,5.44324],[-75.091358,5.442881],[-75.091366,5.442341],[-75.091438,5.441806],[-75.091574,5.441283],[-75.09177,5.440781],[-75.091934,5.44046],[-75.092123,5.440154],[-75.09245,5.439725],[-75.092695,5.439462],[-75.092961,5.439219],[-75.093245,5.438998],[-75.093545,5.438801],[-75.094023,5.438552],[-75.094357,5.438418],[-75.0947,5.438311],[-75.09505,5.438232],[-75.095406,5.438181],[-75.095765,5.438159],[-75.096124,5.438165],[-75.096482,5.4382],[-75.09701,5.438305],[-75.097522,5.438473],[-75.097851,5.438619],[-75.09832,5.438885],[-75.098754,5.439205],[-75.09902,5.439446],[-75.099382,5.439846],[-75.099596,5.440135],[-75.099872,5.440599],[-75.100091,5.441093],[-75.100204,5.441434],[-75.100321,5.441961],[-75.100374,5.442499],[-75.100374,5.442859],[-75.100321,5.443396],[-75.100653,5.442947],[-75.100892,5.442678],[-75.101152,5.442429],[-75.10143,5.442201],[-75.101726,5.441996],[-75.102037,5.441816],[-75.102529,5.441593],[-75.102869,5.441478],[-75.103218,5.44139],[-75.103752,5.441312],[-75.104111,5.441295],[-75.10447,5.441307],[-75.105005,5.441379],[-75.105355,5.441462],[-75.105864,5.441638],[-75.106191,5.441789],[-75.106504,5.441965],[-75.106803,5.442166],[-75.107218,5.44251],[-75.107471,5.442767],[-75.107703,5.443042],[-75.108008,5.443488],[-75.108181,5.443804],[-75.108391,5.444301],[-75.108541,5.44482],[-75.108629,5.445353],[-75.108652,5.445893],[-75.10861,5.446432],[-75.108505,5.446962],[-75.108338,5.447475],[-75.108111,5.447965],[-75.107827,5.448425],[-75.108392,5.448749],[-75.108905,5.449151],[-75.109121,5.448869],[-75.109358,5.448604],[-75.109615,5.448359],[-75.109891,5.448134],[-75.110183,5.447933],[-75.110491,5.447754],[-75.110811,5.447601],[-75.111143,5.447473],[-75.110994,5.446967],[-75.110928,5.446622],[-75.110889,5.446272],[-75.110689,5.445803],[-75.110506,5.445149],[-75.110435,5.444644],[-75.110421,5.444135],[-75.110206,5.443845],[-75.110015,5.44354],[-75.109849,5.44322],[-75.109649,5.442717],[-75.109549,5.44237],[-75.109477,5.442017],[-75.109434,5.441659],[-75.109419,5.441298],[-75.109433,5.440938],[-75.109508,5.440402],[-75.109645,5.439879],[-75.109845,5.439376],[-75.110102,5.4389],[-75.110305,5.438602],[-75.110652,5.438187],[-75.111045,5.437817],[-75.111331,5.437598],[-75.11179,5.437313],[-75.112113,5.437154],[-75.112619,5.436966],[-75.113145,5.43684],[-75.113501,5.436792],[-75.114041,5.436773],[-75.114579,5.436818],[-75.114767,5.436509],[-75.115093,5.436077],[-75.115468,5.435687],[-75.115743,5.435454],[-75.116036,5.435243],[-75.116504,5.434972],[-75.116833,5.434823],[-75.117346,5.434651],[-75.117875,5.434541],[-75.118234,5.434504],[-75.118774,5.434502],[-75.119133,5.434536],[-75.119664,5.434642],[-75.120009,5.434747],[-75.120344,5.43488],[-75.120668,5.435039],[-75.121018,5.434673],[-75.121407,5.434348],[-75.121631,5.43407],[-75.122006,5.433688],[-75.122423,5.433354],[-75.122722,5.433159],[-75.123035,5.432989],[-75.123528,5.432781],[-75.123869,5.432676],[-75.124392,5.432569],[-75.124747,5.432533],[-75.125103,5.432525],[-75.125459,5.432545],[-75.125987,5.432628],[-75.12627,5.432166],[-75.126489,5.431879],[-75.126729,5.43161],[-75.126991,5.431361],[-75.127417,5.431029],[-75.127723,5.430837],[-75.128042,5.43067],[-75.128544,5.430469],[-75.12889,5.430369],[-75.129244,5.430297],[-75.129781,5.430243],[-75.130141,5.430242],[-75.130679,5.430296],[-75.131033,5.430367],[-75.131379,5.430467],[-75.131881,5.430667],[-75.132356,5.430926],[-75.132796,5.431239],[-75.133196,5.431604],[-75.13355,5.432013],[-75.133757,5.432309],[-75.13394,5.43262],[-75.134167,5.433111],[-75.134334,5.433626],[-75.134438,5.434158],[-75.134478,5.434698],[-75.134453,5.435239],[-75.134364,5.435773],[-75.134211,5.436293],[-75.134076,5.436627],[-75.133914,5.43695],[-75.133625,5.437407],[-75.133402,5.437691],[-75.133156,5.43817],[-75.132962,5.438472],[-75.132744,5.438757],[-75.132504,5.439024],[-75.132244,5.43927],[-75.131965,5.439496],[-75.131515,5.439791],[-75.131197,5.439956],[-75.130868,5.440097],[-75.130528,5.44021],[-75.13018,5.440296],[-75.129826,5.440354],[-75.129469,5.440384],[-75.128821,5.440365],[-75.128203,5.440259],[-75.127717,5.440677],[-75.12738,5.44108],[-75.126998,5.441441],[-75.126577,5.441756],[-75.126123,5.442019],[-75.126047,5.442371],[-75.125944,5.442716],[-75.125738,5.443216],[-75.125568,5.443534],[-75.125268,5.443982],[-75.125039,5.44426],[-75.124788,5.444519],[-75.124518,5.444757],[-75.12423,5.444972],[-75.123768,5.445251],[-75.123276,5.445472],[-75.122935,5.445586],[-75.12241,5.445705],[-75.122053,5.44575],[-75.121693,5.445765],[-75.121295,5.445749],[-75.120937,5.446109],[-75.120677,5.446325],[-75.120258,5.446612],[-75.11981,5.44685],[-75.119728,5.447185],[-75.119558,5.447673],[-75.119334,5.448139],[-75.119156,5.448434],[-75.118734,5.448979],[-75.118367,5.449342],[-75.1181,5.449559],[-75.118435,5.449689],[-75.118759,5.449846],[-75.119069,5.450028],[-75.119505,5.450345],[-75.1199,5.450713],[-75.120138,5.450983],[-75.120353,5.451271],[-75.120546,5.451576],[-75.120713,5.451894],[-75.120854,5.452226],[-75.121016,5.452741],[-75.121089,5.453094],[-75.121146,5.453631],[-75.121148,5.453991],[-75.121122,5.45435],[-75.121029,5.454882],[-75.121207,5.455179],[-75.121596,5.455554],[-75.12183,5.455829],[-75.12204,5.456121],[-75.122311,5.456589],[-75.12246,5.456918],[-75.122582,5.457257],[-75.122676,5.457606],[-75.122743,5.45796],[-75.122781,5.458319],[-75.122791,5.458679],[-75.122696,5.459748],[-75.122641,5.460096],[-75.122558,5.460438],[-75.12245,5.460773],[-75.122316,5.461099],[-75.122157,5.461413],[-75.121973,5.461714],[-75.121768,5.461999],[-75.12154,5.462268],[-75.121293,5.462518],[-75.121026,5.462748],[-75.121347,5.462902],[-75.121655,5.46308],[-75.122088,5.463393],[-75.122482,5.463754],[-75.122719,5.46402],[-75.122934,5.464303],[-75.123127,5.464603],[-75.123295,5.464917],[-75.123439,5.465244],[-75.123556,5.46558],[-75.123681,5.4661],[-75.12373,5.466453],[-75.123752,5.466809],[-75.123731,5.467343],[-75.123647,5.467871],[-75.123557,5.468216],[-75.12344,5.468553],[-75.123216,5.469038],[-75.122936,5.469494],[-75.122605,5.469913],[-75.122358,5.470169],[-75.122091,5.470405],[-75.121658,5.470718],[-75.121462,5.471207],[-75.121301,5.471519],[-75.121116,5.471817],[-75.120908,5.4721],[-75.120556,5.472492],[-75.120298,5.472729],[-75.120022,5.472946],[-75.11973,5.473141],[-75.119265,5.473388],[-75.118941,5.473523],[-75.118608,5.473631],[-75.118267,5.473714],[-75.117746,5.473787],[-75.117396,5.473802],[-75.117038,5.473789],[-75.116506,5.473716],[-75.116158,5.473633],[-75.115651,5.473457],[-75.115168,5.473221],[-75.114863,5.473033],[-75.114574,5.472821],[-75.114174,5.472462],[-75.11382,5.472058],[-75.113611,5.471766],[-75.113343,5.4713],[-75.113196,5.470973],[-75.113075,5.470635],[-75.112945,5.470113],[-75.112893,5.469758],[-75.112869,5.4694],[-75.112874,5.469042],[-75.112907,5.468684],[-75.112968,5.468331],[-75.113057,5.467983],[-75.113173,5.467644],[-75.113316,5.467315],[-75.113484,5.466998],[-75.113677,5.466696],[-75.11401,5.466273],[-75.114258,5.466015],[-75.114526,5.465777],[-75.114962,5.465462],[-75.115231,5.464825],[-75.115495,5.464377],[-75.115923,5.463834],[-75.116429,5.463362],[-75.116211,5.463262]],[[-75.098628,5.446255],[-75.098341,5.446461],[-75.097882,5.446725],[-75.098573,5.446815],[-75.098628,5.446255]]],[[[-75.237017,5.465789],[-75.237377,5.465811],[-75.237911,5.465896],[-75.238431,5.466046],[-75.238766,5.46618],[-75.239246,5.466429],[-75.239548,5.466627],[-75.239833,5.466849],[-75.240226,5.467222],[-75.240571,5.467639],[-75.240772,5.467939],[-75.241028,5.468417],[-75.241165,5.468751],[-75.241276,5.469095],[-75.241359,5.469446],[-75.241414,5.469804],[-75.241442,5.470345],[-75.241425,5.470706],[-75.241345,5.471242],[-75.241257,5.471593],[-75.241073,5.472102],[-75.240916,5.472428],[-75.240635,5.472891],[-75.2403,5.473317],[-75.24005,5.473577],[-75.239779,5.473816],[-75.23934,5.474133],[-75.239028,5.474313],[-75.238535,5.474536],[-75.238193,5.474651],[-75.237665,5.474771],[-75.237307,5.474816],[-75.236768,5.474829],[-75.236413,5.474802],[-75.235885,5.474709],[-75.235542,5.474612],[-75.235043,5.474417],[-75.234571,5.474165],[-75.234274,5.473966],[-75.233861,5.473625],[-75.233609,5.473372],[-75.233378,5.473099],[-75.23317,5.472809],[-75.232901,5.472345],[-75.232753,5.47202],[-75.232631,5.471683],[-75.232499,5.471164],[-75.232445,5.47081],[-75.23242,5.470453],[-75.232435,5.469917],[-75.232513,5.469387],[-75.2326,5.46904],[-75.232713,5.468701],[-75.232176,5.468658],[-75.231648,5.468552],[-75.231136,5.468383],[-75.230648,5.468155],[-75.230191,5.467869],[-75.229771,5.467531],[-75.229394,5.467146],[-75.229066,5.466718],[-75.22879,5.466254],[-75.228572,5.46576],[-75.228415,5.465244],[-75.228319,5.464713],[-75.228288,5.464174],[-75.228321,5.463635],[-75.228418,5.463104],[-75.228577,5.462588],[-75.228796,5.462095],[-75.228974,5.461783],[-75.229287,5.461343],[-75.229523,5.461072],[-75.22978,5.46082],[-75.230201,5.460484],[-75.230503,5.460288],[-75.230982,5.460042],[-75.231317,5.45991],[-75.231835,5.459763],[-75.232367,5.459679],[-75.232726,5.459659],[-75.233264,5.459682],[-75.23362,5.459734],[-75.234142,5.459863],[-75.234481,5.459984],[-75.234809,5.460131],[-75.235276,5.4604],[-75.235568,5.460609],[-75.235973,5.460965],[-75.236218,5.461228],[-75.236545,5.461658],[-75.236818,5.462123],[-75.236969,5.46245],[-75.237093,5.462788],[-75.237228,5.46331],[-75.237283,5.463666],[-75.237312,5.464205],[-75.237296,5.464565],[-75.237218,5.465099],[-75.237131,5.465448],[-75.237017,5.465789]]]]},"properties":{"area_ha":1663.0031}}]}