{"type":"FeatureCollection","features":[{"type":"Feature","id":0,"geometry":{"type":"Polygon","coordinates":[[[-75.125028,5.43795],[-75.124869,5.437936],[-75.124715,5.437894],[-75.124504,5.437782],[-75.124383,5.437679],[-75.124282,5.437555],[-75.124204,5.437415],[-75.124136,5.437186],[-75.124126,5.437026],[-75.124143,5.436867],[-75.124188,5.436714],[-75.12426,5.436571],[-75.124411,5.436386],[-75.124537,5.436287],[-75.124678,5.436213],[-75.124908,5.43615],[-75.125068,5.436143],[-75.125226,5.436164],[-75.125378,5.436213],[-75.125584,5.436334],[-75.1257,5.436443],[-75.125795,5.436571],[-75.125867,5.436714],[-75.125912,5.436867],[-75.12593,5.437026],[-75.125919,5.437186],[-75.125851,5.437415],[-75.125774,5.437555],[-75.125673,5.437678],[-75.125552,5.437782],[-75.12534,5.437894],[-75.125187,5.437936],[-75.125028,5.43795]]]},"properties":{"area_ha":3.1368}},{"type":"Feature","id":1,"geometry":{"type":"Polygon","coordinates":[[[-75.11625,5.44314],[-75.116091,5.443126],[-75.115938,5.443084],[-75.115793,5.443016],[-75.115605,5.442868],[-75.115504,5.442745],[-75.115427,5.442605],[-75.115375,5.442454],[-75.115348,5.442216],[-75.115366,5.442057],[-75.115411,5.441904],[-75.115483,5.441761],[-75.115634,5.441576],[-75.115759,5.441477],[-75.1159,5.441402],[-75.116131,5.44134],[-75.11629,5.441332],[-75.116448,5.441354],[-75.1166,5.441402],[-75.116806,5.441524],[-75.116923,5.441633],[-75.117018,5.441761],[-75.11709,5.441904],[-75.117135,5.442057],[-75.117153,5.442216],[-75.117142,5.442375],[-75.117074,5.442605],[-75.116996,5.442745],[-75.116895,5.442868],[-75.116774,5.442972],[-75.116563,5.443084],[-75.116409,5.443126],[-75.11625,5.44314]]]},"properties":{"area_ha":3.1368}},{"type":"Feature","id":2,"geometry":{"type":"Polygon","coordinates":[[[-75.113931,5.442198],[-75.113694,5.442166],[-75.113545,5.44211],[-75.113407,5.442029],[-75.113286,5.441925],[-75.113185,5.441802],[-75.113107,5.441662],[-75.113056,5.441511],[-75.113029,5.441273],[-75.113047,5.441114],[-75.113092,5.440961],[-75.113163,5.440818],[-75.113315,5.440633],[-75.113509,5.440494],[-75.113656,5.440432],[-75.113812,5.440397],[-75.113971,5.44039],[-75.114129,5.440411],[-75.114281,5.44046],[-75.114422,5.440534],[-75.114604,5.44069],[-75.114699,5.440818],[-75.114771,5.440961],[-75.114816,5.441114],[-75.114832,5.441353],[-75.114807,5.441511],[-75.114755,5.441662],[-75.114677,5.441802],[-75.114576,5.441926],[-75.114455,5.442029],[-75.114318,5.44211],[-75.114168,5.442166],[-75.113931,5.442198]]]},"properties":{"area_ha":3.1367}},{"type":"Feature","id":3,"geometry":{"type":"Polygon","coordinates":[[[-75.115108,5.444896],[-75.114871,5.444864],[-75.114721,5.444808],[-75.114584,5.444727],[-75.114463,5.444624],[-75.114362,5.4445],[-75.114284,5.44436],[-75.114232,5.444209],[-75.114205,5.443971],[-75.114223,5.443812],[-75.114268,5.443659],[-75.11434,5.443516],[-75.114491,5.443331],[-75.114686,5.443192],[-75.114833,5.44313],[-75.114988,5.443095],[-75.115148,5.443088],[-75.115306,5.443109],[-75.115458,5.443158],[-75.115599,5.443232],[-75.115724,5.443331],[-75.115876,5.443516],[-75.115947,5.443659],[-75.115992,5.443812],[-75.11601,5.443971],[-75.115999,5.444131],[-75.115932,5.44436],[-75.115854,5.4445],[-75.115753,5.444624],[-75.115632,5.444728],[-75.11542,5.444839],[-75.115267,5.444881],[-75.115108,5.444896]]]},"properties":{"area_ha":3.1367}},{"type":"Feature","id":4,"geometry":{"type":"Polygon","coordinates":[[[-75.095866,5.443584],[-75.095707,5.44357],[-75.095553,5.443528],[-75.095342,5.443416],[-75.09522,5.443312],[-75.095119,5.443188],[-75.095042,5.443049],[-75.094974,5.442819],[-75.094964,5.442659],[-75.095,5.442423],[-75.095059,5.442274],[-75.095143,5.442138],[-75.095249,5.442019],[-75.095375,5.441921],[-75.095516,5.441846],[-75.095746,5.441783],[-75.095906,5.441776],[-75.096064,5.441797],[-75.096215,5.441846],[-75.096422,5.441967],[-75.096538,5.442076],[-75.096672,5.442274],[-75.096731,5.442423],[-75.096762,5.44258],[-75.096766,5.442739],[-75.096741,5.442897],[-75.096689,5.443049],[-75.096612,5.443188],[-75.096452,5.443366],[-75.096322,5.443459],[-75.096178,5.443528],[-75.096024,5.44357],[-75.095866,5.443584]]]},"properties":{"area_ha":3.1366}},{"type":"Feature","id":5,"geometry":{"type":"Polygon","coordinates":[[[-75.117257,5.458269],[-75.117098,5.458255],[-75.116871,5.458182],[-75.116733,5.458101],[-75.116612,5.457997],[-75.116511,5.457874],[-75.116433,5.457734],[-75.116381,5.457583],[-75.116355,5.457345],[-75.116392,5.457108],[-75.11645,5.45696],[-75.116534,5.456824],[-75.11664,5.456705],[-75.116835,5.456566],[-75.116982,5.456504],[-75.117138,5.456469],[-75.117297,5.456462],[-75.117455,5.456483],[-75.117607,5.456531],[-75.117748,5.456606],[-75.117874,5.456705],[-75.11798,5.456824],[-75.118064,5.45696],[-75.118122,5.457109],[-75.118159,5.457345],[-75.118133,5.457583],[-75.118081,5.457734],[-75.118003,5.457874],[-75.117902,5.457997],[-75.117781,5.458101],[-75.117643,5.458182],[-75.117416,5.458255],[-75.117257,5.458269]]]},"properties":{"area_ha":3.1367}},{"type":"Feature","id":6,"geometry":{"type":"Polygon","coordinates":[[[-75.114711,5.459477],[-75.114552,5.459463],[-75.114325,5.45939],[-75.114187,5.459309],[-75.114066,5.459205],[-75.113965,5.459082],[-75.113887,5.458942],[-75.113835,5.458791],[-75.113809,5.458553],[-75.113826,5.458394],[-75.113904,5.458168],[-75.113988,5.458032],[-75.114094,5.457913],[-75.114289,5.457774],[-75.114436,5.457712],[-75.114592,5.457677],[-75.114751,5.45767],[-75.114909,5.457691],[-75.115061,5.457739],[-75.115202,5.457814],[-75.115328,5.457913],[-75.115434,5.458032],[-75.115518,5.458168],[-75.115596,5.458394],[-75.115613,5.458553],[-75.115587,5.458791],[-75.115535,5.458942],[-75.115457,5.459082],[-75.115356,5.459205],[-75.115235,5.459309],[-75.115097,5.45939],[-75.11487,5.459463],[-75.114711,5.459477]]]},"properties":{"area_ha":3.1367}},{"type":"Feature","id":7,"geometry":{"type":"Polygon","coordinates":[[[-75.129274,5.43677],[-75.129115,5.436756],[-75.128888,5.436683],[-75.12875,5.436602],[-75.128629,5.436498],[-75.128528,5.436375],[-75.12845,5.436235],[-75.128398,5.436084],[-75.128372,5.435846],[-75.128409,5.435609],[-75.128467,5.435461],[-75.128551,5.435325],[-75.128658,5.435206],[-75.128852,5.435067],[-75.128999,5.435005],[-75.129155,5.43497],[-75.129314,5.434963],[-75.129549,5.435005],[-75.129696,5.435067],[-75.12983,5.435154],[-75.129946,5.435263],[-75.130081,5.435461],[-75.130139,5.435609],[-75.130171,5.435766],[-75.130174,5.435926],[-75.13015,5.436084],[-75.130098,5.436235],[-75.13002,5.436375],[-75.129861,5.436553],[-75.129731,5.436646],[-75.129587,5.436714],[-75.129433,5.436756],[-75.129274,5.43677]]]},"properties":{"area_ha":3.1368}},{"type":"Feature","id":8,"geometry":{"type":"Polygon","coordinates":[[[-75.124096,5.438883],[-75.123937,5.438869],[-75.12371,5.438796],[-75.123572,5.438715],[-75.123451,5.438611],[-75.12335,5.438488],[-75.123272,5.438348],[-75.123204,5.438118],[-75.123194,5.437959],[-75.123231,5.437723],[-75.123289,5.437574],[-75.123373,5.437438],[-75.12348,5.437319],[-75.123674,5.43718],[-75.123821,5.437118],[-75.123977,5.437083],[-75.124136,5.437076],[-75.124371,5.437118],[-75.124518,5.43718],[-75.124652,5.437267],[-75.124768,5.437376],[-75.124903,5.437574],[-75.124961,5.437722],[-75.124993,5.437879],[-75.124996,5.438039],[-75.124972,5.438197],[-75.12492,5.438348],[-75.124842,5.438488],[-75.124683,5.438666],[-75.124553,5.438759],[-75.124409,5.438827],[-75.124255,5.438869],[-75.124096,5.438883]]]},"properties":{"area_ha":3.1368}},{"type":"Feature","id":9,"geometry":{"type":"Polygon","coordinates":[[[-75.118522,5.439921],[-75.118363,5.439907],[-75.118135,5.439834],[-75.117998,5.439753],[-75.117877,5.439649],[-75.117776,5.439525],[-75.117698,5.439385],[-75.117646,5.439234],[-75.11762,5.438996],[-75.117657,5.43876],[-75.117715,5.438611],[-75.117799,5.438475],[-75.117905,5.438356],[-75.1181,5.438217],[-75.118247,5.438155],[-75.118402,5.43812],[-75.118562,5.438113],[-75.11872,5.438134],[-75.118872,5.438183],[-75.119013,5.438258],[-75.119138,5.438356],[-75.119245,5.438475],[-75.119329,5.438611],[-75.119387,5.43876],[-75.119424,5.438996],[-75.119413,5.439156],[-75.119346,5.439385],[-75.119268,5.439525],[-75.119167,5.439649],[-75.119046,5.439753],[-75.118835,5.439865],[-75.118681,5.439907],[-75.118522,5.439921]]]},"properties":{"area_ha":3.1367}},{"type":"Feature","id":10,"geometry":{"type":"Polygon","coordinates":[[[-75.114932,5.445169],[-75.114773,5.445155],[-75.114545,5.445082],[-75.114408,5.445001],[-75.114287,5.444897],[-75.114186,5.444773],[-75.114108,5.444633],[-75.11404,5.444404],[-75.11403,5.444244],[-75.114047,5.444085],[-75.114092,5.443932],[-75.114209,5.443723],[-75.114315,5.443604],[-75.11451,5.443465],[-75.114657,5.443403],[-75.114812,5.443368],[-75.114972,5.443361],[-75.11513,5.443382],[-75.115354,5.443465],[-75.115488,5.443552],[-75.115604,5.443661],[-75.1157,5.443789],[-75.115771,5.443932],[-75.115816,5.444085],[-75.115832,5.444324],[-75.115808,5.444482],[-75.11572,5.444705],[-75.11563,5.444837],[-75.115518,5.444951],[-75.115389,5.445044],[-75.115245,5.445112],[-75.115091,5.445154],[-75.114932,5.445169]]]},"properties":{"area_ha":3.1367}},{"type":"Feature","id":11,"geometry":{"type":"Polygon","coordinates":[[[-75.116638,5.454742],[-75.116479,5.454728],[-75.116252,5.454655],[-75.116114,5.454574],[-75.115993,5.45447],[-75.11585,5.454278],[-75.115785,5.454132],[-75.115747,5.453977],[-75.115736,5.453818],[-75.115754,5.453659],[-75.115832,5.453432],[-75.115915,5.453296],[-75.116022,5.453177],[-75.116216,5.453038],[-75.116363,5.452976],[-75.116519,5.452941],[-75.116678,5.452934],[-75.116836,5.452955],[-75.11706,5.453038],[-75.117194,5.453125],[-75.117311,5.453234],[-75.117445,5.453432],[-75.117504,5.453581],[-75.117535,5.453738],[-75.117539,5.453897],[-75.117514,5.454055],[-75.117426,5.454278],[-75.117337,5.45441],[-75.117225,5.454525],[-75.117095,5.454617],[-75.116951,5.454686],[-75.116797,5.454728],[-75.116638,5.454742]]]},"properties":{"area_ha":3.1367}},{"type":"Feature","id":12,"geometry":{"type":"Polygon","coordinates":[[[-75.117924,5.443646],[-75.117766,5.443632],[-75.117538,5.443559],[-75.117401,5.443478],[-75.117279,5.443374],[-75.117178,5.44325],[-75.117101,5.443111],[-75.117033,5.442881],[-75.117022,5.442722],[-75.11704,5.442563],[-75.117118,5.442337],[-75.117201,5.442201],[-75.117308,5.442081],[-75.117434,5.441983],[-75.117649,5.441881],[-75.117805,5.441846],[-75.117964,5.441838],[-75.118122,5.44186],[-75.118274,5.441908],[-75.118415,5.441983],[-75.118541,5.442081],[-75.118647,5.442201],[-75.118731,5.442337],[-75.118809,5.442563],[-75.118827,5.442722],[-75.118816,5.442881],[-75.118778,5.443036],[-75.118713,5.443182],[-75.11857,5.443374],[-75.118448,5.443478],[-75.118311,5.443559],[-75.118083,5.443632],[-75.117924,5.443646]]]},"properties":{"area_ha":3.1367}}]}