{"type":"FeatureCollection","features":[{"type":"Feature","id":0,"geometry":{"type":"MultiPolygon","coordinates":[[[[-75.19822,5.379503],[-75.197941,5.37949],[-75.197666,5.379448],[-75.197264,5.379332],[-75.197008,5.379221],[-75.196765,5.379084],[-75.196538,5.378923],[-75.196328,5.37874],[-75.196138,5.378535],[-75.19597,5.378313],[-75.195825,5.378074],[-75.195706,5.377821],[-75.195614,5.377558],[-75.195549,5.377286],[-75.195512,5.377009],[-75.195504,5.37673],[-75.195524,5.376451],[-75.195573,5.376176],[-75.195699,5.375777],[-75.195816,5.375523],[-75.195959,5.375284],[-75.196125,5.37506],[-75.196314,5.374854],[-75.196522,5.374669],[-75.196749,5.374506],[-75.196991,5.374368],[-75.197246,5.374255],[-75.197647,5.374136],[-75.197922,5.374092],[-75.1982,5.374077],[-75.198479,5.37409],[-75.198754,5.374132],[-75.199156,5.374248],[-75.199411,5.374359],[-75.199655,5.374496],[-75.199882,5.374657],[-75.200092,5.37484],[-75.200282,5.375045],[-75.20045,5.375267],[-75.200595,5.375506],[-75.200714,5.375759],[-75.200842,5.376157],[-75.200893,5.376432],[-75.200916,5.37671],[-75.20091,5.37699],[-75.200875,5.377267],[-75.200812,5.377539],[-75.200721,5.377803],[-75.200604,5.378056],[-75.200461,5.378296],[-75.200295,5.37852],[-75.200106,5.378726],[-75.199898,5.378911],[-75.199671,5.379074],[-75.199429,5.379212],[-75.199174,5.379325],[-75.198773,5.379444],[-75.198498,5.379488],[-75.19822,5.379503]]],[[[-75.19896,5.423433],[-75.198681,5.42342],[-75.198406,5.423378],[-75.198004,5.423262],[-75.197748,5.423151],[-75.197505,5.423015],[-75.197278,5.422853],[-75.197068,5.42267],[-75.196877,5.422465],[-75.196709,5.422243],[-75.196565,5.422004],[-75.196446,5.421751],[-75.196354,5.421488],[-75.196288,5.421216],[-75.196244,5.4208],[-75.19625,5.42052],[-75.196285,5.420243],[-75.196348,5.419971],[-75.196439,5.419707],[-75.196556,5.419454],[-75.196698,5.419214],[-75.196865,5.41899],[-75.197053,5.418784],[-75.197373,5.418514],[-75.197608,5.418364],[-75.197857,5.418238],[-75.198117,5.418139],[-75.198387,5.418066],[-75.198662,5.418022],[-75.19894,5.418007],[-75.199219,5.41802],[-75.199494,5.418062],[-75.199896,5.418178],[-75.200152,5.418289],[-75.200395,5.418425],[-75.200622,5.418587],[-75.200832,5.41877],[-75.201022,5.418974],[-75.201191,5.419197],[-75.201335,5.419436],[-75.201454,5.419689],[-75.201547,5.419952],[-75.201611,5.420224],[-75.201656,5.42064],[-75.20165,5.42092],[-75.201615,5.421197],[-75.201552,5.421469],[-75.201461,5.421733],[-75.201344,5.421986],[-75.201201,5.422226],[-75.201035,5.42245],[-75.200846,5.422656],[-75.200527,5.422925],[-75.200292,5.423076],[-75.200043,5.423202],[-75.199783,5.423301],[-75.199513,5.423374],[-75.199238,5.423418],[-75.19896,5.423433]]],[[[-75.131259,5.424083],[-75.130981,5.42407],[-75.130706,5.424028],[-75.130436,5.423957],[-75.130175,5.42386],[-75.129925,5.423736],[-75.129689,5.423587],[-75.12947,5.423414],[-75.12927,5.42322],[-75.12909,5.423006],[-75.128934,5.422775],[-75.128802,5.422529],[-75.128696,5.42227],[-75.128588,5.421866],[-75.128552,5.421589],[-75.128543,5.42131],[-75.128564,5.421031],[-75.128613,5.420756],[-75.128739,5.420357],[-75.128856,5.420103],[-75.128998,5.419863],[-75.129165,5.419639],[-75.129354,5.419434],[-75.129562,5.419248],[-75.129789,5.419086],[-75.130031,5.418947],[-75.130286,5.418835],[-75.130551,5.418749],[-75.130824,5.418691],[-75.131241,5.418657],[-75.131657,5.418688],[-75.13193,5.418744],[-75.132196,5.418828],[-75.132452,5.418939],[-75.132695,5.419076],[-75.132923,5.419237],[-75.133133,5.41942],[-75.133323,5.419625],[-75.133491,5.419847],[-75.133635,5.420086],[-75.133754,5.420339],[-75.133847,5.420603],[-75.133912,5.420874],[-75.133948,5.421151],[-75.133957,5.42143],[-75.133936,5.421709],[-75.133887,5.421984],[-75.133761,5.422383],[-75.133644,5.422637],[-75.133501,5.422877],[-75.133335,5.423101],[-75.133146,5.423306],[-75.132826,5.423576],[-75.132592,5.423726],[-75.132343,5.423852],[-75.132082,5.423952],[-75.131813,5.424024],[-75.131538,5.424068],[-75.131259,5.424083]]],[[[-75.2285,5.430653],[-75.228083,5.430622],[-75.22781,5.430566],[-75.227544,5.430482],[-75.227289,5.430371],[-75.227046,5.430235],[-75.226818,5.430073],[-75.226608,5.42989],[-75.226418,5.429686],[-75.226249,5.429463],[-75.226105,5.429224],[-75.225986,5.428971],[-75.225893,5.428708],[-75.225829,5.428436],[-75.225784,5.42802],[-75.225804,5.427602],[-75.225853,5.427327],[-75.22593,5.427058],[-75.226034,5.426799],[-75.226164,5.426552],[-75.226319,5.42632],[-75.226496,5.426104],[-75.226695,5.425909],[-75.226913,5.425735],[-75.227148,5.425584],[-75.227397,5.425458],[-75.227657,5.425359],[-75.227926,5.425286],[-75.228202,5.425242],[-75.22848,5.425227],[-75.228897,5.425258],[-75.22917,5.425314],[-75.229436,5.425398],[-75.229691,5.425509],[-75.229934,5.425645],[-75.230162,5.425806],[-75.230372,5.42599],[-75.230562,5.426194],[-75.230731,5.426417],[-75.230875,5.426656],[-75.230994,5.426909],[-75.231086,5.427172],[-75.231151,5.427444],[-75.231196,5.42786],[-75.23119,5.428139],[-75.231155,5.428417],[-75.231092,5.428689],[-75.231001,5.428953],[-75.230884,5.429206],[-75.230742,5.429446],[-75.230575,5.42967],[-75.230387,5.429876],[-75.230178,5.430061],[-75.229951,5.430224],[-75.229709,5.430362],[-75.229454,5.430475],[-75.229054,5.430594],[-75.228778,5.430638],[-75.2285,5.430653]]],[[[-75.095875,5.445393],[-75.095597,5.445379],[-75.095321,5.445337],[-75.095051,5.445267],[-75.09479,5.44517],[-75.09454,5.445045],[-75.094305,5.444896],[-75.093983,5.444629],[-75.093793,5.444425],[-75.093625,5.444202],[-75.09348,5.443963],[-75.093361,5.44371],[-75.093269,5.443447],[-75.093204,5.443175],[-75.093167,5.442898],[-75.093159,5.442619],[-75.093179,5.44234],[-75.093228,5.442065],[-75.093354,5.441666],[-75.093471,5.441413],[-75.093614,5.441173],[-75.093781,5.440949],[-75.093969,5.440743],[-75.094289,5.440474],[-75.094524,5.440323],[-75.094773,5.440197],[-75.095033,5.440098],[-75.095303,5.440026],[-75.095578,5.439982],[-75.095856,5.439966],[-75.096273,5.439997],[-75.096546,5.440053],[-75.096812,5.440137],[-75.097068,5.440248],[-75.097311,5.440385],[-75.097538,5.440546],[-75.097748,5.44073],[-75.097938,5.440934],[-75.098107,5.441157],[-75.098251,5.441396],[-75.09837,5.441649],[-75.098462,5.441912],[-75.098528,5.442184],[-75.098564,5.442461],[-75.098572,5.44274],[-75.098552,5.443019],[-75.098503,5.443293],[-75.098426,5.443562],[-75.098322,5.443821],[-75.098192,5.444068],[-75.098037,5.444301],[-75.097762,5.444616],[-75.097553,5.444801],[-75.097327,5.444964],[-75.097084,5.445102],[-75.09683,5.445215],[-75.096564,5.445301],[-75.096292,5.445359],[-75.095875,5.445393]]],[[[-75.112338,5.443487],[-75.112121,5.443311],[-75.111833,5.443008],[-75.111595,5.442665],[-75.111467,5.442417],[-75.111365,5.442157],[-75.111263,5.441751],[-75.11123,5.441474],[-75.111234,5.441056],[-75.111273,5.440779],[-75.111383,5.440376],[-75.111491,5.440118],[-75.1117,5.439756],[-75.111962,5.439431],[-75.112164,5.439238],[-75.112384,5.439067],[-75.112744,5.438855],[-75.113132,5.438701],[-75.113539,5.438609],[-75.113956,5.43858],[-75.114372,5.438616],[-75.114777,5.438716],[-75.115163,5.438877],[-75.115519,5.439095],[-75.115837,5.439366],[-75.115815,5.439091],[-75.115822,5.438815],[-75.115857,5.43854],[-75.115919,5.438271],[-75.116062,5.437883],[-75.11619,5.437638],[-75.116342,5.437408],[-75.116517,5.437194],[-75.116712,5.436999],[-75.116926,5.436825],[-75.117157,5.436674],[-75.117401,5.436547],[-75.117658,5.436445],[-75.117923,5.43637],[-75.118195,5.436323],[-75.11847,5.436304],[-75.118883,5.436327],[-75.119287,5.436414],[-75.119673,5.436561],[-75.119916,5.436691],[-75.120145,5.436845],[-75.120456,5.437118],[-75.120639,5.437325],[-75.120799,5.437549],[-75.120936,5.437789],[-75.121048,5.438041],[-75.121134,5.438304],[-75.121193,5.438574],[-75.121447,5.43854],[-75.121393,5.43814],[-75.121415,5.437603],[-75.1215,5.437209],[-75.121702,5.436712],[-75.121916,5.43637],[-75.122086,5.436162],[-75.122377,5.435883],[-75.122706,5.435651],[-75.122857,5.435424],[-75.123031,5.435214],[-75.123329,5.434934],[-75.123665,5.434702],[-75.123907,5.434576],[-75.12416,5.434476],[-75.124556,5.434374],[-75.124826,5.434341],[-75.125098,5.434334],[-75.12537,5.434355],[-75.125638,5.434403],[-75.126028,5.434525],[-75.126395,5.434704],[-75.12673,5.434937],[-75.126837,5.434685],[-75.126968,5.434445],[-75.127207,5.434113],[-75.127394,5.433914],[-75.127493,5.433655],[-75.127619,5.433408],[-75.127769,5.433176],[-75.127942,5.432959],[-75.12824,5.432671],[-75.128462,5.432505],[-75.128823,5.432302],[-75.129211,5.432156],[-75.12948,5.432092],[-75.129754,5.432056],[-75.130169,5.432055],[-75.130578,5.432118],[-75.130844,5.432195],[-75.131101,5.432298],[-75.131463,5.4325],[-75.131789,5.432756],[-75.131984,5.432953],[-75.132158,5.433168],[-75.132374,5.433522],[-75.132488,5.433775],[-75.132575,5.434038],[-75.132635,5.434309],[-75.132667,5.434584],[-75.132671,5.434861],[-75.132647,5.435137],[-75.132558,5.435543],[-75.132409,5.43593],[-75.132277,5.436174],[-75.132035,5.436511],[-75.131846,5.436713],[-75.131691,5.437089],[-75.131481,5.437437],[-75.131126,5.437845],[-75.13081,5.4381],[-75.13058,5.438243],[-75.130337,5.438361],[-75.129953,5.438492],[-75.129419,5.438575],[-75.129019,5.438567],[-75.128501,5.438466],[-75.128012,5.438267],[-75.127571,5.437975],[-75.127409,5.438337],[-75.127115,5.438774],[-75.126741,5.439147],[-75.126418,5.439374],[-75.126097,5.439807],[-75.125803,5.440085],[-75.125472,5.440316],[-75.12511,5.440495],[-75.124725,5.440618],[-75.124326,5.440682],[-75.124381,5.441091],[-75.124372,5.441504],[-75.124302,5.44191],[-75.124221,5.442173],[-75.124051,5.442549],[-75.123907,5.442783],[-75.123648,5.443104],[-75.123344,5.443382],[-75.123001,5.44361],[-75.122628,5.443784],[-75.122232,5.443899],[-75.121961,5.443941],[-75.121561,5.443954],[-75.121185,5.443911],[-75.120818,5.443816],[-75.120468,5.443671],[-75.120297,5.444049],[-75.12007,5.444396],[-75.119793,5.444705],[-75.119472,5.444968],[-75.119115,5.445178],[-75.11873,5.445332],[-75.118327,5.445425],[-75.118052,5.445452],[-75.118095,5.445868],[-75.118075,5.446286],[-75.11799,5.446696],[-75.117844,5.447088],[-75.117714,5.447334],[-75.117559,5.447566],[-75.117284,5.447882],[-75.116964,5.448151],[-75.116607,5.448367],[-75.116221,5.448526],[-75.115815,5.448623],[-75.115398,5.448657],[-75.115122,5.448644],[-75.114849,5.448603],[-75.11445,5.448489],[-75.114074,5.448315],[-75.113728,5.448087],[-75.113518,5.447906],[-75.113329,5.447704],[-75.11316,5.447484],[-75.113015,5.447249],[-75.112844,5.44687],[-75.112763,5.446605],[-75.11271,5.446333],[-75.112684,5.446058],[-75.112686,5.445781],[-75.112489,5.445434],[-75.112308,5.444934],[-75.112238,5.444541],[-75.112224,5.444275],[-75.112252,5.443877],[-75.112338,5.443487]]],[[[-75.105522,5.44815],[-75.10539,5.448392],[-75.105234,5.448619],[-75.105056,5.44883],[-75.104858,5.449021],[-75.104641,5.449191],[-75.104409,5.449338],[-75.104162,5.44946],[-75.103905,5.449557],[-75.103639,5.449627],[-75.103367,5.44967],[-75.103092,5.449685],[-75.102816,5.449672],[-75.102407,5.449599],[-75.102143,5.449516],[-75.101888,5.449407],[-75.101646,5.449272],[-75.10142,5.449113],[-75.10121,5.448931],[-75.10102,5.448729],[-75.100852,5.448509],[-75.100707,5.448272],[-75.100587,5.448022],[-75.100493,5.447761],[-75.100426,5.447492],[-75.100387,5.447217],[-75.100381,5.446801],[-75.100413,5.446525],[-75.100472,5.446254],[-75.100559,5.445991],[-75.100672,5.445738],[-75.100889,5.445383],[-75.101157,5.445065],[-75.101361,5.444878],[-75.101701,5.444639],[-75.101909,5.44428],[-75.102169,5.443956],[-75.102369,5.443765],[-75.102587,5.443595],[-75.102943,5.443383],[-75.103197,5.443274],[-75.103461,5.443191],[-75.103869,5.443117],[-75.104145,5.443104],[-75.104421,5.443118],[-75.104694,5.443161],[-75.104961,5.443232],[-75.105345,5.443387],[-75.105586,5.443523],[-75.105918,5.443771],[-75.106209,5.444067],[-75.106451,5.444404],[-75.106639,5.444774],[-75.106733,5.445035],[-75.106821,5.44544],[-75.106846,5.445716],[-75.106829,5.446131],[-75.106783,5.446404],[-75.106663,5.446802],[-75.10655,5.447054],[-75.106333,5.447408],[-75.106065,5.447725],[-75.105752,5.447997],[-75.105522,5.44815]]],[[[-75.105883,5.455214],[-75.105605,5.455201],[-75.105329,5.455159],[-75.105059,5.455089],[-75.104798,5.454991],[-75.104429,5.454795],[-75.104201,5.454634],[-75.103991,5.454451],[-75.103801,5.454247],[-75.103633,5.454024],[-75.103488,5.453785],[-75.103369,5.453532],[-75.103277,5.453269],[-75.103212,5.452997],[-75.103175,5.45272],[-75.103167,5.452441],[-75.103188,5.452162],[-75.103236,5.451887],[-75.103313,5.451619],[-75.103418,5.45136],[-75.103548,5.451113],[-75.103702,5.45088],[-75.103977,5.450565],[-75.104186,5.45038],[-75.104413,5.450217],[-75.104655,5.450079],[-75.10491,5.449966],[-75.105311,5.449847],[-75.105586,5.449803],[-75.105864,5.449788],[-75.106143,5.449801],[-75.106418,5.449843],[-75.106688,5.449914],[-75.106949,5.450011],[-75.107199,5.450135],[-75.107435,5.450284],[-75.107757,5.450552],[-75.107947,5.450756],[-75.108115,5.450979],[-75.108259,5.451218],[-75.108378,5.45147],[-75.108471,5.451734],[-75.108536,5.452005],[-75.108572,5.452282],[-75.108581,5.452562],[-75.108539,5.452978],[-75.108476,5.45325],[-75.108385,5.453515],[-75.108268,5.453768],[-75.108125,5.454008],[-75.107959,5.454232],[-75.10777,5.454438],[-75.107561,5.454623],[-75.107335,5.454785],[-75.107093,5.454924],[-75.106838,5.455037],[-75.106437,5.455155],[-75.106161,5.455199],[-75.105883,5.455214]]],[[[-75.098161,5.453904],[-75.097654,5.453954],[-75.097376,5.45394],[-75.0971,5.453898],[-75.096831,5.453828],[-75.09657,5.453731],[-75.09632,5.453607],[-75.096085,5.453458],[-75.095866,5.453286],[-75.095665,5.453092],[-75.095486,5.452878],[-75.095329,5.452647],[-75.095141,5.452274],[-75.095048,5.452011],[-75.094983,5.451739],[-75.094946,5.451463],[-75.094938,5.451184],[-75.094958,5.450905],[-75.095006,5.450631],[-75.095083,5.450362],[-75.095186,5.450103],[-75.09539,5.449738],[-75.095556,5.449514],[-75.095744,5.449308],[-75.095952,5.449122],[-75.096178,5.448959],[-75.096546,5.448761],[-75.096806,5.448661],[-75.097075,5.448588],[-75.097489,5.448532],[-75.097767,5.44853],[-75.098044,5.448557],[-75.098451,5.448651],[-75.098713,5.448747],[-75.099082,5.448942],[-75.099418,5.449191],[-75.099711,5.449488],[-75.099956,5.449828],[-75.100088,5.450073],[-75.100195,5.450331],[-75.100304,5.450735],[-75.100351,5.451151],[-75.100345,5.45143],[-75.100284,5.451843],[-75.10016,5.452243],[-75.100573,5.452195],[-75.100851,5.452199],[-75.101126,5.452231],[-75.101529,5.452331],[-75.101913,5.452492],[-75.102267,5.452711],[-75.102584,5.45298],[-75.102856,5.453296],[-75.103076,5.453649],[-75.103192,5.453901],[-75.103281,5.454164],[-75.103343,5.454435],[-75.103377,5.454711],[-75.103383,5.454989],[-75.103361,5.455266],[-75.103274,5.455673],[-75.103182,5.455935],[-75.103064,5.456187],[-75.102921,5.456425],[-75.102754,5.456647],[-75.102565,5.456851],[-75.102357,5.457034],[-75.102131,5.457195],[-75.10189,5.457332],[-75.101636,5.457444],[-75.101372,5.457529],[-75.101101,5.457586],[-75.100825,5.457616],[-75.100547,5.457617],[-75.100134,5.457565],[-75.099864,5.457495],[-75.099604,5.457397],[-75.099354,5.457274],[-75.099119,5.457125],[-75.0989,5.456954],[-75.0987,5.45676],[-75.09852,5.456547],[-75.098364,5.456317],[-75.098175,5.455944],[-75.098082,5.455681],[-75.098017,5.45541],[-75.097979,5.455134],[-75.09797,5.454856],[-75.09801,5.45444],[-75.098072,5.454168],[-75.098161,5.453904]]],[[[-75.105128,5.463545],[-75.105031,5.463558],[-75.104718,5.463997],[-75.104324,5.464365],[-75.103985,5.464585],[-75.10349,5.464796],[-75.102963,5.464905],[-75.102694,5.464919],[-75.102416,5.464906],[-75.102007,5.464833],[-75.101742,5.464749],[-75.101487,5.464639],[-75.101129,5.464427],[-75.10091,5.464256],[-75.10071,5.464063],[-75.100531,5.46385],[-75.100374,5.463621],[-75.100241,5.463376],[-75.100135,5.46312],[-75.100025,5.462717],[-75.099987,5.462442],[-75.099977,5.462164],[-75.099995,5.461886],[-75.100042,5.461612],[-75.100164,5.461213],[-75.100346,5.460838],[-75.100498,5.460605],[-75.100768,5.460289],[-75.100974,5.460102],[-75.101316,5.459864],[-75.10169,5.459682],[-75.102088,5.459559],[-75.102362,5.459512],[-75.102595,5.459168],[-75.102779,5.458961],[-75.103092,5.458688],[-75.103443,5.458466],[-75.103823,5.4583],[-75.104224,5.458195],[-75.104499,5.458159],[-75.104914,5.458159],[-75.105324,5.458222],[-75.10559,5.458299],[-75.10597,5.458464],[-75.106322,5.458685],[-75.106415,5.458426],[-75.106603,5.458059],[-75.106845,5.457725],[-75.107134,5.457432],[-75.107465,5.457186],[-75.107704,5.457051],[-75.107956,5.456941],[-75.108351,5.456825],[-75.108541,5.456628],[-75.108861,5.456371],[-75.109216,5.456166],[-75.109468,5.45606],[-75.109863,5.45595],[-75.110133,5.45591],[-75.110406,5.455898],[-75.110815,5.455931],[-75.111213,5.456027],[-75.111593,5.456181],[-75.111946,5.456391],[-75.112262,5.456652],[-75.112536,5.456958],[-75.112886,5.456569],[-75.113195,5.456325],[-75.112764,5.456006],[-75.112486,5.455714],[-75.112326,5.455498],[-75.112189,5.455267],[-75.112026,5.454898],[-75.111898,5.454377],[-75.111634,5.454292],[-75.11138,5.45418],[-75.111138,5.454042],[-75.110805,5.453791],[-75.110515,5.453492],[-75.110348,5.45327],[-75.110143,5.452907],[-75.110038,5.452649],[-75.109932,5.452246],[-75.109888,5.451831],[-75.109909,5.451414],[-75.109992,5.451005],[-75.110138,5.450614],[-75.110267,5.450368],[-75.110507,5.450027],[-75.110796,5.449727],[-75.111128,5.449474],[-75.111369,5.449336],[-75.111622,5.449223],[-75.112021,5.449103],[-75.112296,5.449058],[-75.112712,5.449044],[-75.112988,5.449071],[-75.113394,5.449163],[-75.113655,5.449258],[-75.114024,5.449451],[-75.11436,5.449698],[-75.114654,5.449994],[-75.114899,5.450331],[-75.11509,5.450702],[-75.115184,5.450964],[-75.115275,5.451371],[-75.115421,5.451414],[-75.115672,5.451303],[-75.115932,5.451218],[-75.116336,5.451141],[-75.116747,5.451127],[-75.117155,5.451174],[-75.117422,5.45124],[-75.11768,5.451333],[-75.118046,5.45152],[-75.11838,5.45176],[-75.118674,5.452049],[-75.118921,5.452378],[-75.119115,5.452741],[-75.119252,5.45313],[-75.11931,5.453398],[-75.119341,5.453672],[-75.119335,5.454084],[-75.119266,5.45449],[-75.119137,5.454881],[-75.118951,5.455248],[-75.119158,5.455434],[-75.119432,5.455749],[-75.119653,5.456102],[-75.11977,5.456355],[-75.119989,5.456516],[-75.120191,5.456698],[-75.120373,5.4569],[-75.120534,5.457119],[-75.120673,5.457353],[-75.120788,5.4576],[-75.120877,5.457857],[-75.120962,5.458256],[-75.120985,5.458527],[-75.120981,5.458799],[-75.120923,5.459203],[-75.120893,5.459614],[-75.120801,5.460015],[-75.12065,5.460398],[-75.120442,5.460754],[-75.120275,5.460971],[-75.119985,5.461263],[-75.119769,5.461432],[-75.119537,5.461578],[-75.119292,5.4617],[-75.119035,5.461796],[-75.11877,5.461866],[-75.118499,5.461908],[-75.118225,5.461923],[-75.117954,5.461911],[-75.117424,5.461805],[-75.117169,5.461712],[-75.116925,5.461595],[-75.116693,5.461454],[-75.116477,5.46129],[-75.116279,5.461106],[-75.116099,5.460902],[-75.115752,5.461078],[-75.115383,5.461201],[-75.115211,5.461572],[-75.114985,5.461913],[-75.114711,5.462215],[-75.114394,5.462473],[-75.114042,5.462681],[-75.113663,5.462833],[-75.113266,5.462926],[-75.112995,5.462954],[-75.112581,5.462945],[-75.11217,5.462871],[-75.111775,5.462735],[-75.111525,5.462611],[-75.111177,5.462379],[-75.110968,5.462195],[-75.110777,5.461991],[-75.110534,5.461651],[-75.110167,5.461883],[-75.110185,5.462159],[-75.110175,5.462436],[-75.110137,5.46271],[-75.110071,5.462978],[-75.109978,5.463239],[-75.109859,5.463489],[-75.109716,5.463725],[-75.109549,5.463945],[-75.10936,5.464148],[-75.109152,5.46433],[-75.108808,5.464561],[-75.108433,5.464736],[-75.10817,5.464821],[-75.1079,5.464878],[-75.107488,5.464911],[-75.107081,5.464882],[-75.106684,5.464791],[-75.106304,5.464642],[-75.105951,5.464438],[-75.105633,5.464183],[-75.105356,5.463883],[-75.105128,5.463545]]],[[[-75.23281,5.466893],[-75.232532,5.46688],[-75.232256,5.466838],[-75.231986,5.466767],[-75.231725,5.46667],[-75.231475,5.466546],[-75.23124,5.466397],[-75.230918,5.46613],[-75.230641,5.465816],[-75.230484,5.465585],[-75.230352,5.465339],[-75.230246,5.465081],[-75.230167,5.464813],[-75.230116,5.464538],[-75.230094,5.46426],[-75.2301,5.463981],[-75.230135,5.463703],[-75.230198,5.463431],[-75.230288,5.463167],[-75.230406,5.462914],[-75.230548,5.462674],[-75.230715,5.46245],[-75.230903,5.462244],[-75.231112,5.462059],[-75.231339,5.461896],[-75.231581,5.461758],[-75.231836,5.461645],[-75.232101,5.461559],[-75.232373,5.461501],[-75.23279,5.461467],[-75.233068,5.46148],[-75.233344,5.461522],[-75.233614,5.461593],[-75.233875,5.46169],[-75.234125,5.461814],[-75.23436,5.461963],[-75.234682,5.46223],[-75.234872,5.462434],[-75.23504,5.462657],[-75.235248,5.463021],[-75.235354,5.463279],[-75.235433,5.463547],[-75.235484,5.463822],[-75.235506,5.4641],[-75.2355,5.464379],[-75.235465,5.464656],[-75.235402,5.464929],[-75.235312,5.465193],[-75.235194,5.465446],[-75.235052,5.465686],[-75.234885,5.46591],[-75.234697,5.466116],[-75.234488,5.466301],[-75.234262,5.466464],[-75.234019,5.466602],[-75.233764,5.466715],[-75.233499,5.466801],[-75.233227,5.466859],[-75.23281,5.466893]]],[[[-75.098814,5.463207],[-75.099039,5.46337],[-75.099247,5.463554],[-75.099435,5.463759],[-75.099601,5.463983],[-75.099743,5.464222],[-75.09986,5.464474],[-75.099986,5.464873],[-75.100035,5.465146],[-75.100056,5.465424],[-75.100049,5.465702],[-75.100013,5.465979],[-75.099906,5.466382],[-75.099801,5.46664],[-75.099671,5.466886],[-75.099516,5.467117],[-75.099338,5.467331],[-75.099139,5.467525],[-75.098922,5.467698],[-75.098687,5.467848],[-75.098439,5.467973],[-75.098046,5.468111],[-75.097774,5.468169],[-75.097498,5.468198],[-75.097221,5.4682],[-75.096946,5.468172],[-75.096675,5.468117],[-75.096412,5.468035],[-75.096158,5.467926],[-75.095916,5.467791],[-75.095583,5.467546],[-75.095291,5.467252],[-75.095047,5.466917],[-75.094857,5.466548],[-75.094762,5.466288],[-75.094694,5.46602],[-75.094654,5.465746],[-75.094646,5.465331],[-75.094677,5.465056],[-75.094774,5.464653],[-75.094872,5.464394],[-75.094996,5.464147],[-75.094665,5.463896],[-75.094468,5.463701],[-75.094291,5.463488],[-75.094137,5.463257],[-75.094007,5.463011],[-75.093903,5.462754],[-75.093825,5.462487],[-75.093776,5.462214],[-75.093754,5.461937],[-75.093761,5.46166],[-75.093796,5.461384],[-75.093859,5.461114],[-75.093949,5.460851],[-75.094066,5.4606],[-75.094207,5.460361],[-75.094373,5.460138],[-75.09456,5.459933],[-75.094877,5.459664],[-75.09511,5.459514],[-75.095356,5.459388],[-75.095615,5.459287],[-75.095882,5.459214],[-75.096156,5.459169],[-75.096432,5.459152],[-75.096709,5.459163],[-75.096983,5.459203],[-75.097384,5.459314],[-75.097639,5.459422],[-75.097882,5.459556],[-75.098218,5.459801],[-75.098419,5.459991],[-75.0986,5.460202],[-75.098758,5.460429],[-75.098893,5.460672],[-75.099001,5.460928],[-75.099084,5.461193],[-75.099156,5.461603],[-75.099168,5.46188],[-75.099153,5.462157],[-75.099109,5.462431],[-75.099037,5.4627],[-75.098938,5.462959],[-75.098814,5.463207]]],[[[-75.12008,5.469479],[-75.120045,5.469756],[-75.119982,5.470029],[-75.119836,5.470421],[-75.119706,5.470668],[-75.119552,5.4709],[-75.119374,5.471116],[-75.119175,5.471311],[-75.118957,5.471486],[-75.118722,5.471636],[-75.118473,5.471762],[-75.118213,5.471862],[-75.117806,5.471959],[-75.117529,5.471989],[-75.11725,5.47199],[-75.116973,5.471962],[-75.1167,5.471906],[-75.116435,5.471823],[-75.116179,5.471712],[-75.115936,5.471575],[-75.115709,5.471415],[-75.115499,5.471231],[-75.115309,5.471027],[-75.11514,5.470805],[-75.114996,5.470566],[-75.114827,5.470184],[-75.114748,5.469916],[-75.114697,5.469642],[-75.114674,5.469364],[-75.11468,5.469085],[-75.114741,5.468671],[-75.114818,5.468403],[-75.114983,5.468018],[-75.115125,5.467778],[-75.115382,5.467449],[-75.115687,5.467163],[-75.115913,5.467],[-75.116154,5.466861],[-75.11654,5.466701],[-75.116602,5.466287],[-75.116679,5.466019],[-75.116783,5.46576],[-75.116987,5.465395],[-75.117154,5.465171],[-75.117342,5.464965],[-75.117551,5.46478],[-75.117777,5.464617],[-75.118019,5.464479],[-75.118274,5.464366],[-75.118539,5.464279],[-75.118949,5.464202],[-75.119227,5.464187],[-75.119506,5.4642],[-75.119917,5.464273],[-75.120312,5.464409],[-75.120682,5.464603],[-75.120909,5.464764],[-75.12112,5.464947],[-75.121397,5.46526],[-75.121554,5.465491],[-75.121686,5.465737],[-75.121835,5.466127],[-75.121923,5.466537],[-75.121946,5.466815],[-75.121941,5.467094],[-75.121879,5.467508],[-75.121754,5.467907],[-75.12157,5.468283],[-75.12133,5.468625],[-75.121142,5.468831],[-75.120934,5.469017],[-75.120708,5.46918],[-75.120466,5.469319],[-75.12008,5.469479]]],[[[-75.23694,5.473023],[-75.236662,5.47301],[-75.236386,5.472968],[-75.236116,5.472897],[-75.235855,5.4728],[-75.235605,5.472676],[-75.23537,5.472527],[-75.235048,5.47226],[-75.234858,5.472056],[-75.23469,5.471833],[-75.234482,5.471469],[-75.234376,5.471211],[-75.234297,5.470943],[-75.234246,5.470668],[-75.234224,5.47039],[-75.234244,5.469972],[-75.234293,5.469697],[-75.23437,5.469428],[-75.234474,5.469169],[-75.234604,5.468922],[-75.234759,5.46869],[-75.234936,5.468475],[-75.235135,5.468279],[-75.235353,5.468105],[-75.235588,5.467954],[-75.235837,5.467828],[-75.236097,5.467729],[-75.236366,5.467657],[-75.236642,5.467612],[-75.23692,5.467597],[-75.237198,5.46761],[-75.237474,5.467652],[-75.237744,5.467722],[-75.238005,5.46782],[-75.238255,5.467944],[-75.23849,5.468093],[-75.238812,5.46836],[-75.239002,5.468564],[-75.239171,5.468787],[-75.239378,5.469151],[-75.239484,5.469409],[-75.239563,5.469677],[-75.239614,5.469952],[-75.239636,5.47023],[-75.23963,5.470509],[-75.239595,5.470786],[-75.239532,5.471058],[-75.239442,5.471323],[-75.239324,5.471576],[-75.239182,5.471816],[-75.239015,5.47204],[-75.238827,5.472246],[-75.238507,5.472515],[-75.238272,5.472666],[-75.238023,5.472792],[-75.237763,5.472891],[-75.237494,5.472963],[-75.237218,5.473007],[-75.23694,5.473023]]]]},"properties":{"area_ha":816.4456}}]}