{"type":"FeatureCollection","features":[{"type":"Feature","id":0,"geometry":{"type":"Point","coordinates":[-75.125028,5.437046]},"properties":{"id_registro":"1","zona":"uso_intensivo"}},{"type":"Feature","id":1,"geometry":{"type":"Point","coordinates":[-75.11625,5.442236]},"properties":{"id_registro":"2","zona":"conservacion"}},{"type":"Feature","id":2,"geometry":{"type":"Point","coordinates":[-75.113931,5.441293]},"properties":{"id_registro":"4","zona":"uso_intensivo"}},{"type":"Feature","id":3,"geometry":{"type":"Point","coordinates":[-75.115108,5.443991]},"properties":{"id_registro":"3","zona":"amortiguacion"}},{"type":"Feature","id":4,"geometry":{"type":"Point","coordinates":[-75.095866,5.442679]},"properties":{"id_registro":"5","zona":"entorno"}},{"type":"Feature","id":5,"geometry":{"type":"Point","coordinates":[-75.117257,5.457365]},"properties":{"id_registro":null,"zona":"conservacion"}},{"type":"Feature","id":6,"geometry":{"type":"Point","coordinates":[-75.114711,5.458573]},"properties":{"id_registro":null,"zona":"conservacion"}},{"type":"Feature","id":7,"geometry":{"type":"Point","coordinates":[-75.129274,5.435866]},"properties":{"id_registro":null,"zona":"uso_intensivo"}},{"type":"Feature","id":8,"geometry":{"type":"Point","coordinates":[-75.124096,5.437979]},"properties":{"id_registro":null,"zona":"uso_intensivo"}},{"type":"Feature","id":9,"geometry":{"type":"Point","coordinates":[-75.118522,5.439016]},"properties":{"id_registro":null,"zona":"conservacion"}},{"type":"Feature","id":10,"geometry":{"type":"Point","coordinates":[-75.114932,5.444264]},"properties":{"id_registro":null,"zona":"uso_intensivo"}},{"type":"Feature","id":11,"geometry":{"type":"Point","coordinates":[-75.116638,5.453837]},"properties":{"id_registro":null,"zona":"conservacion"}},{"type":"Feature","id":12,"geometry":{"type":"Point","coordinates":[-75.117924,5.442742]},"properties":{"id_registro":null,"zona":"uso_intensivo"}}]}