{"type":"FeatureCollection","features":[{"type":"Feature","id":0,"geometry":{"type":"Point","coordinates":[-75.10891,5.45948]},"properties":{"zona":"entorno"}},{"type":"Feature","id":1,"geometry":{"type":"Point","coordinates":[-75.107478,5.462198]},"properties":{"zona":"entorno"}},{"type":"Feature","id":2,"geometry":{"type":"Point","coordinates":[-75.102684,5.462206]},"properties":{"zona":"entorno"}},{"type":"Feature","id":3,"geometry":{"type":"Point","coordinates":[-75.104709,5.460864]},"properties":{"zona":"entorno"}},{"type":"Feature","id":4,"geometry":{"type":"Point","coordinates":[-75.100677,5.454906]},"properties":{"zona":"entorno"}},{"type":"Feature","id":5,"geometry":{"type":"Point","coordinates":[-75.097645,5.451241]},"properties":{"zona":"entorno"}},{"type":"Feature","id":6,"geometry":{"type":"Point","coordinates":[-75.096461,5.461865]},"properties":{"zona":"entorno"}},{"type":"Feature","id":7,"geometry":{"type":"Point","coordinates":[-75.097349,5.465489]},"properties":{"zona":"entorno"}}]}