{"type":"FeatureCollection","features":[{"type":"Feature","id":0,"geometry":{"type":"Point","coordinates":[-75.114579,5.453993]},"properties":{"observacion":"PERSONAS","zona":"conservacion"}},{"type":"Feature","id":1,"geometry":{"type":"Point","coordinates":[-75.129966,5.434761]},"properties":{"observacion":"VACAS","zona":"entorno"}},{"type":"Feature","id":2,"geometry":{"type":"Point","coordinates":[-75.115389,5.445944]},"properties":{"observacion":"PERROS","zona":"conservacion"}},{"type":"Feature","id":3,"geometry":{"type":"Point","coordinates":[-75.10414,5.445817]},"properties":{"observacion":"PERROS","zona":"conservacion"}},{"type":"Feature","id":4,"geometry":{"type":"Point","coordinates":[-75.103083,5.446972]},"properties":{"observacion":"PERROS","zona":"entorno"}},{"type":"Feature","id":5,"geometry":{"type":"Point","coordinates":[-75.110389,5.458611]},"properties":{"observacion":"PERROS","zona":"conservacion"}},{"type":"Feature","id":6,"geometry":{"type":"Point","coordinates":[-75.105874,5.452501]},"properties":{"observacion":"VACAS","zona":"conservacion"}},{"type":"Feature","id":7,"geometry":{"type":"Point","coordinates":[-75.121678,5.441243]},"properties":{"observacion":"VACAS","zona":"conservacion"}}]}