{"type":"FeatureCollection","features":[{"type":"Feature","id":0,"geometry":{"type":"Point","coordinates":[-75.110752,5.454548]},"properties":{"punto":"Fin Transecto","cobertura":"BJ","zona":"conservacion"}},{"type":"Feature","id":1,"geometry":{"type":"Point","coordinates":[-75.11828,5.452276]},"properties":{"punto":"Fin Transecto","cobertura":"BP","zona":"conservacion"}},{"type":"Feature","id":2,"geometry":{"type":"Point","coordinates":[-75.112217,5.452015]},"properties":{"punto":"Fin Transecto","cobertura":"P","zona":"restauracion"}},{"type":"Feature","id":3,"geometry":{"type":"Point","coordinates":[-75.114937,5.453307]},"properties":{"punto":"Fin Transecto","cobertura":"BP","zona":"conservacion"}},{"type":"Feature","id":4,"geometry":{"type":"Point","coordinates":[-75.129232,5.437973]},"properties":{"punto":"Fin Transecto","cobertura":"BA","zona":"conservacion"}},{"type":"Feature","id":5,"geometry":{"type":"Point","coordinates":[-75.114532,5.453697]},"properties":{"punto":"Inicio De Transecto","cobertura":"BP","zona":"conservacion"}},{"type":"Feature","id":6,"geometry":{"type":"Point","coordinates":[-75.129322,5.437073]},"properties":{"punto":"Inicio De Transecto","cobertura":"BA","zona":"conservacion"}},{"type":"Feature","id":7,"geometry":{"type":"Point","coordinates":[-75.11825,5.452833]},"properties":{"punto":"Inicio Transecto","cobertura":"BP","zona":"conservacion"}},{"type":"Feature","id":8,"geometry":{"type":"Point","coordinates":[-75.111427,5.452167]},"properties":{"punto":"Inicio Transecto","cobertura":"P","zona":"restauracion"}},{"type":"Feature","id":9,"geometry":{"type":"Point","coordinates":[-75.118455,5.452637]},"properties":{"punto":"Mitad De Transecto","cobertura":"BP","zona":"conservacion"}},{"type":"Feature","id":10,"geometry":{"type":"Point","coordinates":[-75.111775,5.45205]},"properties":{"punto":"Mitad De Transecto","cobertura":"P","zona":"restauracion"}},{"type":"Feature","id":11,"geometry":{"type":"Point","coordinates":[-75.11464,5.453437]},"properties":{"punto":"Mitad De Transecto","cobertura":"BP","zona":"conservacion"}},{"type":"Feature","id":12,"geometry":{"type":"Point","coordinates":[-75.129272,5.437538]},"properties":{"punto":"Mitad De Transecto","cobertura":"BA","zona":"conservacion"}},{"type":"Feature","id":13,"geometry":{"type":"Point","coordinates":[-75.110719,5.454852]},"properties":{"punto":"Mitad Transecto","cobertura":"BJ","zona":"conservacion"}},{"type":"Feature","id":14,"geometry":{"type":"Point","coordinates":[-75.117506,5.441338]},"properties":{"punto":"Fin Transecto","cobertura":"BA","zona":"conservacion"}},{"type":"Feature","id":15,"geometry":{"type":"Point","coordinates":[-75.117898,5.441642]},"properties":{"punto":"Mitad De Transecto","cobertura":"BA","zona":"conservacion"}},{"type":"Feature","id":16,"geometry":{"type":"Point","coordinates":[-75.118312,5.441767]},"properties":{"punto":"Punto Inicial","cobertura":"BA","zona":"conservacion"}},{"type":"Feature","id":17,"geometry":{"type":"Point","coordinates":[-75.108647,5.453282]},"properties":{"punto":"Fin transecto","cobertura":"BP","zona":"conservacion"}},{"type":"Feature","id":18,"geometry":{"type":"Point","coordinates":[-75.108192,5.453495]},"properties":{"punto":null,"cobertura":"BP","zona":"conservacion"}},{"type":"Feature","id":19,"geometry":{"type":"Point","coordinates":[-75.107775,5.453633]},"properties":{"punto":"Punto inicial","cobertura":"BP","zona":"conservacion"}},{"type":"Feature","id":20,"geometry":{"type":"Point","coordinates":[-75.101213,5.448461]},"properties":{"punto":"Punto inicial","cobertura":"BA","zona":"conservacion"}},{"type":"Feature","id":21,"geometry":{"type":"Point","coordinates":[-75.100885,5.448213]},"properties":{"punto":null,"cobertura":"BA","zona":"conservacion"}},{"type":"Feature","id":22,"geometry":{"type":"Point","coordinates":[-75.100573,5.448333]},"properties":{"punto":"Fin trannsecto","cobertura":"BA","zona":"conservacion"}},{"type":"Feature","id":23,"geometry":{"type":"Point","coordinates":[-75.117427,5.436669]},"properties":{"punto":null,"cobertura":"P","zona":"restauracion"}},{"type":"Feature","id":24,"geometry":{"type":"Point","coordinates":[-75.117447,5.436331]},"properties":{"punto":null,"cobertura":"P","zona":"restauracion"}},{"type":"Feature","id":25,"geometry":{"type":"Point","coordinates":[-75.117579,5.436037]},"properties":{"punto":null,"cobertura":"P","zona":"restauracion"}},{"type":"Feature","id":26,"geometry":{"type":"Point","coordinates":[-75.12616,5.438709]},"properties":{"punto":null,"cobertura":"BJ","zona":"conservacion"}},{"type":"Feature","id":27,"geometry":{"type":"Point","coordinates":[-75.125854,5.438403]},"properties":{"punto":null,"cobertura":"BJ","zona":"conservacion"}},{"type":"Feature","id":28,"geometry":{"type":"Point","coordinates":[-75.12562,5.43814]},"properties":{"punto":null,"cobertura":"BJ","zona":"conservacion"}},{"type":"Feature","id":29,"geometry":{"type":"Point","coordinates":[-75.122916,5.44032]},"properties":{"punto":null,"cobertura":"M","zona":"conservacion"}},{"type":"Feature","id":30,"geometry":{"type":"Point","coordinates":[-75.12261,5.44058]},"properties":{"punto":null,"cobertura":"M","zona":"conservacion"}},{"type":"Feature","id":31,"geometry":{"type":"Point","coordinates":[-75.122235,5.440693]},"properties":{"punto":null,"cobertura":"M","zona":"conservacion"}},{"type":"Feature","id":32,"geometry":{"type":"Point","coordinates":[-75.120715,5.445312]},"properties":{"punto":null,"cobertura":"M","zona":"conservacion"}},{"type":"Feature","id":33,"geometry":{"type":"Point","coordinates":[-75.112838,5.460338]},"properties":{"punto":null,"cobertura":"BA","zona":"conservacion"}},{"type":"Feature","id":34,"geometry":{"type":"Point","coordinates":[-75.112936,5.459897]},"properties":{"punto":null,"cobertura":"BA","zona":"conservacion"}},{"type":"Feature","id":35,"geometry":{"type":"Point","coordinates":[-75.113073,5.459543]},"properties":{"punto":null,"cobertura":"BA","zona":"conservacion"}},{"type":"Feature","id":36,"geometry":{"type":"Point","coordinates":[-75.120485,5.444898]},"properties":{"punto":null,"cobertura":"M","zona":"conservacion"}},{"type":"Feature","id":37,"geometry":{"type":"Point","coordinates":[-75.120902,5.444948]},"properties":{"punto":null,"cobertura":"M","zona":"conservacion"}},{"type":"Feature","id":38,"geometry":{"type":"Point","coordinates":[-75.110948,5.455149]},"properties":{"punto":null,"cobertura":"BJ","zona":"conservacion"}},{"type":"Feature","id":39,"geometry":{"type":"Point","coordinates":[-75.113001,5.455161]},"properties":{"punto":null,"cobertura":"P","zona":"conservacion"}},{"type":"Feature","id":40,"geometry":{"type":"Point","coordinates":[-75.113456,5.455086]},"properties":{"punto":null,"cobertura":"P","zona":"restauracion"}},{"type":"Feature","id":41,"geometry":{"type":"Point","coordinates":[-75.113097,5.455183]},"properties":{"punto":null,"cobertura":"P","zona":"restauracion"}},{"type":"Feature","id":42,"geometry":{"type":"Point","coordinates":[-75.113124,5.455286]},"properties":{"punto":null,"cobertura":"P","zona":"conservacion"}},{"type":"Feature","id":43,"geometry":{"type":"Point","coordinates":[-75.112966,5.4452]},"properties":{"punto":null,"cobertura":"M","zona":"conservacion"}},{"type":"Feature","id":44,"geometry":{"type":"Point","coordinates":[-75.112667,5.444998]},"properties":{"punto":null,"cobertura":"M","zona":"conservacion"}},{"type":"Feature","id":45,"geometry":{"type":"Point","coordinates":[-75.112379,5.44515]},"properties":{"punto":null,"cobertura":"M","zona":"conservacion"}},{"type":"Feature","id":46,"geometry":{"type":"Point","coordinates":[-75.108313,5.443284]},"properties":{"punto":null,"cobertura":"BJ","zona":"conservacion"}},{"type":"Feature","id":47,"geometry":{"type":"Point","coordinates":[-75.108001,5.443337]},"properties":{"punto":null,"cobertura":"BJ","zona":"conservacion"}},{"type":"Feature","id":48,"geometry":{"type":"Point","coordinates":[-75.107811,5.443143]},"properties":{"punto":null,"cobertura":"BJ","zona":"conservacion"}},{"type":"Feature","id":49,"geometry":{"type":"Point","coordinates":[-75.107515,5.442835]},"properties":{"punto":null,"cobertura":"BJ","zona":"conservacion"}}]}