{"type":"FeatureCollection","features":[{"type":"Feature","id":0,"geometry":{"type":"LineString","coordinates":[[-75.11825,5.452833],[-75.118312,5.452731],[-75.118451,5.452655],[-75.118424,5.452578],[-75.118289,5.452433],[-75.118282,5.452288]]},"properties":{"nombre":"Línea 4","cobertura":"BP","longitud_km":0.078}},{"type":"Feature","id":1,"geometry":{"type":"LineString","coordinates":[[-75.112217,5.452015],[-75.112086,5.45212],[-75.111989,5.452114],[-75.111888,5.452064],[-75.111714,5.452071],[-75.111615,5.45217],[-75.111435,5.452176]]},"properties":{"nombre":"Línea 5","cobertura":"P","longitud_km":0.0968}},{"type":"Feature","id":2,"geometry":{"type":"LineString","coordinates":[[-75.114529,5.453706],[-75.11471,5.453635],[-75.114694,5.453508],[-75.114641,5.453442],[-75.114754,5.453465],[-75.114786,5.45345],[-75.114864,5.453298],[-75.114907,5.45327],[-75.114942,5.453328]]},"properties":{"nombre":"Línea 6","cobertura":"BP","longitud_km":0.0952}},{"type":"Feature","id":3,"geometry":{"type":"LineString","coordinates":[[-75.129232,5.437973],[-75.129164,5.437833],[-75.129171,5.437769],[-75.129267,5.437548],[-75.129259,5.437377],[-75.129312,5.437255],[-75.129298,5.437158],[-75.129312,5.437082]]},"properties":{"nombre":"Línea 7","cobertura":"BA","longitud_km":0.1044}},{"type":"Feature","id":4,"geometry":{"type":"LineString","coordinates":[[-75.11833,5.441778],[-75.117899,5.441665],[-75.11751,5.441355]]},"properties":{"nombre":"Línea 1","cobertura":"BA","longitud_km":0.1045}},{"type":"Feature","id":5,"geometry":{"type":"LineString","coordinates":[[-75.108626,5.453287],[-75.10836,5.453394],[-75.108187,5.453491],[-75.107855,5.453563],[-75.107775,5.453633]]},"properties":{"nombre":null,"cobertura":"BP","longitud_km":0.1033}},{"type":"Feature","id":6,"geometry":{"type":"LineString","coordinates":[[-75.110752,5.454548],[-75.110683,5.454776],[-75.110774,5.454949],[-75.110942,5.45515]]},"properties":{"nombre":null,"cobertura":"BJ","longitud_km":0.0771}},{"type":"Feature","id":7,"geometry":{"type":"LineString","coordinates":[[-75.100571,5.448343],[-75.100989,5.448182],[-75.101046,5.44818],[-75.101192,5.448293],[-75.101214,5.448465]]},"properties":{"nombre":null,"cobertura":"BA","longitud_km":0.0963}},{"type":"Feature","id":8,"geometry":{"type":"LineString","coordinates":[[-75.12616,5.438709],[-75.126036,5.438662],[-75.125982,5.438601],[-75.125924,5.438465],[-75.125759,5.438336],[-75.125687,5.438161],[-75.12562,5.43814]]},"properties":{"nombre":null,"cobertura":"BJ","longitud_km":0.0922}},{"type":"Feature","id":9,"geometry":{"type":"LineString","coordinates":[[-75.122916,5.44032],[-75.122825,5.440494],[-75.12261,5.44058],[-75.122407,5.440593],[-75.122317,5.440665],[-75.122235,5.440693]]},"properties":{"nombre":null,"cobertura":"M","longitud_km":0.0928}},{"type":"Feature","id":10,"geometry":{"type":"LineString","coordinates":[[-75.117427,5.436669],[-75.117413,5.436421],[-75.117477,5.43613],[-75.117523,5.436062],[-75.117579,5.436037]]},"properties":{"nombre":null,"cobertura":"P","longitud_km":0.0768}},{"type":"Feature","id":11,"geometry":{"type":"LineString","coordinates":[[-75.112838,5.460338],[-75.112936,5.459897],[-75.113073,5.459543]]},"properties":{"nombre":null,"cobertura":"BA","longitud_km":0.0919}},{"type":"Feature","id":12,"geometry":{"type":"LineString","coordinates":[[-75.120715,5.445312],[-75.120902,5.444948],[-75.120485,5.444898]]},"properties":{"nombre":null,"cobertura":"M","longitud_km":0.0917}},{"type":"Feature","id":13,"geometry":{"type":"LineString","coordinates":[[-75.112966,5.4452],[-75.11288,5.44518],[-75.112858,5.445126],[-75.112883,5.445094],[-75.112841,5.445079],[-75.112789,5.445154],[-75.112749,5.445163],[-75.112703,5.445103],[-75.112768,5.445076],[-75.112754,5.445029],[-75.112614,5.444987],[-75.11258,5.445002],[-75.112568,5.444988],[-75.112543,5.445038],[-75.112453,5.445066],[-75.112429,5.445121],[-75.112379,5.445161]]},"properties":{"nombre":null,"cobertura":"M","longitud_km":0.1198}},{"type":"Feature","id":14,"geometry":{"type":"LineString","coordinates":[[-75.108313,5.443284],[-75.108001,5.443337]]},"properties":{"nombre":null,"cobertura":"BJ","longitud_km":0.035}},{"type":"Feature","id":15,"geometry":{"type":"LineString","coordinates":[[-75.107811,5.443143],[-75.107515,5.442835]]},"properties":{"nombre":null,"cobertura":"BJ","longitud_km":0.0473}},{"type":"Feature","id":16,"geometry":{"type":"LineString","coordinates":[[-75.113124,5.455286],[-75.113097,5.455183],[-75.113001,5.455161]]},"properties":{"nombre":null,"cobertura":"P","longitud_km":0.0228}},{"type":"Feature","id":17,"geometry":{"type":"LineString","coordinates":[[-75.113456,5.455086],[-75.113097,5.455183]]},"properties":{"nombre":null,"cobertura":"P","longitud_km":0.0411}}]}