{"type":"FeatureCollection","features":[{"type":"Feature","id":0,"geometry":{"type":"MultiPolygon","coordinates":[[[[-75.198243,5.385833],[-75.197481,5.385804],[-75.196975,5.385748],[-75.196474,5.385664],[-75.195978,5.385552],[-75.195489,5.385412],[-75.194772,5.385151],[-75.19408,5.384831],[-75.193635,5.384585],[-75.193204,5.384314],[-75.192789,5.38402],[-75.192392,5.383702],[-75.19183,5.383185],[-75.191481,5.382815],[-75.191153,5.382426],[-75.190703,5.381808],[-75.190433,5.381376],[-75.190188,5.38093],[-75.189868,5.380237],[-75.189607,5.379519],[-75.189408,5.378781],[-75.18931,5.378281],[-75.189241,5.377776],[-75.189189,5.377014],[-75.189203,5.37625],[-75.189248,5.375742],[-75.189321,5.375238],[-75.189483,5.374491],[-75.189626,5.374002],[-75.189797,5.373522],[-75.190102,5.372822],[-75.190338,5.37237],[-75.190599,5.371933],[-75.191035,5.371306],[-75.191355,5.37091],[-75.191696,5.370532],[-75.192246,5.370003],[-75.192637,5.369677],[-75.193046,5.369374],[-75.193689,5.368964],[-75.194136,5.368721],[-75.194596,5.368504],[-75.195067,5.368313],[-75.195548,5.368149],[-75.196286,5.367955],[-75.196785,5.36786],[-75.197289,5.367794],[-75.19805,5.367748],[-75.198559,5.367753],[-75.199066,5.367787],[-75.199821,5.367892],[-75.200565,5.36806],[-75.201052,5.368207],[-75.20153,5.368381],[-75.202226,5.368692],[-75.202675,5.368931],[-75.203109,5.369196],[-75.203529,5.369484],[-75.203931,5.369796],[-75.204499,5.370305],[-75.205023,5.370861],[-75.205346,5.371255],[-75.205645,5.371666],[-75.205921,5.372094],[-75.206173,5.372537],[-75.206503,5.373226],[-75.20669,5.3737],[-75.20685,5.374183],[-75.207039,5.374924],[-75.207165,5.375677],[-75.207213,5.376184],[-75.207233,5.376694],[-75.207224,5.377203],[-75.207186,5.377711],[-75.207077,5.378468],[-75.206968,5.378965],[-75.206832,5.379456],[-75.206577,5.380176],[-75.206262,5.380872],[-75.206019,5.38132],[-75.205752,5.381754],[-75.205461,5.382172],[-75.205148,5.382573],[-75.204636,5.383139],[-75.204269,5.383492],[-75.203883,5.383823],[-75.20327,5.384278],[-75.202621,5.384679],[-75.202171,5.384916],[-75.201708,5.385126],[-75.201234,5.385311],[-75.20075,5.385468],[-75.20001,5.385652],[-75.199509,5.385739],[-75.199004,5.385798],[-75.198243,5.385833]]],[[[-75.198983,5.429763],[-75.198221,5.429734],[-75.197464,5.42964],[-75.196965,5.429542],[-75.196472,5.429416],[-75.195749,5.429175],[-75.195279,5.428981],[-75.19482,5.428761],[-75.194158,5.428383],[-75.193734,5.4281],[-75.193328,5.427794],[-75.192752,5.427293],[-75.192221,5.426745],[-75.191893,5.426356],[-75.191587,5.425948],[-75.191305,5.425525],[-75.191047,5.425085],[-75.190708,5.424401],[-75.190427,5.42369],[-75.190273,5.423205],[-75.190148,5.422711],[-75.19005,5.422211],[-75.18998,5.421706],[-75.189929,5.420944],[-75.189931,5.420434],[-75.189961,5.419926],[-75.19006,5.419168],[-75.190223,5.418421],[-75.190366,5.417932],[-75.190536,5.417452],[-75.190841,5.416752],[-75.191077,5.4163],[-75.191338,5.415863],[-75.191623,5.415441],[-75.191931,5.415036],[-75.192435,5.414462],[-75.192797,5.414105],[-75.193179,5.413768],[-75.193785,5.413304],[-75.19421,5.413025],[-75.19465,5.412769],[-75.195335,5.412434],[-75.196046,5.412158],[-75.196532,5.412007],[-75.197025,5.411885],[-75.197525,5.41179],[-75.198029,5.411724],[-75.19879,5.411678],[-75.199299,5.411683],[-75.199806,5.411717],[-75.200561,5.411822],[-75.201059,5.411927],[-75.201549,5.41206],[-75.20227,5.412311],[-75.202966,5.412622],[-75.203415,5.412861],[-75.20385,5.413126],[-75.204472,5.413567],[-75.204865,5.41389],[-75.20524,5.414235],[-75.205594,5.414601],[-75.205927,5.414985],[-75.206386,5.415596],[-75.206662,5.416024],[-75.206913,5.416467],[-75.207243,5.417156],[-75.207514,5.41787],[-75.207661,5.418358],[-75.20778,5.418853],[-75.207905,5.419607],[-75.207954,5.420114],[-75.207973,5.420623],[-75.207964,5.421133],[-75.207927,5.421641],[-75.207817,5.422397],[-75.207709,5.422895],[-75.207573,5.423386],[-75.207317,5.424106],[-75.207002,5.424802],[-75.20676,5.42525],[-75.206493,5.425684],[-75.206202,5.426102],[-75.205888,5.426502],[-75.205376,5.427069],[-75.205009,5.427421],[-75.204623,5.427753],[-75.20401,5.428208],[-75.203361,5.428609],[-75.202911,5.428846],[-75.202448,5.429056],[-75.201974,5.42924],[-75.201491,5.429398],[-75.20075,5.429582],[-75.200249,5.429669],[-75.199744,5.429728],[-75.198983,5.429763]]],[[[-75.228523,5.436983],[-75.227761,5.436954],[-75.227256,5.436898],[-75.226754,5.436814],[-75.226013,5.436636],[-75.225528,5.436482],[-75.225053,5.436302],[-75.224361,5.435981],[-75.223698,5.435603],[-75.223275,5.43532],[-75.222868,5.435014],[-75.222292,5.434513],[-75.221933,5.434153],[-75.221594,5.433773],[-75.221127,5.433169],[-75.220845,5.432745],[-75.220587,5.432306],[-75.220248,5.431621],[-75.220054,5.43115],[-75.219887,5.430669],[-75.219688,5.429932],[-75.21959,5.429432],[-75.21952,5.428927],[-75.219469,5.428164],[-75.219482,5.4274],[-75.219527,5.426893],[-75.2196,5.426388],[-75.219763,5.425642],[-75.219905,5.425153],[-75.220076,5.424673],[-75.220273,5.424203],[-75.220496,5.423745],[-75.220878,5.423084],[-75.221314,5.422457],[-75.221634,5.422061],[-75.221975,5.421683],[-75.222337,5.421325],[-75.222718,5.420988],[-75.223325,5.420525],[-75.22375,5.420245],[-75.22419,5.41999],[-75.224875,5.419654],[-75.225346,5.419463],[-75.225827,5.419299],[-75.226565,5.419105],[-75.227064,5.41901],[-75.227569,5.418944],[-75.22833,5.418898],[-75.228838,5.418903],[-75.229345,5.418937],[-75.230101,5.419042],[-75.230598,5.419147],[-75.231089,5.41928],[-75.231809,5.419531],[-75.232506,5.419842],[-75.232955,5.420081],[-75.233389,5.420346],[-75.233808,5.420634],[-75.23421,5.420946],[-75.234779,5.421455],[-75.235134,5.42182],[-75.235467,5.422205],[-75.235925,5.422816],[-75.23633,5.423463],[-75.23657,5.423913],[-75.236783,5.424375],[-75.23697,5.424849],[-75.237131,5.425332],[-75.237319,5.426073],[-75.237445,5.426827],[-75.237493,5.427334],[-75.237513,5.427843],[-75.237504,5.428352],[-75.237467,5.42886],[-75.237357,5.429617],[-75.237184,5.430361],[-75.237034,5.430848],[-75.236857,5.431326],[-75.236654,5.431793],[-75.236424,5.432247],[-75.236033,5.432903],[-75.235588,5.433524],[-75.235263,5.433915],[-75.234917,5.434288],[-75.234359,5.434809],[-75.233964,5.43513],[-75.233551,5.435427],[-75.232902,5.435829],[-75.232452,5.436065],[-75.231989,5.436276],[-75.231515,5.43646],[-75.231031,5.436617],[-75.230291,5.436801],[-75.229538,5.436922],[-75.229031,5.436967],[-75.228523,5.436983]]],[[[-75.108556,5.471177],[-75.107719,5.471238],[-75.106778,5.471214],[-75.10605,5.471128],[-75.105096,5.470921],[-75.104447,5.471076],[-75.104122,5.471467],[-75.103775,5.47184],[-75.103408,5.472192],[-75.103022,5.472524],[-75.102617,5.472833],[-75.102197,5.473118],[-75.101536,5.473501],[-75.10108,5.473725],[-75.100611,5.473922],[-75.100132,5.474093],[-75.099644,5.474236],[-75.099149,5.474352],[-75.098648,5.474439],[-75.098143,5.474498],[-75.097635,5.474529],[-75.096875,5.474521],[-75.096371,5.47448],[-75.095621,5.474366],[-75.095128,5.474255],[-75.094641,5.474117],[-75.094163,5.473951],[-75.093695,5.473759],[-75.093239,5.473541],[-75.092795,5.473298],[-75.092366,5.47303],[-75.091952,5.472738],[-75.091556,5.472424],[-75.091177,5.472088],[-75.090646,5.471545],[-75.090318,5.471159],[-75.090012,5.470756],[-75.089729,5.470336],[-75.08935,5.469677],[-75.089129,5.469222],[-75.088933,5.468754],[-75.088689,5.468035],[-75.08856,5.467545],[-75.088419,5.466798],[-75.08836,5.466295],[-75.088329,5.465789],[-75.088032,5.465098],[-75.087866,5.464625],[-75.087727,5.464143],[-75.087568,5.463408],[-75.087496,5.462912],[-75.087452,5.462412],[-75.087436,5.461911],[-75.087447,5.46141],[-75.087516,5.460661],[-75.087596,5.460166],[-75.087704,5.459676],[-75.087839,5.459193],[-75.087999,5.458718],[-75.08829,5.458025],[-75.088515,5.457577],[-75.088764,5.457142],[-75.089037,5.456722],[-75.089333,5.456317],[-75.089817,5.455743],[-75.089476,5.455085],[-75.089106,5.454169],[-75.088838,5.453217],[-75.088675,5.452242],[-75.08862,5.451254],[-75.088649,5.450513],[-75.088782,5.449533],[-75.089021,5.448574],[-75.088549,5.447974],[-75.088129,5.447336],[-75.087765,5.446665],[-75.087553,5.446202],[-75.087286,5.445486],[-75.087142,5.444998],[-75.086978,5.444252],[-75.086904,5.443748],[-75.086846,5.442986],[-75.086843,5.442477],[-75.086869,5.441968],[-75.086923,5.441461],[-75.087006,5.440959],[-75.087182,5.440215],[-75.087334,5.439729],[-75.087613,5.439018],[-75.087832,5.438558],[-75.088076,5.438112],[-75.088346,5.437679],[-75.088793,5.437061],[-75.089292,5.436483],[-75.08965,5.436122],[-75.090029,5.435782],[-75.090425,5.435463],[-75.09084,5.435168],[-75.09149,5.434769],[-75.091942,5.434535],[-75.092641,5.434232],[-75.093121,5.434064],[-75.093856,5.433862],[-75.094355,5.433763],[-75.094858,5.433692],[-75.095365,5.433649],[-75.095873,5.433635],[-75.096381,5.43365],[-75.09714,5.433726],[-75.097641,5.433812],[-75.098381,5.433994],[-75.098865,5.43415],[-75.09934,5.434332],[-75.10003,5.434656],[-75.100474,5.434904],[-75.100904,5.435176],[-75.101317,5.435472],[-75.101714,5.435791],[-75.102092,5.436132],[-75.10245,5.436494],[-75.102787,5.436875],[-75.103529,5.436794],[-75.104276,5.436774],[-75.104773,5.436795],[-75.105269,5.436844],[-75.106005,5.436968],[-75.106397,5.436314],[-75.106843,5.435695],[-75.107339,5.435116],[-75.107697,5.434755],[-75.108073,5.434413],[-75.108673,5.433943],[-75.10931,5.433525],[-75.10998,5.433162],[-75.110678,5.432857],[-75.111157,5.432687],[-75.111891,5.432483],[-75.112388,5.432382],[-75.112768,5.432049],[-75.113167,5.431737],[-75.113795,5.431312],[-75.114456,5.430942],[-75.114914,5.430727],[-75.115382,5.430537],[-75.115861,5.430375],[-75.116347,5.430239],[-75.116841,5.430131],[-75.11734,5.43005],[-75.117842,5.429998],[-75.118347,5.429974],[-75.118852,5.429978],[-75.119356,5.430011],[-75.119753,5.429708],[-75.120378,5.429295],[-75.120813,5.429049],[-75.121488,5.428727],[-75.121953,5.428543],[-75.122666,5.428317],[-75.123396,5.428151],[-75.123889,5.428074],[-75.124603,5.427487],[-75.124111,5.426903],[-75.123812,5.426491],[-75.123536,5.426063],[-75.123168,5.425393],[-75.122955,5.424931],[-75.122768,5.424457],[-75.122538,5.423728],[-75.12237,5.422982],[-75.122266,5.422225],[-75.122232,5.421716],[-75.122227,5.421207],[-75.122251,5.420698],[-75.122339,5.419938],[-75.122492,5.41919],[-75.122707,5.418456],[-75.122983,5.417744],[-75.123318,5.417057],[-75.12371,5.416401],[-75.124001,5.415983],[-75.124481,5.415389],[-75.125009,5.414838],[-75.125582,5.414333],[-75.126195,5.413878],[-75.126844,5.413477],[-75.127525,5.413133],[-75.128232,5.412847],[-75.128961,5.412622],[-75.129706,5.412459],[-75.130463,5.412361],[-75.131225,5.412326],[-75.131987,5.412356],[-75.132744,5.412451],[-75.13349,5.412609],[-75.13422,5.41283],[-75.134929,5.413112],[-75.135387,5.413333],[-75.135832,5.413579],[-75.136263,5.41385],[-75.136678,5.414145],[-75.137075,5.414463],[-75.137454,5.414803],[-75.137986,5.415351],[-75.138313,5.415741],[-75.138618,5.416149],[-75.1389,5.416573],[-75.139158,5.417012],[-75.139497,5.417697],[-75.139776,5.418408],[-75.139929,5.418894],[-75.140055,5.419388],[-75.140152,5.419888],[-75.140221,5.420393],[-75.140262,5.420901],[-75.140269,5.421666],[-75.140238,5.422174],[-75.140179,5.422681],[-75.140037,5.423431],[-75.139907,5.423924],[-75.139661,5.424648],[-75.139463,5.425117],[-75.139118,5.425799],[-75.138857,5.426236],[-75.13842,5.426862],[-75.138099,5.427258],[-75.137579,5.427817],[-75.137206,5.428164],[-75.136613,5.428644],[-75.136945,5.429027],[-75.137255,5.429429],[-75.137542,5.429847],[-75.137805,5.430281],[-75.138153,5.430957],[-75.138353,5.431424],[-75.138527,5.4319],[-75.138673,5.432386],[-75.138793,5.43288],[-75.138884,5.433379],[-75.138948,5.433883],[-75.138983,5.434389],[-75.138989,5.434897],[-75.138967,5.435404],[-75.138917,5.435909],[-75.138789,5.436659],[-75.138669,5.437152],[-75.138521,5.437638],[-75.13825,5.438349],[-75.137919,5.439034],[-75.137667,5.439475],[-75.137244,5.440107],[-75.136995,5.440548],[-75.136575,5.441182],[-75.136104,5.441777],[-75.135584,5.442331],[-75.13502,5.442839],[-75.134416,5.443299],[-75.133775,5.443705],[-75.133329,5.443945],[-75.132871,5.44416],[-75.132163,5.444434],[-75.131435,5.444647],[-75.130691,5.444798],[-75.129938,5.444885],[-75.129721,5.445345],[-75.129478,5.445791],[-75.129211,5.446223],[-75.12892,5.44664],[-75.12844,5.447232],[-75.128094,5.447603],[-75.127727,5.447954],[-75.127141,5.448441],[-75.126729,5.448737],[-75.126301,5.44901],[-75.125632,5.449373],[-75.12517,5.449583],[-75.124697,5.449766],[-75.125009,5.450456],[-75.125184,5.45093],[-75.125333,5.451413],[-75.125454,5.451904],[-75.125548,5.4524],[-75.125615,5.452901],[-75.125653,5.453405],[-75.125932,5.453826],[-75.126187,5.454262],[-75.126418,5.454712],[-75.126623,5.455173],[-75.126881,5.455885],[-75.12702,5.456371],[-75.127132,5.456864],[-75.127216,5.457362],[-75.127272,5.457864],[-75.1273,5.458369],[-75.1273,5.458874],[-75.127272,5.459379],[-75.127168,5.460353],[-75.127096,5.460823],[-75.126999,5.461288],[-75.126809,5.461974],[-75.127074,5.462409],[-75.127424,5.463087],[-75.127716,5.463793],[-75.127877,5.464276],[-75.128067,5.465016],[-75.128159,5.465517],[-75.128222,5.466022],[-75.128264,5.466785],[-75.128256,5.467295],[-75.12822,5.467803],[-75.128155,5.468308],[-75.128062,5.468809],[-75.12794,5.469303],[-75.127792,5.46979],[-75.127616,5.470268],[-75.127413,5.470736],[-75.127061,5.471413],[-75.126653,5.472058],[-75.126351,5.472468],[-75.126027,5.472861],[-75.125682,5.473234],[-75.125315,5.473588],[-75.124924,5.474244],[-75.124479,5.474864],[-75.123983,5.475445],[-75.123626,5.475808],[-75.123249,5.47615],[-75.122854,5.476471],[-75.122228,5.476908],[-75.121792,5.47717],[-75.121111,5.477515],[-75.120404,5.477801],[-75.119675,5.478027],[-75.11918,5.478142],[-75.118427,5.478263],[-75.117666,5.478319],[-75.11691,5.478312],[-75.11616,5.478241],[-75.115665,5.478159],[-75.115175,5.47805],[-75.114453,5.477835],[-75.113752,5.477561],[-75.113075,5.477229],[-75.112429,5.476842],[-75.111818,5.476402],[-75.111244,5.475913],[-75.110714,5.475377],[-75.11023,5.474799],[-75.109796,5.474183],[-75.109415,5.473532],[-75.109191,5.473082],[-75.108993,5.47262],[-75.108744,5.471907],[-75.108556,5.471177]]],[[[-75.24169,5.462627],[-75.242113,5.462907],[-75.242519,5.46321],[-75.243095,5.463706],[-75.243628,5.464249],[-75.243956,5.464635],[-75.244263,5.465039],[-75.244547,5.46546],[-75.244806,5.465896],[-75.245149,5.466575],[-75.245433,5.467281],[-75.245589,5.467764],[-75.245718,5.468255],[-75.245819,5.468752],[-75.245893,5.469254],[-75.245949,5.470014],[-75.245942,5.470775],[-75.245902,5.471281],[-75.245834,5.471784],[-75.245678,5.472529],[-75.245541,5.473017],[-75.245375,5.473497],[-75.245078,5.474198],[-75.244848,5.474649],[-75.244592,5.475088],[-75.244164,5.475717],[-75.24385,5.476115],[-75.243514,5.476495],[-75.242971,5.477028],[-75.242586,5.477357],[-75.242182,5.477664],[-75.241762,5.477947],[-75.241327,5.478207],[-75.240649,5.47855],[-75.239944,5.478834],[-75.239462,5.47899],[-75.238972,5.479119],[-75.238476,5.47922],[-75.237975,5.479292],[-75.237217,5.479349],[-75.236711,5.479351],[-75.236205,5.479324],[-75.235452,5.479231],[-75.234709,5.479075],[-75.234223,5.478937],[-75.233744,5.478771],[-75.233276,5.478579],[-75.232819,5.478361],[-75.232159,5.477986],[-75.231532,5.477557],[-75.230944,5.477077],[-75.230575,5.47673],[-75.230225,5.476363],[-75.229742,5.475777],[-75.229447,5.475365],[-75.229176,5.474937],[-75.22893,5.474494],[-75.228607,5.473805],[-75.228425,5.473333],[-75.228269,5.47285],[-75.22814,5.47236],[-75.22804,5.471863],[-75.227408,5.471431],[-75.226814,5.470948],[-75.226264,5.470415],[-75.225761,5.469839],[-75.225453,5.469431],[-75.225036,5.468789],[-75.224674,5.468114],[-75.224371,5.46741],[-75.224202,5.466928],[-75.224061,5.466437],[-75.223948,5.465938],[-75.223863,5.465435],[-75.223806,5.464927],[-75.223779,5.464416],[-75.22378,5.463906],[-75.22381,5.463395],[-75.223868,5.462888],[-75.223955,5.462384],[-75.224139,5.46164],[-75.224296,5.461154],[-75.22448,5.460678],[-75.224691,5.460212],[-75.224927,5.45976],[-75.225189,5.459321],[-75.225627,5.458693],[-75.226116,5.458104],[-75.226469,5.457735],[-75.227037,5.457221],[-75.227438,5.456906],[-75.228072,5.456477],[-75.22874,5.456104],[-75.229201,5.455887],[-75.229915,5.455611],[-75.230403,5.455462],[-75.231148,5.45529],[-75.231905,5.455181],[-75.232414,5.455145],[-75.233178,5.455145],[-75.23394,5.455209],[-75.234444,5.455288],[-75.23519,5.45546],[-75.235677,5.455609],[-75.236156,5.455785],[-75.236853,5.4561],[-75.237302,5.456342],[-75.237948,5.456753],[-75.238557,5.457216],[-75.239125,5.457729],[-75.239647,5.458289],[-75.24012,5.458891],[-75.240407,5.459314],[-75.24079,5.459977],[-75.241117,5.46067],[-75.241301,5.461146],[-75.241527,5.461879],[-75.24169,5.462627]]]]},"properties":{"area_ha":3907.6994}}]}