{"type":"FeatureCollection","features":[{"type":"Feature","id":0,"geometry":{"type":"MultiPolygon","coordinates":[[[[-75.198217,5.378599],[-75.197878,5.378568],[-75.197552,5.378474],[-75.197346,5.378378],[-75.197154,5.378257],[-75.196899,5.378033],[-75.19669,5.377765],[-75.196534,5.377462],[-75.196439,5.377135],[-75.196405,5.376797],[-75.196436,5.376457],[-75.19653,5.37613],[-75.196683,5.375826],[-75.19689,5.375557],[-75.197144,5.375331],[-75.197335,5.375208],[-75.19754,5.375111],[-75.197866,5.375015],[-75.198204,5.374981],[-75.198542,5.375012],[-75.198868,5.375106],[-75.199074,5.375202],[-75.199265,5.375323],[-75.199521,5.375547],[-75.19973,5.375815],[-75.199885,5.376118],[-75.199981,5.376445],[-75.200015,5.376784],[-75.199984,5.377122],[-75.19989,5.37745],[-75.199737,5.377754],[-75.19953,5.378023],[-75.199276,5.378249],[-75.199085,5.378372],[-75.19888,5.378469],[-75.198555,5.378565],[-75.198217,5.378599]]],[[[-75.198956,5.422529],[-75.198618,5.422498],[-75.198292,5.422404],[-75.197988,5.422251],[-75.197719,5.422043],[-75.197564,5.421878],[-75.19743,5.421695],[-75.197274,5.421392],[-75.197178,5.421065],[-75.197145,5.420727],[-75.197159,5.4205],[-75.1972,5.420277],[-75.197314,5.419956],[-75.197486,5.419662],[-75.19771,5.419406],[-75.197977,5.419196],[-75.198279,5.419041],[-75.198605,5.418945],[-75.198943,5.418911],[-75.199282,5.418942],[-75.199608,5.419036],[-75.199911,5.419189],[-75.200181,5.419397],[-75.200336,5.419562],[-75.20047,5.419745],[-75.200626,5.420048],[-75.200722,5.420375],[-75.200755,5.420713],[-75.200741,5.42094],[-75.2007,5.421163],[-75.200586,5.421484],[-75.200414,5.421778],[-75.20019,5.422034],[-75.199923,5.422244],[-75.19962,5.422399],[-75.199295,5.422495],[-75.198956,5.422529]]],[[[-75.131256,5.423179],[-75.130918,5.423148],[-75.130591,5.423054],[-75.130288,5.422901],[-75.130019,5.422693],[-75.129863,5.422528],[-75.129729,5.422345],[-75.129574,5.422042],[-75.129478,5.421715],[-75.129445,5.421376],[-75.129476,5.421037],[-75.12957,5.42071],[-75.129723,5.420406],[-75.12993,5.420136],[-75.130184,5.41991],[-75.130375,5.419788],[-75.13058,5.419691],[-75.130906,5.419595],[-75.131244,5.419561],[-75.131582,5.419592],[-75.131908,5.419686],[-75.132212,5.419839],[-75.132481,5.420047],[-75.132637,5.420212],[-75.132771,5.420395],[-75.132926,5.420698],[-75.133022,5.421025],[-75.133055,5.421364],[-75.133024,5.421703],[-75.132969,5.421923],[-75.132886,5.422134],[-75.132714,5.422428],[-75.13249,5.422684],[-75.132222,5.422894],[-75.13192,5.423049],[-75.131594,5.423146],[-75.131256,5.423179]]],[[[-75.228497,5.429749],[-75.228158,5.429718],[-75.227832,5.429624],[-75.227529,5.429471],[-75.227345,5.429338],[-75.227179,5.429183],[-75.22697,5.428915],[-75.226814,5.428612],[-75.226719,5.428285],[-75.226685,5.427947],[-75.226699,5.42772],[-75.22674,5.427497],[-75.226854,5.427176],[-75.227026,5.426882],[-75.22725,5.426626],[-75.227517,5.426417],[-75.227819,5.426261],[-75.228145,5.426165],[-75.228483,5.426131],[-75.228822,5.426162],[-75.229148,5.426256],[-75.229451,5.426409],[-75.229721,5.426617],[-75.229946,5.426871],[-75.230068,5.427063],[-75.230166,5.427268],[-75.230261,5.427595],[-75.230295,5.427933],[-75.230264,5.428272],[-75.23017,5.4286],[-75.230017,5.428903],[-75.229885,5.429088],[-75.22973,5.429254],[-75.229463,5.429464],[-75.229161,5.429619],[-75.228835,5.429715],[-75.228497,5.429749]]],[[[-75.131046,5.43621],[-75.130951,5.436535],[-75.130854,5.43674],[-75.130733,5.436931],[-75.130589,5.437105],[-75.130425,5.437259],[-75.130145,5.43745],[-75.129941,5.437547],[-75.129727,5.437617],[-75.129393,5.437671],[-75.129167,5.437672],[-75.128943,5.437644],[-75.128618,5.437551],[-75.128413,5.437456],[-75.128222,5.437336],[-75.127967,5.437113],[-75.127821,5.43694],[-75.127647,5.436649],[-75.127562,5.436439],[-75.127504,5.436221],[-75.127474,5.435996],[-75.127472,5.43577],[-75.127498,5.435545],[-75.127551,5.435326],[-75.127632,5.435114],[-75.127801,5.43482],[-75.127943,5.434644],[-75.128194,5.434417],[-75.128289,5.434092],[-75.128443,5.43379],[-75.128651,5.433522],[-75.128905,5.433298],[-75.129095,5.433177],[-75.129299,5.43308],[-75.129624,5.432985],[-75.129961,5.432952],[-75.130298,5.432983],[-75.130623,5.433076],[-75.130925,5.433229],[-75.131193,5.433435],[-75.131419,5.433688],[-75.131541,5.433878],[-75.131639,5.434082],[-75.131736,5.434407],[-75.131771,5.434744],[-75.131742,5.435082],[-75.131651,5.435408],[-75.131501,5.435712],[-75.131297,5.435983],[-75.131046,5.43621]]],[[[-75.12575,5.438704],[-75.125527,5.439082],[-75.125304,5.439323],[-75.12504,5.439521],[-75.124746,5.439667],[-75.124321,5.439774],[-75.12399,5.439785],[-75.123658,5.439734],[-75.123341,5.439622],[-75.123051,5.439453],[-75.122796,5.439234],[-75.122586,5.438971],[-75.122429,5.438673],[-75.122356,5.438461],[-75.12231,5.438241],[-75.122293,5.437905],[-75.122338,5.437571],[-75.122443,5.437252],[-75.122607,5.436957],[-75.122821,5.436699],[-75.12308,5.436484],[-75.123374,5.436321],[-75.123539,5.436024],[-75.123678,5.435845],[-75.123926,5.435613],[-75.124113,5.435487],[-75.124315,5.435384],[-75.124528,5.435308],[-75.124749,5.435259],[-75.124974,5.435238],[-75.125201,5.435246],[-75.125424,5.435281],[-75.125746,5.435387],[-75.125948,5.43549],[-75.126135,5.435618],[-75.126305,5.435768],[-75.126521,5.43603],[-75.126684,5.436327],[-75.126761,5.436541],[-75.12681,5.436762],[-75.126832,5.436988],[-75.126825,5.437214],[-75.126762,5.437548],[-75.126685,5.437762],[-75.126583,5.437964],[-75.126384,5.438239],[-75.126225,5.4384],[-75.126046,5.438539],[-75.12575,5.438704]]],[[[-75.121684,5.443052],[-75.121346,5.443021],[-75.121019,5.442927],[-75.120814,5.442831],[-75.120622,5.44271],[-75.120366,5.442486],[-75.120157,5.442218],[-75.120002,5.441915],[-75.119906,5.441588],[-75.119873,5.44125],[-75.119903,5.440911],[-75.119997,5.440583],[-75.12015,5.440279],[-75.120357,5.44001],[-75.120611,5.439784],[-75.120802,5.439661],[-75.121007,5.439564],[-75.121333,5.439468],[-75.121671,5.439434],[-75.12201,5.439465],[-75.122336,5.439559],[-75.122639,5.439713],[-75.122908,5.43992],[-75.123064,5.440085],[-75.123198,5.440269],[-75.123353,5.440571],[-75.123449,5.440898],[-75.123482,5.441237],[-75.123452,5.441576],[-75.123358,5.441903],[-75.123205,5.442207],[-75.122998,5.442477],[-75.122744,5.442703],[-75.122553,5.442825],[-75.122348,5.442923],[-75.122022,5.443019],[-75.121684,5.443052]]],[[[-75.095872,5.444488],[-75.095534,5.444458],[-75.095314,5.444402],[-75.095103,5.444319],[-75.09481,5.444147],[-75.094554,5.443922],[-75.094345,5.443654],[-75.09419,5.443351],[-75.094094,5.443025],[-75.094061,5.442686],[-75.094092,5.442347],[-75.094185,5.442019],[-75.094338,5.441716],[-75.094546,5.441446],[-75.0948,5.44122],[-75.095091,5.441046],[-75.095302,5.440961],[-75.095521,5.440904],[-75.095859,5.440871],[-75.096198,5.440902],[-75.096524,5.440995],[-75.09673,5.441091],[-75.096921,5.441212],[-75.097177,5.441437],[-75.097386,5.441705],[-75.097542,5.442008],[-75.097637,5.442334],[-75.097671,5.442673],[-75.09764,5.443012],[-75.097546,5.44334],[-75.097393,5.443643],[-75.097186,5.443913],[-75.096932,5.444139],[-75.096741,5.444262],[-75.096536,5.444359],[-75.09621,5.444455],[-75.095872,5.444488]]],[[[-75.113328,5.443434],[-75.113559,5.443063],[-75.11334,5.443002],[-75.113031,5.442861],[-75.112754,5.442664],[-75.112591,5.442505],[-75.11245,5.442327],[-75.112333,5.442133],[-75.11224,5.441926],[-75.112174,5.441708],[-75.112128,5.441371],[-75.112133,5.441144],[-75.112165,5.440919],[-75.112226,5.4407],[-75.112314,5.440491],[-75.112493,5.440201],[-75.11264,5.440029],[-75.112809,5.439877],[-75.113094,5.439691],[-75.113301,5.439598],[-75.113518,5.439533],[-75.113741,5.439494],[-75.113968,5.439485],[-75.114305,5.439524],[-75.11463,5.439625],[-75.114833,5.439726],[-75.115022,5.439852],[-75.115193,5.44],[-75.115345,5.440169],[-75.115475,5.440355],[-75.11558,5.440557],[-75.115965,5.44045],[-75.116202,5.440247],[-75.116471,5.440088],[-75.116664,5.440009],[-75.116966,5.439934],[-75.116822,5.439626],[-75.116739,5.439296],[-75.116718,5.438956],[-75.116761,5.438619],[-75.116867,5.438295],[-75.117031,5.437997],[-75.11717,5.437818],[-75.11733,5.437658],[-75.117605,5.437458],[-75.117913,5.437314],[-75.118241,5.43723],[-75.11858,5.437209],[-75.118806,5.43723],[-75.119135,5.437315],[-75.119442,5.43746],[-75.119716,5.43766],[-75.119949,5.437908],[-75.120076,5.438096],[-75.120178,5.438299],[-75.120255,5.438512],[-75.120305,5.438734],[-75.120326,5.43896],[-75.120319,5.439187],[-75.120283,5.439411],[-75.12022,5.439629],[-75.12013,5.439837],[-75.120015,5.440033],[-75.119876,5.440212],[-75.119716,5.440373],[-75.119537,5.440512],[-75.119342,5.440628],[-75.119134,5.440718],[-75.118806,5.440803],[-75.118942,5.441089],[-75.119004,5.441292],[-75.119254,5.441519],[-75.119396,5.441694],[-75.119565,5.441987],[-75.119646,5.442198],[-75.119717,5.442528],[-75.119725,5.442867],[-75.119696,5.44309],[-75.1196,5.443415],[-75.119446,5.443716],[-75.119313,5.443898],[-75.119158,5.444062],[-75.118985,5.444206],[-75.118794,5.444327],[-75.118485,5.444461],[-75.118156,5.444536],[-75.117931,5.444551],[-75.117711,5.444538],[-75.117285,5.444433],[-75.116897,5.444229],[-75.116855,5.444443],[-75.116746,5.444751],[-75.116882,5.444928],[-75.116996,5.44512],[-75.11712,5.445431],[-75.117185,5.44576],[-75.117193,5.445983],[-75.117175,5.446206],[-75.117096,5.446531],[-75.117011,5.446738],[-75.116901,5.446932],[-75.116693,5.447195],[-75.11644,5.447414],[-75.116251,5.447533],[-75.116049,5.447628],[-75.115728,5.447721],[-75.115395,5.447753],[-75.115059,5.447722],[-75.114735,5.44763],[-75.114433,5.447478],[-75.11425,5.447347],[-75.114084,5.447194],[-75.113875,5.446929],[-75.113764,5.446732],[-75.113679,5.446523],[-75.113601,5.446194],[-75.113586,5.445856],[-75.113634,5.445522],[-75.113488,5.44535],[-75.113312,5.445063],[-75.113192,5.444747],[-75.113133,5.444415],[-75.113136,5.444078],[-75.113202,5.443747],[-75.113328,5.443434]]],[[[-75.10481,5.447496],[-75.104735,5.447702],[-75.104575,5.447989],[-75.104442,5.448163],[-75.104204,5.448389],[-75.104025,5.448515],[-75.103731,5.44866],[-75.103522,5.448726],[-75.103199,5.448777],[-75.102863,5.448767],[-75.10264,5.448725],[-75.102424,5.448656],[-75.102121,5.448503],[-75.101852,5.448295],[-75.101696,5.44813],[-75.101562,5.447947],[-75.101407,5.447644],[-75.101311,5.447317],[-75.101282,5.447092],[-75.101281,5.446865],[-75.101309,5.446639],[-75.101364,5.446419],[-75.101498,5.446106],[-75.101688,5.445824],[-75.101928,5.445582],[-75.10211,5.445448],[-75.102413,5.445293],[-75.102492,5.445079],[-75.102598,5.444877],[-75.102728,5.44469],[-75.102881,5.444521],[-75.103147,5.444307],[-75.103448,5.444146],[-75.103774,5.444046],[-75.104113,5.444008],[-75.104453,5.444036],[-75.104674,5.444089],[-75.104887,5.44417],[-75.105183,5.444341],[-75.105441,5.444564],[-75.105654,5.444831],[-75.105812,5.445134],[-75.10591,5.445462],[-75.10594,5.445688],[-75.105942,5.445916],[-75.105891,5.446254],[-75.105778,5.446576],[-75.105606,5.446872],[-75.105382,5.447129],[-75.105114,5.44734],[-75.10481,5.447496]]],[[[-75.097651,5.453049],[-75.097313,5.453019],[-75.096986,5.452925],[-75.096683,5.452771],[-75.096499,5.452638],[-75.096333,5.452483],[-75.096124,5.452215],[-75.095969,5.451912],[-75.095873,5.451586],[-75.095839,5.451247],[-75.09587,5.450908],[-75.095964,5.450581],[-75.096117,5.450277],[-75.096324,5.450007],[-75.096579,5.449781],[-75.096769,5.449658],[-75.096974,5.449561],[-75.0973,5.449465],[-75.097638,5.449432],[-75.097977,5.449463],[-75.098196,5.449518],[-75.098407,5.449601],[-75.0987,5.449774],[-75.098956,5.449998],[-75.099165,5.450266],[-75.09932,5.450569],[-75.099416,5.450895],[-75.09945,5.451234],[-75.099419,5.451573],[-75.099325,5.451901],[-75.099172,5.452204],[-75.098965,5.452474],[-75.0988,5.45263],[-75.098617,5.452764],[-75.098315,5.45292],[-75.097989,5.453016],[-75.097651,5.453049]]],[[[-75.10588,5.45431],[-75.105542,5.454279],[-75.105215,5.454185],[-75.104912,5.454032],[-75.104643,5.453824],[-75.104487,5.453659],[-75.104353,5.453476],[-75.104198,5.453173],[-75.104102,5.452846],[-75.104069,5.452507],[-75.1041,5.452168],[-75.104193,5.451841],[-75.104346,5.451537],[-75.104554,5.451267],[-75.104808,5.451042],[-75.104999,5.450919],[-75.105203,5.450822],[-75.105529,5.450726],[-75.105867,5.450692],[-75.106206,5.450723],[-75.106532,5.450817],[-75.106836,5.450971],[-75.107019,5.451103],[-75.107185,5.451258],[-75.107394,5.451527],[-75.10755,5.451829],[-75.107646,5.452156],[-75.107679,5.452495],[-75.107648,5.452834],[-75.107554,5.453161],[-75.107459,5.453367],[-75.107338,5.453559],[-75.107114,5.453815],[-75.106846,5.454025],[-75.106544,5.454181],[-75.106218,5.454277],[-75.10588,5.45431]]],[[[-75.100683,5.456715],[-75.100345,5.456684],[-75.100018,5.456591],[-75.099715,5.456437],[-75.099531,5.456304],[-75.099366,5.456149],[-75.099156,5.455881],[-75.099001,5.455578],[-75.098905,5.455252],[-75.098872,5.454913],[-75.098903,5.454574],[-75.098996,5.454246],[-75.09915,5.453943],[-75.099357,5.453673],[-75.099611,5.453447],[-75.099802,5.453324],[-75.100007,5.453227],[-75.100332,5.453131],[-75.100671,5.453098],[-75.101009,5.453128],[-75.101229,5.453184],[-75.10144,5.453267],[-75.101733,5.453439],[-75.101988,5.453664],[-75.102198,5.453932],[-75.102353,5.454235],[-75.102449,5.454561],[-75.102482,5.4549],[-75.102451,5.455239],[-75.102357,5.455566],[-75.102204,5.45587],[-75.101997,5.45614],[-75.101743,5.456366],[-75.101451,5.45654],[-75.101132,5.456657],[-75.100909,5.4567],[-75.100683,5.456715]]],[[[-75.096467,5.463674],[-75.096129,5.463643],[-75.095802,5.463549],[-75.095499,5.463395],[-75.09523,5.463188],[-75.095004,5.462933],[-75.09483,5.462641],[-75.094714,5.462321],[-75.094671,5.462098],[-75.094656,5.461871],[-75.094686,5.461532],[-75.09478,5.461205],[-75.094933,5.460901],[-75.095141,5.460631],[-75.095395,5.460405],[-75.095686,5.460231],[-75.095897,5.460147],[-75.096116,5.460089],[-75.096454,5.460056],[-75.096793,5.460087],[-75.097119,5.460181],[-75.097423,5.460334],[-75.097692,5.460542],[-75.097848,5.460707],[-75.097981,5.46089],[-75.098137,5.461193],[-75.098233,5.46152],[-75.098266,5.461859],[-75.098235,5.462198],[-75.098141,5.462525],[-75.098045,5.462731],[-75.097925,5.462923],[-75.097701,5.463179],[-75.097433,5.463389],[-75.097131,5.463544],[-75.096805,5.463641],[-75.096467,5.463674]]],[[[-75.105683,5.462387],[-75.10538,5.462543],[-75.105054,5.46264],[-75.104715,5.462673],[-75.104433,5.462652],[-75.104319,5.462972],[-75.10421,5.463171],[-75.104003,5.46344],[-75.103749,5.463666],[-75.103558,5.463788],[-75.103247,5.463924],[-75.102916,5.464],[-75.102578,5.464011],[-75.102355,5.463984],[-75.102137,5.46393],[-75.101828,5.463798],[-75.101548,5.463611],[-75.101307,5.463375],[-75.101114,5.463099],[-75.100976,5.462791],[-75.100898,5.462463],[-75.100881,5.462127],[-75.100927,5.461793],[-75.101034,5.461473],[-75.101198,5.461179],[-75.101414,5.46092],[-75.101583,5.460772],[-75.10177,5.460646],[-75.10197,5.460545],[-75.102181,5.460469],[-75.1024,5.46042],[-75.102624,5.460398],[-75.102959,5.460418],[-75.103028,5.460205],[-75.103122,5.460002],[-75.103241,5.459812],[-75.103382,5.459638],[-75.10363,5.459414],[-75.103818,5.459291],[-75.104018,5.459193],[-75.10423,5.45912],[-75.104449,5.459074],[-75.104783,5.459057],[-75.105005,5.45908],[-75.105223,5.45913],[-75.105433,5.459208],[-75.105632,5.45931],[-75.105816,5.459436],[-75.105984,5.459584],[-75.106132,5.459752],[-75.106258,5.459937],[-75.106361,5.460136],[-75.106438,5.460346],[-75.106504,5.460675],[-75.106701,5.460565],[-75.10691,5.460481],[-75.107129,5.460423],[-75.107352,5.460393],[-75.10721,5.460086],[-75.107147,5.459868],[-75.107113,5.459645],[-75.107114,5.459306],[-75.107178,5.458973],[-75.107254,5.45876],[-75.107357,5.458559],[-75.107556,5.458284],[-75.107802,5.458052],[-75.107989,5.457925],[-75.108189,5.457822],[-75.108511,5.457716],[-75.108846,5.457672],[-75.108975,5.457486],[-75.10921,5.457241],[-75.10939,5.457105],[-75.109585,5.456991],[-75.109794,5.456904],[-75.110011,5.456842],[-75.110347,5.456803],[-75.110685,5.456827],[-75.110905,5.456878],[-75.111117,5.456956],[-75.111318,5.45706],[-75.111504,5.457189],[-75.111749,5.457422],[-75.111887,5.457602],[-75.112049,5.4579],[-75.112124,5.458113],[-75.112173,5.458334],[-75.112193,5.45856],[-75.112494,5.458471],[-75.112911,5.458437],[-75.112968,5.458101],[-75.113041,5.457886],[-75.11314,5.457682],[-75.113335,5.457403],[-75.113492,5.457239],[-75.113669,5.457096],[-75.113862,5.456977],[-75.114068,5.456883],[-75.114285,5.456815],[-75.114508,5.456776],[-75.114848,5.456769],[-75.115072,5.456801],[-75.115291,5.45686],[-75.115501,5.456947],[-75.115651,5.456539],[-75.115893,5.45618],[-75.116214,5.455889],[-75.116496,5.455725],[-75.116698,5.455645],[-75.116429,5.455634],[-75.116217,5.455596],[-75.115911,5.455493],[-75.11572,5.455394],[-75.115538,5.455525],[-75.115342,5.455632],[-75.115027,5.455745],[-75.114697,5.455798],[-75.114359,5.455788],[-75.114027,5.455715],[-75.113714,5.455581],[-75.113433,5.45539],[-75.113267,5.455235],[-75.113122,5.455061],[-75.113,5.454869],[-75.112903,5.454664],[-75.112832,5.454448],[-75.112789,5.454225],[-75.112774,5.453998],[-75.112787,5.453772],[-75.112829,5.453548],[-75.112601,5.453564],[-75.112262,5.453533],[-75.112043,5.453477],[-75.11173,5.453343],[-75.111539,5.453222],[-75.111283,5.452998],[-75.111074,5.452729],[-75.110918,5.452426],[-75.110823,5.4521],[-75.110793,5.451874],[-75.110793,5.451647],[-75.110845,5.451311],[-75.110959,5.45099],[-75.111067,5.450791],[-75.111275,5.450521],[-75.111439,5.450365],[-75.111622,5.450231],[-75.111821,5.450121],[-75.112031,5.450036],[-75.112251,5.449979],[-75.112475,5.44995],[-75.112702,5.449949],[-75.112927,5.449977],[-75.113147,5.450033],[-75.113459,5.450167],[-75.113741,5.450358],[-75.113982,5.450598],[-75.114174,5.450879],[-75.114309,5.451191],[-75.114384,5.451523],[-75.114396,5.451863],[-75.114344,5.452199],[-75.11467,5.452186],[-75.114994,5.452233],[-75.115303,5.452336],[-75.115497,5.452436],[-75.115779,5.452247],[-75.115984,5.452152],[-75.1162,5.452083],[-75.116535,5.452032],[-75.116873,5.452044],[-75.117204,5.45212],[-75.117514,5.452256],[-75.117794,5.452448],[-75.118033,5.452689],[-75.118165,5.452873],[-75.118274,5.453072],[-75.118388,5.453392],[-75.11843,5.453614],[-75.118443,5.453841],[-75.118429,5.454067],[-75.118386,5.454289],[-75.118316,5.454505],[-75.118219,5.45471],[-75.118098,5.454901],[-75.117954,5.455076],[-75.117789,5.455231],[-75.117606,5.455364],[-75.117408,5.455474],[-75.117198,5.455557],[-75.117537,5.455578],[-75.117867,5.455662],[-75.118174,5.455807],[-75.118449,5.456007],[-75.118682,5.456255],[-75.11881,5.456443],[-75.118913,5.456646],[-75.119018,5.45697],[-75.119309,5.457134],[-75.119564,5.45735],[-75.119776,5.457609],[-75.119936,5.457903],[-75.12004,5.458221],[-75.120083,5.458553],[-75.120077,5.458776],[-75.120018,5.459106],[-75.120017,5.459332],[-75.119987,5.459556],[-75.119892,5.45988],[-75.119738,5.460182],[-75.11953,5.460449],[-75.119366,5.460604],[-75.119184,5.460737],[-75.118986,5.460846],[-75.118777,5.460929],[-75.118447,5.461004],[-75.118222,5.461019],[-75.118002,5.461006],[-75.117678,5.460937],[-75.117472,5.460858],[-75.117277,5.460755],[-75.117011,5.460557],[-75.116786,5.460315],[-75.116662,5.460132],[-75.116521,5.459832],[-75.116458,5.45962],[-75.116411,5.459181],[-75.116324,5.459385],[-75.116149,5.459666],[-75.116005,5.459834],[-75.115753,5.46005],[-75.115467,5.460216],[-75.115261,5.460296],[-75.114938,5.460368],[-75.114649,5.460381],[-75.114593,5.460713],[-75.114522,5.460926],[-75.114425,5.461129],[-75.114234,5.461406],[-75.113995,5.461643],[-75.113716,5.461831],[-75.113408,5.461965],[-75.11308,5.462039],[-75.112856,5.462054],[-75.112523,5.462024],[-75.112201,5.461933],[-75.111902,5.461784],[-75.111634,5.461582],[-75.111409,5.461335],[-75.111233,5.46105],[-75.111147,5.460844],[-75.111086,5.460629],[-75.111045,5.460296],[-75.110754,5.460382],[-75.110453,5.460419],[-75.110188,5.460758],[-75.10985,5.461024],[-75.109458,5.461203],[-75.109036,5.461284],[-75.109136,5.461483],[-75.109211,5.461693],[-75.10926,5.461911],[-75.109282,5.462132],[-75.109276,5.462355],[-75.109243,5.462576],[-75.109183,5.46279],[-75.109098,5.462996],[-75.108987,5.46319],[-75.108854,5.463368],[-75.1087,5.463529],[-75.108527,5.46367],[-75.108338,5.463788],[-75.108137,5.463882],[-75.107925,5.46395],[-75.107706,5.463992],[-75.107374,5.464003],[-75.107046,5.463954],[-75.106634,5.463797],[-75.106357,5.463615],[-75.106118,5.463386],[-75.105924,5.463117],[-75.105782,5.462817],[-75.105683,5.462387]]],[[[-75.232807,5.465989],[-75.232468,5.465958],[-75.232249,5.465902],[-75.232038,5.465819],[-75.231745,5.465647],[-75.231489,5.465423],[-75.23128,5.465155],[-75.231124,5.464852],[-75.231028,5.464525],[-75.230995,5.464187],[-75.231026,5.463848],[-75.231119,5.46352],[-75.231273,5.463217],[-75.23148,5.462947],[-75.231734,5.462721],[-75.231925,5.462598],[-75.232129,5.462501],[-75.232455,5.462405],[-75.232793,5.462371],[-75.233132,5.462402],[-75.233351,5.462458],[-75.233562,5.462541],[-75.233855,5.462713],[-75.234111,5.462937],[-75.23432,5.463205],[-75.234476,5.463508],[-75.234572,5.463834],[-75.234605,5.464173],[-75.234574,5.464512],[-75.234481,5.46484],[-75.234328,5.465143],[-75.23412,5.465413],[-75.233866,5.465639],[-75.233675,5.465762],[-75.233471,5.465859],[-75.233145,5.465955],[-75.232807,5.465989]]],[[[-75.097356,5.467298],[-75.097017,5.467267],[-75.096691,5.467174],[-75.096388,5.46702],[-75.096204,5.466887],[-75.096038,5.466732],[-75.095829,5.466464],[-75.095674,5.466161],[-75.095578,5.465835],[-75.095544,5.465496],[-75.095575,5.465157],[-75.095669,5.464829],[-75.095822,5.464525],[-75.096029,5.464256],[-75.096194,5.4641],[-75.096377,5.463966],[-75.096679,5.46381],[-75.097005,5.463714],[-75.097343,5.463681],[-75.097681,5.463711],[-75.098008,5.463805],[-75.098311,5.463959],[-75.098495,5.464092],[-75.098661,5.464247],[-75.09887,5.464515],[-75.099025,5.464818],[-75.099121,5.465144],[-75.099154,5.465483],[-75.099124,5.465822],[-75.09903,5.466149],[-75.098877,5.466453],[-75.098669,5.466723],[-75.098416,5.466949],[-75.098124,5.467123],[-75.097804,5.46724],[-75.097582,5.467283],[-75.097356,5.467298]]],[[[-75.11753,5.467477],[-75.117452,5.467145],[-75.117437,5.466805],[-75.117487,5.466468],[-75.117599,5.466146],[-75.11777,5.465851],[-75.117992,5.465593],[-75.118259,5.465381],[-75.118457,5.46527],[-75.118668,5.465185],[-75.118999,5.465107],[-75.119339,5.465094],[-75.119675,5.465145],[-75.119892,5.465213],[-75.120098,5.465309],[-75.120381,5.465498],[-75.120623,5.465738],[-75.120816,5.466018],[-75.120953,5.46633],[-75.121011,5.46655],[-75.121041,5.466776],[-75.121042,5.467003],[-75.121015,5.467229],[-75.12096,5.46745],[-75.120877,5.467662],[-75.120769,5.467862],[-75.120636,5.468046],[-75.120482,5.468213],[-75.120307,5.468359],[-75.120116,5.468481],[-75.119911,5.468579],[-75.119696,5.46865],[-75.119473,5.468694],[-75.119091,5.468703],[-75.11915,5.468923],[-75.11918,5.469149],[-75.119182,5.469377],[-75.119156,5.469603],[-75.119064,5.469932],[-75.118968,5.470139],[-75.118848,5.470333],[-75.118704,5.470509],[-75.118539,5.470667],[-75.118356,5.470802],[-75.118157,5.470913],[-75.117946,5.470998],[-75.117726,5.471055],[-75.1175,5.471085],[-75.117274,5.471086],[-75.116943,5.471035],[-75.116626,5.470923],[-75.116335,5.470755],[-75.116161,5.470614],[-75.116006,5.470453],[-75.115813,5.470177],[-75.115674,5.469871],[-75.115594,5.469544],[-75.115575,5.46932],[-75.115584,5.469096],[-75.115649,5.468766],[-75.115726,5.468555],[-75.115828,5.468356],[-75.116026,5.468084],[-75.11627,5.467853],[-75.116553,5.467672],[-75.116865,5.467547],[-75.117194,5.467481],[-75.11753,5.467477]]],[[[-75.236937,5.472119],[-75.236598,5.472088],[-75.236379,5.472032],[-75.236168,5.471949],[-75.235875,5.471777],[-75.235619,5.471553],[-75.23541,5.471285],[-75.235254,5.470982],[-75.235158,5.470656],[-75.235125,5.470317],[-75.235156,5.469978],[-75.235249,5.469651],[-75.235403,5.469347],[-75.23561,5.469077],[-75.235774,5.468921],[-75.235957,5.468787],[-75.236259,5.468631],[-75.236585,5.468535],[-75.236923,5.468501],[-75.237262,5.468532],[-75.237481,5.468588],[-75.237692,5.468671],[-75.237985,5.468843],[-75.238241,5.469067],[-75.23845,5.469335],[-75.238606,5.469638],[-75.238702,5.469965],[-75.238735,5.470303],[-75.238704,5.470642],[-75.238611,5.470969],[-75.238457,5.471273],[-75.23825,5.471543],[-75.237996,5.471769],[-75.237705,5.471944],[-75.237385,5.47206],[-75.237163,5.472103],[-75.236937,5.472119]]]]},"properties":{"area_ha":431.7748}}]}