{"type":"FeatureCollection","features":[{"type":"Feature","id":0,"geometry":{"type":"Point","coordinates":[-75.124096,5.437979]},"properties":{"id_registro":"RIESGO 1","fecha":"2023/08/03 15:29:18","zona":"uso_intensivo"}},{"type":"Feature","id":1,"geometry":{"type":"Point","coordinates":[-75.129274,5.435866]},"properties":{"id_registro":"CRITICO 2","fecha":"2023/08/03 18:19:17","zona":"uso_intensivo"}},{"type":"Feature","id":2,"geometry":{"type":"Point","coordinates":[-75.117257,5.457365]},"properties":{"id_registro":"RIESGO DESLIZAMIENTO CA","fecha":"2023/08/15 18:56:07","zona":"conservacion"}},{"type":"Feature","id":3,"geometry":{"type":"Point","coordinates":[-75.114711,5.458573]},"properties":{"id_registro":"RIESGO DESLIZAMIENTO","fecha":"2023/08/15 19:24:21","zona":"conservacion"}}]}