{"type":"FeatureCollection","features":[{"type":"Feature","id":0,"geometry":{"type":"Point","coordinates":[-75.11924,5.4669]},"properties":{"id_registro":"APC_BRDEH_CAL_PNS_21_2","zona":"entorno"}},{"type":"Feature","id":1,"geometry":{"type":"Point","coordinates":[-75.2328,5.46418]},"properties":{"id_registro":"APS_BRDEH_CAL_PNS_35_5","zona":"entorno"}},{"type":"Feature","id":2,"geometry":{"type":"Point","coordinates":[-75.19895,5.42072]},"properties":{"id_registro":"APS_BRDEH_CAL_PNS_55_5","zona":"entorno"}},{"type":"Feature","id":3,"geometry":{"type":"Point","coordinates":[-75.19821,5.37679]},"properties":{"id_registro":"APS_BRDEH_CAL_PNS_55_6","zona":"entorno"}},{"type":"Feature","id":4,"geometry":{"type":"Point","coordinates":[-75.11738,5.46928]},"properties":{"id_registro":"APS_BRDEH_CAL_PNS_20_2","zona":"entorno"}},{"type":"Feature","id":5,"geometry":{"type":"Point","coordinates":[-75.22849,5.42794]},"properties":{"id_registro":"APS_BRDEH_CAL_PNS_42_2","zona":"entorno"}},{"type":"Feature","id":6,"geometry":{"type":"Point","coordinates":[-75.23693,5.47031]},"properties":{"id_registro":"AP_BRDEH_CAL_PNS_35_4","zona":"entorno"}},{"type":"Feature","id":7,"geometry":{"type":"Point","coordinates":[-75.11725,5.44172]},"properties":{"id_registro":"AP_BRDEH_CAL_PNS_26_1","zona":"uso_intensivo"}},{"type":"Feature","id":8,"geometry":{"type":"Point","coordinates":[-75.13125,5.42137]},"properties":{"id_registro":"AP_BRDEH_CAL_PNS_46_1","zona":"entorno"}}]}