{"type":"FeatureCollection","features":[{"type":"Feature","id":0,"geometry":{"type":"Point","coordinates":[-75.10414,5.445817]},"properties":{"fecha":"2024-04-13","localidad":"Cerro Secuestrado 2","cobertura":"BA","nombre_comun":"Perro doméstico","individuos":1.0,"zona":"conservacion"}},{"type":"Feature","id":1,"geometry":{"type":"Point","coordinates":[-75.10414,5.445817]},"properties":{"fecha":"2024-04-13","localidad":"Cerro Secuestrado 2","cobertura":"BA","nombre_comun":"Perro doméstico","individuos":1.0,"zona":"conservacion"}},{"type":"Feature","id":2,"geometry":{"type":"Point","coordinates":[-75.10414,5.445817]},"properties":{"fecha":"2024-04-13","localidad":"Cerro Secuestrado 2","cobertura":"BA","nombre_comun":"Perro doméstico","individuos":2.0,"zona":"conservacion"}},{"type":"Feature","id":3,"geometry":{"type":"Point","coordinates":[-75.103083,5.446972]},"properties":{"fecha":"2024-04-01","localidad":"Cerro Secuestrado 1","cobertura":"BA","nombre_comun":"Perro doméstico","individuos":1.0,"zona":"entorno"}},{"type":"Feature","id":4,"geometry":{"type":"Point","coordinates":[-75.103083,5.446972]},"properties":{"fecha":"2024-04-01","localidad":"Cerro Secuestrado 1","cobertura":"BA","nombre_comun":"Perro doméstico","individuos":1.0,"zona":"entorno"}},{"type":"Feature","id":5,"geometry":{"type":"Point","coordinates":[-75.110389,5.458611]},"properties":{"fecha":"2024-05-12","localidad":"Boquerón","cobertura":"BA","nombre_comun":"Perro doméstico","individuos":1.0,"zona":"conservacion"}},{"type":"Feature","id":6,"geometry":{"type":"Point","coordinates":[-75.110389,5.458611]},"properties":{"fecha":"2024-05-12","localidad":"Boquerón","cobertura":"BA","nombre_comun":"Perro doméstico","individuos":1.0,"zona":"conservacion"}},{"type":"Feature","id":7,"geometry":{"type":"Point","coordinates":[-75.103083,5.446972]},"properties":{"fecha":"2024-06-28","localidad":"Cerro Secuestrado 1","cobertura":"BA","nombre_comun":"Perro doméstico","individuos":1.0,"zona":"entorno"}},{"type":"Feature","id":8,"geometry":{"type":"Point","coordinates":[-75.103083,5.446972]},"properties":{"fecha":"2024-06-28","localidad":"Cerro Secuestrado 1","cobertura":"BA","nombre_comun":"Perro doméstico","individuos":1.0,"zona":"entorno"}},{"type":"Feature","id":9,"geometry":{"type":"Point","coordinates":[-75.103083,5.446972]},"properties":{"fecha":"2024-06-28","localidad":"Cerro Secuestrado 1","cobertura":"BA","nombre_comun":"Perro doméstico","individuos":1.0,"zona":"entorno"}},{"type":"Feature","id":10,"geometry":{"type":"Point","coordinates":[-75.103083,5.446972]},"properties":{"fecha":"2024-06-28","localidad":"Cerro Secuestrado 1","cobertura":"BA","nombre_comun":"Perro doméstico","individuos":1.0,"zona":"entorno"}},{"type":"Feature","id":11,"geometry":{"type":"Point","coordinates":[-75.103083,5.446972]},"properties":{"fecha":"2024-06-28","localidad":"Cerro Secuestrado 1","cobertura":"BA","nombre_comun":"Perro doméstico","individuos":1.0,"zona":"entorno"}},{"type":"Feature","id":12,"geometry":{"type":"Point","coordinates":[-75.103083,5.446972]},"properties":{"fecha":"2024-06-28","localidad":"Cerro Secuestrado 1","cobertura":"BA","nombre_comun":"Perro doméstico","individuos":1.0,"zona":"entorno"}},{"type":"Feature","id":13,"geometry":{"type":"Point","coordinates":[-75.115389,5.445944]},"properties":{"fecha":"2024-06-22","localidad":"Camino Aserradero","cobertura":"BA","nombre_comun":"Perro doméstico","individuos":2.0,"zona":"conservacion"}},{"type":"Feature","id":14,"geometry":{"type":"Point","coordinates":[-75.103083,5.446972]},"properties":{"fecha":"2024-07-03","localidad":"Cerro Secuestrado 1","cobertura":"BA","nombre_comun":"Perro doméstico","individuos":1.0,"zona":"entorno"}},{"type":"Feature","id":15,"geometry":{"type":"Point","coordinates":[-75.103083,5.446972]},"properties":{"fecha":"2024-07-03","localidad":"Cerro Secuestrado 1","cobertura":"BA","nombre_comun":"Perro doméstico","individuos":1.0,"zona":"entorno"}},{"type":"Feature","id":16,"geometry":{"type":"Point","coordinates":[-75.110389,5.458611]},"properties":{"fecha":"2024-09-22","localidad":"Boquerón","cobertura":"BA","nombre_comun":"Perro doméstico","individuos":1.0,"zona":"conservacion"}},{"type":"Feature","id":17,"geometry":{"type":"Point","coordinates":[-75.110389,5.458611]},"properties":{"fecha":"2024-09-22","localidad":"Boquerón","cobertura":"BA","nombre_comun":"Perro doméstico","individuos":1.0,"zona":"conservacion"}},{"type":"Feature","id":18,"geometry":{"type":"Point","coordinates":[-75.110389,5.458611]},"properties":{"fecha":"2024-09-22","localidad":"Boquerón","cobertura":"BA","nombre_comun":"Perro doméstico","individuos":1.0,"zona":"conservacion"}},{"type":"Feature","id":19,"geometry":{"type":"Point","coordinates":[-75.110389,5.458611]},"properties":{"fecha":"2024-09-22","localidad":"Boquerón","cobertura":"BA","nombre_comun":"Perro doméstico","individuos":4.0,"zona":"conservacion"}},{"type":"Feature","id":20,"geometry":{"type":"Point","coordinates":[-75.110389,5.458611]},"properties":{"fecha":"2024-09-22","localidad":"Boquerón","cobertura":"BA","nombre_comun":"Perro doméstico","individuos":2.0,"zona":"conservacion"}},{"type":"Feature","id":21,"geometry":{"type":"Point","coordinates":[-75.110389,5.458611]},"properties":{"fecha":"2024-09-22","localidad":"Boquerón","cobertura":"BA","nombre_comun":"Perro doméstico","individuos":2.0,"zona":"conservacion"}},{"type":"Feature","id":22,"geometry":{"type":"Point","coordinates":[-75.110389,5.458611]},"properties":{"fecha":"2024-09-22","localidad":"Boquerón","cobertura":"BA","nombre_comun":"Perro doméstico","individuos":2.0,"zona":"conservacion"}},{"type":"Feature","id":23,"geometry":{"type":"Point","coordinates":[-75.110389,5.458611]},"properties":{"fecha":"2024-09-22","localidad":"Boquerón","cobertura":"BA","nombre_comun":"Perro doméstico","individuos":3.0,"zona":"conservacion"}},{"type":"Feature","id":24,"geometry":{"type":"Point","coordinates":[-75.110389,5.458611]},"properties":{"fecha":"2024-09-22","localidad":"Boquerón","cobertura":"BA","nombre_comun":"Perro doméstico","individuos":1.0,"zona":"conservacion"}},{"type":"Feature","id":25,"geometry":{"type":"Point","coordinates":[-75.110389,5.458611]},"properties":{"fecha":"2024-09-22","localidad":"Boquerón","cobertura":"BA","nombre_comun":"Perro doméstico","individuos":1.0,"zona":"conservacion"}},{"type":"Feature","id":26,"geometry":{"type":"Point","coordinates":[-75.110389,5.458611]},"properties":{"fecha":"2024-09-22","localidad":"Boquerón","cobertura":"BA","nombre_comun":"Perro doméstico","individuos":1.0,"zona":"conservacion"}},{"type":"Feature","id":27,"geometry":{"type":"Point","coordinates":[-75.103083,5.446972]},"properties":{"fecha":"2024-10-11","localidad":"Cerro Secuestrado 1","cobertura":"BA","nombre_comun":"Perro doméstico","individuos":1.0,"zona":"entorno"}},{"type":"Feature","id":28,"geometry":{"type":"Point","coordinates":[-75.103083,5.446972]},"properties":{"fecha":"2024-11-11","localidad":"Cerro Secuestrado 1","cobertura":"BA","nombre_comun":"Perro doméstico","individuos":2.0,"zona":"entorno"}},{"type":"Feature","id":29,"geometry":{"type":"Point","coordinates":[-75.103083,5.446972]},"properties":{"fecha":"2024-12-11","localidad":"Cerro Secuestrado 1","cobertura":"BA","nombre_comun":"Perro doméstico","individuos":1.0,"zona":"entorno"}},{"type":"Feature","id":30,"geometry":{"type":"Point","coordinates":[-75.103083,5.446972]},"properties":{"fecha":"2024-12-11","localidad":"Cerro Secuestrado 1","cobertura":"BA","nombre_comun":"Perro doméstico","individuos":1.0,"zona":"entorno"}},{"type":"Feature","id":31,"geometry":{"type":"Point","coordinates":[-75.103083,5.446972]},"properties":{"fecha":"2024-12-11","localidad":"Cerro Secuestrado 1","cobertura":"BA","nombre_comun":"Perro doméstico","individuos":1.0,"zona":"entorno"}}]}