{"type":"FeatureCollection","features":[{"type":"Feature","id":0,"geometry":{"type":"Point","coordinates":[-75.118279,5.45862]},"properties":{"observacion":null,"zona":"uso_intensivo"}},{"type":"Feature","id":1,"geometry":{"type":"Point","coordinates":[-75.118216,5.45921]},"properties":{"observacion":null,"zona":"entorno"}},{"type":"Feature","id":2,"geometry":{"type":"Point","coordinates":[-75.11285,5.460245]},"properties":{"observacion":"HONGO_BD","zona":"conservacion"}},{"type":"Feature","id":3,"geometry":{"type":"Point","coordinates":[-75.112595,5.451755]},"properties":{"observacion":null,"zona":"restauracion"}},{"type":"Feature","id":4,"geometry":{"type":"Point","coordinates":[-75.114579,5.453993]},"properties":{"observacion":"PERSONAS","zona":"conservacion"}},{"type":"Feature","id":5,"geometry":{"type":"Point","coordinates":[-75.129966,5.434761]},"properties":{"observacion":"VACAS","zona":"entorno"}},{"type":"Feature","id":6,"geometry":{"type":"Point","coordinates":[-75.115389,5.445944]},"properties":{"observacion":"PERROS","zona":"conservacion"}},{"type":"Feature","id":7,"geometry":{"type":"Point","coordinates":[-75.10414,5.445817]},"properties":{"observacion":"PERROS","zona":"conservacion"}},{"type":"Feature","id":8,"geometry":{"type":"Point","coordinates":[-75.103083,5.446972]},"properties":{"observacion":"PERROS","zona":"entorno"}},{"type":"Feature","id":9,"geometry":{"type":"Point","coordinates":[-75.110389,5.458611]},"properties":{"observacion":"PERROS","zona":"conservacion"}},{"type":"Feature","id":10,"geometry":{"type":"Point","coordinates":[-75.105874,5.452501]},"properties":{"observacion":"VACAS","zona":"conservacion"}},{"type":"Feature","id":11,"geometry":{"type":"Point","coordinates":[-75.121678,5.441243]},"properties":{"observacion":"VACAS","zona":"conservacion"}},{"type":"Feature","id":12,"geometry":{"type":"Point","coordinates":[-75.10891,5.45948]},"properties":{"observacion":null,"zona":"entorno"}},{"type":"Feature","id":13,"geometry":{"type":"Point","coordinates":[-75.107478,5.462198]},"properties":{"observacion":null,"zona":"entorno"}},{"type":"Feature","id":14,"geometry":{"type":"Point","coordinates":[-75.102684,5.462206]},"properties":{"observacion":null,"zona":"entorno"}},{"type":"Feature","id":15,"geometry":{"type":"Point","coordinates":[-75.104709,5.460864]},"properties":{"observacion":null,"zona":"entorno"}},{"type":"Feature","id":16,"geometry":{"type":"Point","coordinates":[-75.100677,5.454906]},"properties":{"observacion":null,"zona":"entorno"}},{"type":"Feature","id":17,"geometry":{"type":"Point","coordinates":[-75.097645,5.451241]},"properties":{"observacion":null,"zona":"entorno"}},{"type":"Feature","id":18,"geometry":{"type":"Point","coordinates":[-75.096461,5.461865]},"properties":{"observacion":null,"zona":"entorno"}},{"type":"Feature","id":19,"geometry":{"type":"Point","coordinates":[-75.097349,5.465489]},"properties":{"observacion":null,"zona":"entorno"}},{"type":"Feature","id":20,"geometry":{"type":"Point","coordinates":[-75.125028,5.437046]},"properties":{"observacion":null,"zona":"uso_intensivo"}},{"type":"Feature","id":21,"geometry":{"type":"Point","coordinates":[-75.11625,5.442236]},"properties":{"observacion":null,"zona":"conservacion"}},{"type":"Feature","id":22,"geometry":{"type":"Point","coordinates":[-75.113931,5.441293]},"properties":{"observacion":null,"zona":"uso_intensivo"}},{"type":"Feature","id":23,"geometry":{"type":"Point","coordinates":[-75.115108,5.443991]},"properties":{"observacion":null,"zona":"amortiguacion"}},{"type":"Feature","id":24,"geometry":{"type":"Point","coordinates":[-75.095866,5.442679]},"properties":{"observacion":null,"zona":"entorno"}},{"type":"Feature","id":25,"geometry":{"type":"Point","coordinates":[-75.117257,5.457365]},"properties":{"observacion":null,"zona":"conservacion"}},{"type":"Feature","id":26,"geometry":{"type":"Point","coordinates":[-75.114711,5.458573]},"properties":{"observacion":null,"zona":"conservacion"}},{"type":"Feature","id":27,"geometry":{"type":"Point","coordinates":[-75.129274,5.435866]},"properties":{"observacion":null,"zona":"uso_intensivo"}},{"type":"Feature","id":28,"geometry":{"type":"Point","coordinates":[-75.124096,5.437979]},"properties":{"observacion":null,"zona":"uso_intensivo"}},{"type":"Feature","id":29,"geometry":{"type":"Point","coordinates":[-75.118522,5.439016]},"properties":{"observacion":null,"zona":"conservacion"}},{"type":"Feature","id":30,"geometry":{"type":"Point","coordinates":[-75.114932,5.444264]},"properties":{"observacion":null,"zona":"uso_intensivo"}},{"type":"Feature","id":31,"geometry":{"type":"Point","coordinates":[-75.116638,5.453837]},"properties":{"observacion":null,"zona":"conservacion"}},{"type":"Feature","id":32,"geometry":{"type":"Point","coordinates":[-75.117924,5.442742]},"properties":{"observacion":null,"zona":"uso_intensivo"}},{"type":"Feature","id":33,"geometry":{"type":"Point","coordinates":[-75.11924,5.4669]},"properties":{"observacion":null,"zona":"entorno"}},{"type":"Feature","id":34,"geometry":{"type":"Point","coordinates":[-75.2328,5.46418]},"properties":{"observacion":null,"zona":"entorno"}},{"type":"Feature","id":35,"geometry":{"type":"Point","coordinates":[-75.19895,5.42072]},"properties":{"observacion":null,"zona":"entorno"}},{"type":"Feature","id":36,"geometry":{"type":"Point","coordinates":[-75.19821,5.37679]},"properties":{"observacion":null,"zona":"entorno"}},{"type":"Feature","id":37,"geometry":{"type":"Point","coordinates":[-75.11738,5.46928]},"properties":{"observacion":null,"zona":"entorno"}},{"type":"Feature","id":38,"geometry":{"type":"Point","coordinates":[-75.22849,5.42794]},"properties":{"observacion":null,"zona":"entorno"}},{"type":"Feature","id":39,"geometry":{"type":"Point","coordinates":[-75.23693,5.47031]},"properties":{"observacion":null,"zona":"entorno"}},{"type":"Feature","id":40,"geometry":{"type":"Point","coordinates":[-75.11725,5.44172]},"properties":{"observacion":null,"zona":"uso_intensivo"}},{"type":"Feature","id":41,"geometry":{"type":"Point","coordinates":[-75.13125,5.42137]},"properties":{"observacion":null,"zona":"entorno"}}]}